{"type": "FeatureCollection", "crs": {"type": "name", "properties": {"name": "EPSG:4326"}}, "features": [{"type": "Feature", "geometry": {"type": "Polygon", "coordinates": [[[-73.9023963606375, 40.8121969640416], [-73.9027116802777, 40.8121079020181], [-73.9028228134635, 40.8120765125514], [-73.9029804461606, 40.812344219272], [-73.9025499745353, 40.812465860258], [-73.9023963606375, 40.8121969640416]]]}, "properties": {"BBL": 2026030011, "Address": "564 SOUTHERN BOULEVARD", "LotArea": 12500, "BldgArea": 20000, "store": "C-Town Supermarket", "license_number": "600246", "bbl": "2026030011", "occupied_sqft": 10000.0, "store_share": 0.5, "share_method": "floor area", "Tax_j": 30863.8, "Rent_j": 184300}}, {"type": "Feature", "geometry": {"type": "Polygon", "coordinates": [[[-73.8963397391318, 40.8220765773217], [-73.896341381797, 40.8219656411498], [-73.895973499575, 40.8219632991128], [-73.8959770565207, 40.8217231505713], [-73.8963449374152, 40.8217254926809], [-73.8967159074731, 40.8217278390603], [-73.8967111469774, 40.8220524215378], [-73.8959666254522, 40.8224274017163], [-73.895971856298, 40.8220742342755], [-73.8963397391318, 40.8220765773217]]]}, "properties": {"BBL": 2027037501, "Address": "950 WESTCHESTER AVENUE", "LotArea": 32792, "BldgArea": 188342, "store": "Fine Fare Supermarket", "license_number": "704892", "bbl": "2027031001", "occupied_sqft": 10000.0, "store_share": 0.5181, "share_method": "floor area", "Tax_j": 8139.72, "Rent_j": 184300}}, {"type": "Feature", "geometry": {"type": "Polygon", "coordinates": [[[-73.8959936769921, 40.8172519622179], [-73.8959449407918, 40.8172990782428], [-73.8958700336343, 40.8173714943637], [-73.8955535964488, 40.8171833796747], [-73.895558851526, 40.8171762218609], [-73.8955671190113, 40.8171656215195], [-73.895574955727, 40.8171561328688], [-73.8955791612262, 40.8171515234537], [-73.8955878900068, 40.8171430891312], [-73.8958823011816, 40.8168572637532], [-73.8962040796953, 40.8170485548024], [-73.8961694309052, 40.8170820518243], [-73.8961251868571, 40.8171248242808], [-73.8960815445754, 40.8171670165007], [-73.8960373241237, 40.8172097682798], [-73.8959936769921, 40.8172519622179]]]}, "properties": {"BBL": 2027210024, "Address": "823 SOUTHERN BOULEVARD", "LotArea": 16500, "BldgArea": 16500, "store": "C Town Supermarket", "license_number": "609927", "bbl": "2027210024", "occupied_sqft": 9200.0, "store_share": 0.5576, "share_method": "floor area", "Tax_j": 57991.43, "Rent_j": 159344}}, {"type": "Feature", "geometry": {"type": "Polygon", "coordinates": [[[-73.8933350378727, 40.8243461259498], [-73.8933354933461, 40.8242926890613], [-73.8932093911637, 40.8241485829991], [-73.8933422928789, 40.8240812120173], [-73.8936934246461, 40.8240680963148], [-73.8937134164799, 40.8243481367049], [-73.8933350378727, 40.8243461259498]]]}, "properties": {"BBL": 2027260070, "Address": "1011 WESTCHESTER AVENUE", "LotArea": 10423, "BldgArea": 9270, "store": "Antillana Fresh Meat Market", "license_number": "725894", "bbl": "2027260070", "occupied_sqft": 4635.0, "store_share": 0.5, "share_method": "floor area", "Tax_j": 18596.74, "Rent_j": 105863}}, {"type": "Feature", "geometry": {"type": "Polygon", "coordinates": [[[-73.8920903305317, 40.8260740901789], [-73.8920948761579, 40.8256373312244], [-73.8924708300344, 40.8256397418315], [-73.8924694967008, 40.8257679109608], [-73.8924686163899, 40.8258527044015], [-73.8924680481612, 40.8259072586861], [-73.892467469648, 40.8259629970733], [-73.8924669095804, 40.826016929945], [-73.8924662880884, 40.8260764998817], [-73.8920903305317, 40.8260740901789]]]}, "properties": {"BBL": 2027270045, "Address": "1093 SOUTHERN BOULEVARD", "LotArea": 16000, "BldgArea": 17600, "store": "Sagal Meat Market", "license_number": "723677", "bbl": "2027270045", "occupied_sqft": 2500.0, "store_share": 0.142, "share_method": "floor area", "Tax_j": 9066.55, "Rent_j": 66800}}, {"type": "Feature", "geometry": {"type": "Polygon", "coordinates": [[[-73.8903904973155, 40.821422226359], [-73.8903633750586, 40.8211018362216], [-73.8911295724548, 40.8211006359965], [-73.8911486707865, 40.8211008998162], [-73.8911688905981, 40.8211024632515], [-73.8911857873316, 40.8211043981728], [-73.891199814547, 40.8211061250855], [-73.8912238929656, 40.821110491807], [-73.8912395896194, 40.8211141418577], [-73.8912545331376, 40.8211187305225], [-73.8912762122242, 40.821125417351], [-73.8913006825482, 40.8211351360252], [-73.8913317631265, 40.8211488402584], [-73.8913518327599, 40.8211611203521], [-73.8913712829468, 40.8211745470778], [-73.8913903679881, 40.8211894448547], [-73.8914091954572, 40.821207513991], [-73.8914226802869, 40.8212220265078], [-73.8914333996889, 40.8212357763754], [-73.8914463576814, 40.8212513743743], [-73.8914625660437, 40.8212836400173], [-73.8914689788461, 40.8212996532434], [-73.891475898021, 40.8213213302591], [-73.8914811293258, 40.8213633919356], [-73.8915173034278, 40.8217836600192], [-73.8909677986824, 40.8218112894865], [-73.890798665204, 40.8218180713161], [-73.8907636370854, 40.821404303075], [-73.8903904973155, 40.821422226359]]]}, "properties": {"BBL": 2027420003, "Address": "940 SOUTHERN BOULEVARD", "LotArea": 44169, "BldgArea": 22000, "store": "Food Fair Fresh Market", "license_number": "603652", "bbl": "2027420003", "occupied_sqft": 11400.0, "store_share": 0.0843, "share_method": "income (floor-area share kept as Tax_j_high)", "Tax_j": 58407.71, "Rent_j": 210102}}, {"type": "Feature", "geometry": {"type": "Polygon", "coordinates": [[[-73.8911900868024, 40.8244021373788], [-73.8910916156966, 40.824406390183], [-73.8910642586488, 40.8240839316772], [-73.8912692804717, 40.8240743421494], [-73.8912736592733, 40.824125951036], [-73.8917220021412, 40.8241049788841], [-73.8917311384316, 40.8242126607804], [-73.8914665405184, 40.8242250388173], [-73.8914675686631, 40.824237145103], [-73.8914387179614, 40.8242384948103], [-73.8914470571234, 40.8243367946021], [-73.8911864251353, 40.8243484228806], [-73.8911900868024, 40.8244021373788]]]}, "properties": {"BBL": 2027430015, "Address": "1046 SOUTHERN BOULEVARD", "LotArea": 12664, "BldgArea": 8251, "store": "Jj Southern Farm Fruit", "license_number": "749183", "bbl": "2027430015", "occupied_sqft": 1600.0, "store_share": 0.1939, "share_method": "floor area", "Tax_j": 17155.19, "Rent_j": 69008}}, {"type": "Feature", "geometry": {"type": "Polygon", "coordinates": [[[-73.8911060286602, 40.8245762752905], [-73.8910916156966, 40.824406390183], [-73.8911900868024, 40.8244021373788], [-73.8911936721209, 40.8244547288468], [-73.8914599335341, 40.8247486794124], [-73.8909648219993, 40.8250018326117], [-73.8909377920317, 40.8246984856053], [-73.8910165358801, 40.8246948014107], [-73.8910767830629, 40.8246369861672], [-73.8910717682054, 40.8245778782195], [-73.8911060286602, 40.8245762752905]]]}, "properties": {"BBL": 2027430025, "Address": "1050 WESTCHESTER AVENUE", "LotArea": 14271, "BldgArea": 67339, "store": "Key Food", "license_number": "601435", "bbl": "2027430025", "occupied_sqft": 12810.0, "store_share": 0.1902, "share_method": "floor area", "Tax_j": 89901.6, "Rent_j": 236088}}, {"type": "Feature", "geometry": {"type": "Polygon", "coordinates": [[[-73.8862399226266, 40.8155974271135], [-73.8861772436365, 40.8155367842782], [-73.8861389397165, 40.8154997224404], [-73.8864340634746, 40.8153326740208], [-73.8866521727503, 40.8155437051155], [-73.8866671223214, 40.8156016281239], [-73.8863319105157, 40.8156515738031], [-73.8863103205426, 40.8156655426984], [-73.8862399226266, 40.8155974271135]]]}, "properties": {"BBL": 2027630256, "Address": "738 HUNTS POINT AVENUE", "LotArea": 10693, "BldgArea": 9800, "store": "Food Universe", "license_number": "606156", "bbl": "2027630256", "occupied_sqft": 9800.0, "store_share": 1.0, "share_method": "floor area", "Tax_j": 60962.44, "Rent_j": 187670}}]}