{
"type": "FeatureCollection",
"name": "agmarkets_bronx_cd2",
"crs": { "type": "name", "properties": { "name": "urn:ogc:def:crs:OGC:1.3:CRS84" } },
"features": [
{ "type": "Feature", "properties": { "county": "BRONX", "license_number": "767797", "operation_type": "Store", "estab_type": "AC", "entity_name": "A&Z GOURMET DELI CORP", "dba_name": "A&Z GOURMET DELI", "street_number": "772", "street_name": "HUNTS POINT AVE", "city": "BRONX", "state": "NY", "zip_code": "10474", "georeference": { "type": "Point", "coordinates": [ -73.88739, 40.81603 ] }, ":@computed_region_yamh_8v7k": "307", "square_footage": null, "address_line_2": null, "address_line_3": null, "longitude": -73.88739, "latitude": 40.81603 }, "geometry": { "type": "Point", "coordinates": [ -73.88739, 40.81603 ] } },
{ "type": "Feature", "properties": { "county": "BRONX", "license_number": "766176", "operation_type": "Store", "estab_type": "AC", "entity_name": "1054 UNITED DELI & SALAD INC", "dba_name": "1054 UNITED DELI & SALAD", "street_number": "1054", "street_name": "SOUTHERN BLVD", "city": "BRONX", "state": "NY", "zip_code": "10459", "georeference": { "type": "Point", "coordinates": [ -73.89191, 40.82439 ] }, ":@computed_region_yamh_8v7k": "307", "square_footage": "900", "address_line_2": null, "address_line_3": null, "longitude": -73.89191, "latitude": 40.82439 }, "geometry": { "type": "Point", "coordinates": [ -73.89191, 40.82439 ] } },
{ "type": "Feature", "properties": { "county": "BRONX", "license_number": "766161", "operation_type": "Store", "estab_type": "AC", "entity_name": "YADIEL GROCERY STORE CORP", "dba_name": "YADIEL GROCERY STORE", "street_number": "670", "street_name": "BARRETTO STREET", "city": "BRONX", "state": "NY", "zip_code": "10474", "georeference": { "type": "Point", "coordinates": [ -73.8892, 40.8139 ] }, ":@computed_region_yamh_8v7k": "307", "square_footage": "1000", "address_line_2": null, "address_line_3": null, "longitude": -73.8892, "latitude": 40.8139 }, "geometry": { "type": "Point", "coordinates": [ -73.8892, 40.8139 ] } },
{ "type": "Feature", "properties": { "county": "BRONX", "license_number": "765394", "operation_type": "Store", "estab_type": "ACDK", "entity_name": "KADOSH TRADING INC", "dba_name": "KADOSH FOODS", "street_number": "490", "street_name": "HUNTS POINT AVE", "city": "BRONX", "state": "NY", "zip_code": "10474", "georeference": { "type": "Point", "coordinates": [ -73.88135, 40.8102 ] }, ":@computed_region_yamh_8v7k": "307", "square_footage": "5000", "address_line_2": null, "address_line_3": null, "longitude": -73.88135, "latitude": 40.8102 }, "geometry": { "type": "Point", "coordinates": [ -73.88135, 40.8102 ] } },
{ "type": "Feature", "properties": { "county": "BRONX", "license_number": "764530", "operation_type": "Store", "estab_type": "AC", "entity_name": "844 MINI MARKET FISH AND FRIES INC", "dba_name": "844 MINI MARKET FISH", "street_number": "844", "street_name": "HUNTS POINT AVE", "city": "BRONX", "state": "NY", "zip_code": "10474", "georeference": { "type": "Point", "coordinates": [ -73.88851, 40.81757 ] }, ":@computed_region_yamh_8v7k": "307", "square_footage": null, "address_line_2": null, "address_line_3": null, "longitude": -73.88851, "latitude": 40.81757 }, "geometry": { "type": "Point", "coordinates": [ -73.88851, 40.81757 ] } },
{ "type": "Feature", "properties": { "county": "BRONX", "license_number": "764455", "operation_type": "Store", "estab_type": "AC", "entity_name": "D LORA CORP", "dba_name": "D LORA", "street_number": "814", "street_name": "HEWITT PLACE", "city": "BRONX", "state": "NY", "zip_code": "10459", "georeference": { "type": "Point", "coordinates": [ -73.89988, 40.81882 ] }, ":@computed_region_yamh_8v7k": "307", "square_footage": null, "address_line_2": null, "address_line_3": null, "longitude": -73.89988, "latitude": 40.81882 }, "geometry": { "type": "Point", "coordinates": [ -73.89988, 40.81882 ] } },
{ "type": "Feature", "properties": { "county": "BRONX", "license_number": "764322", "operation_type": "Store", "estab_type": "AC", "entity_name": "FERNANDEZ MARGARITA", "dba_name": "MARGARITAS GROCERY STORE", "street_number": "926", "street_name": "INTERVALE AVE", "city": "BRONX", "state": "NY", "zip_code": "10459", "georeference": { "type": "Point", "coordinates": [ -73.89661, 40.81984 ] }, ":@computed_region_yamh_8v7k": "307", "square_footage": "1000", "address_line_2": null, "address_line_3": null, "longitude": -73.89661, "latitude": 40.81984 }, "geometry": { "type": "Point", "coordinates": [ -73.89661, 40.81984 ] } },
{ "type": "Feature", "properties": { "county": "BRONX", "license_number": "763602", "operation_type": "Store", "estab_type": "AC", "entity_name": "VARIEDADES DE MI CULTURA EBENEZER CORP", "dba_name": "VARIEDADES DE MI CULTURA EBENEZER", "street_number": "1087-1093", "street_name": "SOUTHERN BLVD", "city": "BRONX", "state": "NY", "zip_code": "10459", "georeference": { "type": "Point", "coordinates": [ -73.89194, 40.82577 ] }, ":@computed_region_yamh_8v7k": "307", "square_footage": null, "address_line_2": null, "address_line_3": null, "longitude": -73.89194, "latitude": 40.82577 }, "geometry": { "type": "Point", "coordinates": [ -73.89194, 40.82577 ] } },
{ "type": "Feature", "properties": { "county": "BRONX", "license_number": "763544", "operation_type": "Store", "estab_type": "AC", "entity_name": "J&J DELI GROCERY STORE CORP", "dba_name": "J&J DELI GROCERY STORE", "street_number": "699", "street_name": "BECK STREET ##", "city": "BRONX", "state": "NY", "zip_code": "10455", "georeference": { "type": "Point", "coordinates": [ -73.9003, 40.81503 ] }, ":@computed_region_yamh_8v7k": "307", "square_footage": "1000", "address_line_2": null, "address_line_3": null, "longitude": -73.9003, "latitude": 40.81503 }, "geometry": { "type": "Point", "coordinates": [ -73.9003, 40.81503 ] } },
{ "type": "Feature", "properties": { "county": "BRONX", "license_number": "763145", "operation_type": "Store", "estab_type": "AC", "entity_name": "DIANA MINI MARKET CORP", "dba_name": "DIANA MINI MARKET", "street_number": "701", "street_name": "COSTER STREET ####", "city": "BRONX", "state": "NY", "zip_code": "10474", "georeference": { "type": "Point", "coordinates": [ -73.88748, 40.81464 ] }, ":@computed_region_yamh_8v7k": "307", "square_footage": "1200", "address_line_2": null, "address_line_3": null, "longitude": -73.88748, "latitude": 40.81464 }, "geometry": { "type": "Point", "coordinates": [ -73.88748, 40.81464 ] } },
{ "type": "Feature", "properties": { "county": "BRONX", "license_number": "762631", "operation_type": "Store", "estab_type": "AC", "entity_name": "BUUNNI COFFEE LLC", "dba_name": "ROASTING ROOM THE", "street_number": "542", "street_name": "BARRETTO ST", "city": "BRONX", "state": "NY", "zip_code": "10474", "georeference": { "type": "Point", "coordinates": [ -73.88848, 40.81117 ] }, ":@computed_region_yamh_8v7k": "307", "square_footage": "5000", "address_line_2": null, "address_line_3": null, "longitude": -73.88848, "latitude": 40.81117 }, "geometry": { "type": "Point", "coordinates": [ -73.88848, 40.81117 ] } },
{ "type": "Feature", "properties": { "county": "BRONX", "license_number": "762597", "operation_type": "Store", "estab_type": "A", "entity_name": "JOSE MINI MARKET INC", "dba_name": "JOSE MINI MARKET", "street_number": "549", "street_name": "SOUTHERN BLVD", "city": "BRONX", "state": "NY", "zip_code": "10455", "georeference": { "type": "Point", "coordinates": [ -73.90358, 40.81228 ] }, ":@computed_region_yamh_8v7k": "307", "square_footage": null, "address_line_2": null, "address_line_3": null, "longitude": -73.90358, "latitude": 40.81228 }, "geometry": { "type": "Point", "coordinates": [ -73.90358, 40.81228 ] } },
{ "type": "Feature", "properties": { "county": "BRONX", "license_number": "762584", "operation_type": "Store", "estab_type": "AC", "entity_name": "1007 GOURMET DELI INC", "dba_name": "1007 GOURMET DELI", "street_number": "1007", "street_name": "SOUTHERN BLVD", "city": "BRONX", "state": "NY", "zip_code": "10459", "georeference": { "type": "Point", "coordinates": [ -73.89179, 40.82304 ] }, ":@computed_region_yamh_8v7k": "307", "square_footage": null, "address_line_2": null, "address_line_3": null, "longitude": -73.89179, "latitude": 40.82304 }, "geometry": { "type": "Point", "coordinates": [ -73.89179, 40.82304 ] } },
{ "type": "Feature", "properties": { "county": "BRONX", "license_number": "762487", "operation_type": "Store", "estab_type": "AC", "entity_name": "CASITA MARIA DELI CORP", "dba_name": "CASITA MARIA DELI", "street_number": "1020-1022", "street_name": "EAST 163RD STREET", "city": "BRONX", "state": "NY", "zip_code": "10459", "georeference": { "type": "Point", "coordinates": [ -73.89225, 40.82098 ] }, ":@computed_region_yamh_8v7k": "307", "square_footage": null, "address_line_2": null, "address_line_3": null, "longitude": -73.89225, "latitude": 40.82098 }, "geometry": { "type": "Point", "coordinates": [ -73.89225, 40.82098 ] } },
{ "type": "Feature", "properties": { "county": "BRONX", "license_number": "762315", "operation_type": "Store", "estab_type": "AC", "entity_name": "LAS 3S R DELI GROCERY CORP", "dba_name": "LAS 3'S DELI GROCERY", "street_number": "1001", "street_name": "E 167TH ST", "city": "BRONX", "state": "NY", "zip_code": "10459", "georeference": { "type": "Point", "coordinates": [ -73.88968, 40.82677 ] }, ":@computed_region_yamh_8v7k": "307", "square_footage": "1000", "address_line_2": null, "address_line_3": null, "longitude": -73.88968, "latitude": 40.82677 }, "geometry": { "type": "Point", "coordinates": [ -73.88968, 40.82677 ] } },
{ "type": "Feature", "properties": { "county": "BRONX", "license_number": "762137", "operation_type": "Store", "estab_type": "AC", "entity_name": "FERNANDEZ DELI GROCERY II CORP", "dba_name": "FERNANDEZ DELI GROCERY II", "street_number": "986", "street_name": "ROGERS PLACE", "city": "BRONX", "state": "NY", "zip_code": "10459", "georeference": { "type": "Point", "coordinates": [ -73.89761, 40.82374 ] }, ":@computed_region_yamh_8v7k": "307", "square_footage": null, "address_line_2": null, "address_line_3": null, "longitude": -73.89761, "latitude": 40.82374 }, "geometry": { "type": "Point", "coordinates": [ -73.89761, 40.82374 ] } },
{ "type": "Feature", "properties": { "county": "BRONX", "license_number": "761933", "operation_type": "Store", "estab_type": "A", "entity_name": "DREAMS 1 99C CORPORATION", "dba_name": "99 CENT DREAMS", "street_number": "874", "street_name": "HUNTS POINT AVE", "city": "BRONX", "state": "NY", "zip_code": "10474", "georeference": { "type": "Point", "coordinates": [ -73.88928, 40.81878 ] }, ":@computed_region_yamh_8v7k": "307", "square_footage": null, "address_line_2": null, "address_line_3": null, "longitude": -73.88928, "latitude": 40.81878 }, "geometry": { "type": "Point", "coordinates": [ -73.88928, 40.81878 ] } },
{ "type": "Feature", "properties": { "county": "BRONX", "license_number": "761834", "operation_type": "Store", "estab_type": "AC", "entity_name": "YEDELINE DELI & GROCERY 3 CORP", "dba_name": "YEDELINE DELI & GROCERY 3", "street_number": "900", "street_name": "HOE AVE", "city": "BRONX", "state": "NY", "zip_code": "10459", "georeference": { "type": "Point", "coordinates": [ -73.89028, 40.82135 ] }, ":@computed_region_yamh_8v7k": "307", "square_footage": null, "address_line_2": null, "address_line_3": null, "longitude": -73.89028, "latitude": 40.82135 }, "geometry": { "type": "Point", "coordinates": [ -73.89028, 40.82135 ] } },
{ "type": "Feature", "properties": { "county": "BRONX", "license_number": "761622", "operation_type": "Store", "estab_type": "AC", "entity_name": "ULISESS BUTCHER SHOP NY INC", "dba_name": "ULISESS BUTCHER SHOP NY", "street_number": "956", "street_name": "LONGWOOD AVE###", "city": "BRONX", "state": "NY", "zip_code": "10459", "georeference": { "type": "Point", "coordinates": [ -73.89827, 40.81755 ] }, ":@computed_region_yamh_8v7k": "307", "square_footage": null, "address_line_2": null, "address_line_3": null, "longitude": -73.89827, "latitude": 40.81755 }, "geometry": { "type": "Point", "coordinates": [ -73.89827, 40.81755 ] } },
{ "type": "Feature", "properties": { "county": "BRONX", "license_number": "761224", "operation_type": "Store", "estab_type": "AC", "entity_name": "MAX FRESH FOOD DELI CORP", "dba_name": "MAX FRESH FOOD DELI", "street_number": "870", "street_name": "PROSPECT AVE", "city": "BRONX", "state": "NY", "zip_code": "10459", "georeference": { "type": "Point", "coordinates": [ -73.90137, 40.82027 ] }, ":@computed_region_yamh_8v7k": "307", "square_footage": null, "address_line_2": null, "address_line_3": null, "longitude": -73.90137, "latitude": 40.82027 }, "geometry": { "type": "Point", "coordinates": [ -73.90137, 40.82027 ] } },
{ "type": "Feature", "properties": { "county": "BRONX", "license_number": "760337", "operation_type": "Store", "estab_type": "AC", "entity_name": "MARCS DELI & GROCERY CORP", "dba_name": "MARCS DELI & GROCERY", "street_number": "1126", "street_name": "WESTCHESTER AVE", "city": "BRONX", "state": "NY", "zip_code": "10459", "georeference": { "type": "Point", "coordinates": [ -73.88993, 40.82569 ] }, ":@computed_region_yamh_8v7k": "307", "square_footage": null, "address_line_2": null, "address_line_3": null, "longitude": -73.88993, "latitude": 40.82569 }, "geometry": { "type": "Point", "coordinates": [ -73.88993, 40.82569 ] } },
{ "type": "Feature", "properties": { "county": "BRONX", "license_number": "760222", "operation_type": "Store", "estab_type": "AC", "entity_name": "NOVAX DELI CORPORATION", "dba_name": "NOVAX DELI", "street_number": "831", "street_name": "DAWSON ST", "city": "BRONX", "state": "NY", "zip_code": "10459", "georeference": { "type": "Point", "coordinates": [ -73.89844, 40.81897 ] }, ":@computed_region_yamh_8v7k": "307", "square_footage": null, "address_line_2": null, "address_line_3": null, "longitude": -73.89844, "latitude": 40.81897 }, "geometry": { "type": "Point", "coordinates": [ -73.89844, 40.81897 ] } },
{ "type": "Feature", "properties": { "county": "BRONX", "license_number": "760107", "operation_type": "Store", "estab_type": "AC", "entity_name": "FIRST HEALTH FRESH GOURMET INC", "dba_name": "FIRST HEALTH FRESH GOURMET", "street_number": "795", "street_name": "SOUTHERN BLVD", "city": "BRONX", "state": "NY", "zip_code": "10455", "georeference": { "type": "Point", "coordinates": [ -73.89645, 40.81609 ] }, ":@computed_region_yamh_8v7k": "307", "square_footage": null, "address_line_2": null, "address_line_3": null, "longitude": -73.89645, "latitude": 40.81609 }, "geometry": { "type": "Point", "coordinates": [ -73.89645, 40.81609 ] } },
{ "type": "Feature", "properties": { "county": "BRONX", "license_number": "760077", "operation_type": "Store", "estab_type": "A", "entity_name": "NEW HOPE GROCERY INC", "dba_name": "NEW HOPE GROCERY", "street_number": "944", "street_name": "ALDUS ST", "city": "BRONX", "state": "NY", "zip_code": "10459", "georeference": { "type": "Point", "coordinates": [ -73.89145, 40.8231 ] }, ":@computed_region_yamh_8v7k": "307", "square_footage": null, "address_line_2": null, "address_line_3": null, "longitude": -73.89145, "latitude": 40.8231 }, "geometry": { "type": "Point", "coordinates": [ -73.89145, 40.8231 ] } },
{ "type": "Feature", "properties": { "county": "BRONX", "license_number": "758904", "operation_type": "Store", "estab_type": "A", "entity_name": "CULINART INC", "dba_name": "BALDOR SPECIALTY FOODS", "street_number": "155", "street_name": "FOOD CENTER DRIVE  ##", "city": "BRONX", "state": "NY", "zip_code": "10474", "georeference": { "type": "Point", "coordinates": [ -73.87445, 40.80814 ] }, ":@computed_region_yamh_8v7k": "307", "square_footage": "400", "address_line_2": null, "address_line_3": null, "longitude": -73.87445, "latitude": 40.80814 }, "geometry": { "type": "Point", "coordinates": [ -73.87445, 40.80814 ] } },
{ "type": "Feature", "properties": { "county": "BRONX", "license_number": "758653", "operation_type": "Store", "estab_type": "AC", "entity_name": "GINO DELI GROCERY CORP", "dba_name": "GINO DELI GROCERY", "street_number": "935", "street_name": "E 163RD ST  ##", "city": "BRONX", "state": "NY", "zip_code": "10459", "georeference": { "type": "Point", "coordinates": [ -73.89653, 40.821 ] }, ":@computed_region_yamh_8v7k": "307", "square_footage": "1200", "address_line_2": null, "address_line_3": null, "longitude": -73.89653, "latitude": 40.821 }, "geometry": { "type": "Point", "coordinates": [ -73.89653, 40.821 ] } },
{ "type": "Feature", "properties": { "county": "BRONX", "license_number": "757845", "operation_type": "Store", "estab_type": "AC", "entity_name": "KELLY SREET DELI CORP", "dba_name": "KELLY SREET DELI", "street_number": "947", "street_name": "E 163RD STREET", "city": "BRONX", "state": "NY", "zip_code": "10459", "georeference": { "type": "Point", "coordinates": [ -73.89617, 40.82099 ] }, ":@computed_region_yamh_8v7k": "307", "square_footage": "1400", "address_line_2": null, "address_line_3": null, "longitude": -73.89617, "latitude": 40.82099 }, "geometry": { "type": "Point", "coordinates": [ -73.89617, 40.82099 ] } },
{ "type": "Feature", "properties": { "county": "BRONX", "license_number": "756554", "operation_type": "Store", "estab_type": "AC", "entity_name": "SON SONATECA GROCERY STORE CORP", "dba_name": "RP GROCERY DELI", "street_number": "945", "street_name": "ALDUS ST", "city": "BRONX", "state": "NY", "zip_code": "10459", "georeference": { "type": "Point", "coordinates": [ -73.89143, 40.8231 ] }, ":@computed_region_yamh_8v7k": "307", "square_footage": null, "address_line_2": null, "address_line_3": null, "longitude": -73.89143, "latitude": 40.8231 }, "geometry": { "type": "Point", "coordinates": [ -73.89143, 40.8231 ] } },
{ "type": "Feature", "properties": { "county": "BRONX", "license_number": "756541", "operation_type": "Store", "estab_type": "AC", "entity_name": "GRAB 2 GO DELI CORP", "dba_name": "GRAB 2 GO DELI", "street_number": "1101", "street_name": "GARRISON AVE", "city": "BRONX", "state": "NY", "zip_code": "10474", "georeference": { "type": "Point", "coordinates": [ -73.88951, 40.81957 ] }, ":@computed_region_yamh_8v7k": "307", "square_footage": "2000", "address_line_2": null, "address_line_3": null, "longitude": -73.88951, "latitude": 40.81957 }, "geometry": { "type": "Point", "coordinates": [ -73.88951, 40.81957 ] } },
{ "type": "Feature", "properties": { "county": "BRONX", "license_number": "755526", "operation_type": "Store", "estab_type": "AC", "entity_name": "HEALTHY SHACK DELI GROCERY CORP", "dba_name": "HEALTHY SHACK DELI GROCERY", "street_number": "1086", "street_name": "SOUTHERN BLVD. STORE #2 ###", "city": "BRONX", "state": "NY", "zip_code": "10459", "georeference": { "type": "Point", "coordinates": [ -73.89172, 40.82599 ] }, ":@computed_region_yamh_8v7k": "307", "square_footage": null, "address_line_2": null, "address_line_3": null, "longitude": -73.89172, "latitude": 40.82599 }, "geometry": { "type": "Point", "coordinates": [ -73.89172, 40.82599 ] } },
{ "type": "Feature", "properties": { "county": "BRONX", "license_number": "755064", "operation_type": "Store", "estab_type": "AC", "entity_name": "BEL CANTO FOODS LLC", "dba_name": "DOWN EAST SEAFOOD", "street_number": "311", "street_name": "MANIDA ST ###", "city": "BRONX", "state": "NY", "zip_code": "10474", "georeference": { "type": "Point", "coordinates": [ -73.88641, 40.80688 ] }, ":@computed_region_yamh_8v7k": "307", "square_footage": null, "address_line_2": null, "address_line_3": null, "longitude": -73.88641, "latitude": 40.80688 }, "geometry": { "type": "Point", "coordinates": [ -73.88641, 40.80688 ] } },
{ "type": "Feature", "properties": { "county": "BRONX", "license_number": "754673", "operation_type": "Store", "estab_type": "AC", "entity_name": "PERLA GROCERY CORP", "dba_name": "PERLA GROCERY", "street_number": "1142", "street_name": "EAST 165TH STREET ###", "city": "BRONX", "state": "NY", "zip_code": "10459", "georeference": { "type": "Point", "coordinates": [ -73.88748, 40.82523 ] }, ":@computed_region_yamh_8v7k": "307", "square_footage": null, "address_line_2": null, "address_line_3": null, "longitude": -73.88748, "latitude": 40.82523 }, "geometry": { "type": "Point", "coordinates": [ -73.88748, 40.82523 ] } },
{ "type": "Feature", "properties": { "county": "BRONX", "license_number": "753620", "operation_type": "Store", "estab_type": "A", "entity_name": "AAYAN FRUITS & VEGETABLES INC", "dba_name": "AAYAN FRUITS & VEGETABLES", "street_number": "547", "street_name": "SOUTHERN BLVD", "city": "BRONX", "state": "NY", "zip_code": "10455", "georeference": { "type": "Point", "coordinates": [ -73.90362, 40.81227 ] }, ":@computed_region_yamh_8v7k": "307", "square_footage": null, "address_line_2": null, "address_line_3": null, "longitude": -73.90362, "latitude": 40.81227 }, "geometry": { "type": "Point", "coordinates": [ -73.90362, 40.81227 ] } },
{ "type": "Feature", "properties": { "county": "BRONX", "license_number": "753105", "operation_type": "Store", "estab_type": "AC", "entity_name": "EL MANA MINI MARKET CORP", "dba_name": "EL MANA MINI MARKET", "street_number": "1024", "street_name": "LONGWOOD AVE", "city": "BRONX", "state": "NY", "zip_code": "10459", "georeference": { "type": "Point", "coordinates": [ -73.89645, 40.81645 ] }, ":@computed_region_yamh_8v7k": "307", "square_footage": "1650", "address_line_2": null, "address_line_3": null, "longitude": -73.89645, "latitude": 40.81645 }, "geometry": { "type": "Point", "coordinates": [ -73.89645, 40.81645 ] } },
{ "type": "Feature", "properties": { "county": "BRONX", "license_number": "752283", "operation_type": "Store", "estab_type": "AC", "entity_name": "IRON GRILL CORP", "dba_name": "IRON GRILL", "street_number": "596", "street_name": "SOUTHERN BLVD  ###", "city": "BRONX", "state": "NY", "zip_code": "10455", "georeference": { "type": "Point", "coordinates": [ -73.90165, 40.81284 ] }, ":@computed_region_yamh_8v7k": "307", "square_footage": null, "address_line_2": null, "address_line_3": null, "longitude": -73.90165, "latitude": 40.81284 }, "geometry": { "type": "Point", "coordinates": [ -73.90165, 40.81284 ] } },
{ "type": "Feature", "properties": { "county": "BRONX", "license_number": "751852", "operation_type": "Store", "estab_type": "AC", "entity_name": "GILBERT PLACE DELI GROCERY INC", "dba_name": "GILBERT PLACE DELI GROCERY", "street_number": "1204", "street_name": "GILBERT PLACE", "city": "BRONX", "state": "NY", "zip_code": "10474", "georeference": { "type": "Point", "coordinates": [ -73.88814, 40.81784 ] }, ":@computed_region_yamh_8v7k": "307", "square_footage": "1400", "address_line_2": null, "address_line_3": null, "longitude": -73.88814, "latitude": 40.81784 }, "geometry": { "type": "Point", "coordinates": [ -73.88814, 40.81784 ] } },
{ "type": "Feature", "properties": { "county": "BRONX", "license_number": "751634", "operation_type": "Store", "estab_type": "AC", "entity_name": "EL PROVOCON DELI GROCERY CORP", "dba_name": "EL PROVOCON DELI GROCERY", "street_number": "622-624", "street_name": "MANIDA ST - STORE 1", "city": "BRONX", "state": "NY", "zip_code": "10474", "georeference": { "type": "Point", "coordinates": [ -73.88782, 40.8123 ] }, ":@computed_region_yamh_8v7k": "307", "square_footage": "1000", "address_line_2": null, "address_line_3": null, "longitude": -73.88782, "latitude": 40.8123 }, "geometry": { "type": "Point", "coordinates": [ -73.88782, 40.8123 ] } },
{ "type": "Feature", "properties": { "county": "BRONX", "license_number": "751504", "operation_type": "Store", "estab_type": "A", "entity_name": "SW GROCERY & DELI CORP", "dba_name": "SW GROCERY & DELI", "street_number": "935", "street_name": "E 163 ST - CORNER", "city": "BRONX", "state": "NY", "zip_code": "10459", "georeference": { "type": "Point", "coordinates": [ -73.89653, 40.821 ] }, ":@computed_region_yamh_8v7k": "307", "square_footage": null, "address_line_2": null, "address_line_3": null, "longitude": -73.89653, "latitude": 40.821 }, "geometry": { "type": "Point", "coordinates": [ -73.89653, 40.821 ] } },
{ "type": "Feature", "properties": { "county": "BRONX", "license_number": "751327", "operation_type": "Store", "estab_type": "AC", "entity_name": "TOP FRUITS AND VEGETABLES CORP", "dba_name": "TOP FRUITS AND VEGETABLES", "street_number": "1057", "street_name": "SOUTHERN BLVD", "city": "BRONX", "state": "NY", "zip_code": "10459", "georeference": { "type": "Point", "coordinates": [ -73.89194, 40.82482 ] }, ":@computed_region_yamh_8v7k": "307", "square_footage": "1500", "address_line_2": null, "address_line_3": null, "longitude": -73.89194, "latitude": 40.82482 }, "geometry": { "type": "Point", "coordinates": [ -73.89194, 40.82482 ] } },
{ "type": "Feature", "properties": { "county": "BRONX", "license_number": "751207", "operation_type": "Store", "estab_type": "AC", "entity_name": "MI CHAPINCITA QUETZAL CORP", "dba_name": "MI CHAPINCITA QUETZAL", "street_number": "1093", "street_name": "SOUTHERN BLVD", "city": "BRONX", "state": "NY", "zip_code": "10459", "georeference": { "type": "Point", "coordinates": [ -73.89194, 40.82605 ] }, ":@computed_region_yamh_8v7k": "307", "square_footage": null, "address_line_2": null, "address_line_3": null, "longitude": -73.89194, "latitude": 40.82605 }, "geometry": { "type": "Point", "coordinates": [ -73.89194, 40.82605 ] } },
{ "type": "Feature", "properties": { "county": "BRONX", "license_number": "750697", "operation_type": "Store", "estab_type": "AC", "entity_name": "THEMACCS LLC", "dba_name": "MACCS", "street_number": "220", "street_name": "COSTER ST", "city": "BRONX", "state": "NY", "zip_code": "10474", "georeference": { "type": "Point", "coordinates": [ -73.88505, 40.80519 ] }, ":@computed_region_yamh_8v7k": "307", "square_footage": "2000", "address_line_2": null, "address_line_3": null, "longitude": -73.88505, "latitude": 40.80519 }, "geometry": { "type": "Point", "coordinates": [ -73.88505, 40.80519 ] } },
{ "type": "Feature", "properties": { "county": "BRONX", "license_number": "750497", "operation_type": "Store", "estab_type": "AC", "entity_name": "HUNTS POINT DELI CORP", "dba_name": "HUNTS POINT DELI", "street_number": "1331", "street_name": "SENECA AVE", "city": "BRONX", "state": "NY", "zip_code": "10474", "georeference": { "type": "Point", "coordinates": [ -73.88637, 40.81904 ] }, ":@computed_region_yamh_8v7k": "307", "square_footage": null, "address_line_2": null, "address_line_3": null, "longitude": -73.88637, "latitude": 40.81904 }, "geometry": { "type": "Point", "coordinates": [ -73.88637, 40.81904 ] } },
{ "type": "Feature", "properties": { "county": "BRONX", "license_number": "750396", "operation_type": "Store", "estab_type": "AC", "entity_name": "SLOW COCOA LLC", "dba_name": "SLOW COCOA", "street_number": "1361", "street_name": "VIELE AVE #201  ##", "city": "BRONX", "state": "NY", "zip_code": "10474", "georeference": { "type": "Point", "coordinates": [ -73.88142, 40.80729 ] }, ":@computed_region_yamh_8v7k": "307", "square_footage": "800", "address_line_2": null, "address_line_3": null, "longitude": -73.88142, "latitude": 40.80729 }, "geometry": { "type": "Point", "coordinates": [ -73.88142, 40.80729 ] } },
{ "type": "Feature", "properties": { "county": "BRONX", "license_number": "749781", "operation_type": "Store", "estab_type": "AC", "entity_name": "WESTCHESTER GROCERY CORP", "dba_name": "WESTCHESTER GROCERY", "street_number": "987", "street_name": "WESTCHESTER AVE ####", "city": "BRONX", "state": "NY", "zip_code": "10459", "georeference": { "type": "Point", "coordinates": [ -73.89425, 40.8235 ] }, ":@computed_region_yamh_8v7k": "307", "square_footage": "1300", "address_line_2": null, "address_line_3": null, "longitude": -73.89425, "latitude": 40.8235 }, "geometry": { "type": "Point", "coordinates": [ -73.89425, 40.8235 ] } },
{ "type": "Feature", "properties": { "county": "BRONX", "license_number": "749183", "operation_type": "Store", "estab_type": "AC", "entity_name": "S WON PROVISIONS INC", "dba_name": "JJ SOUTHERN FARM FRUIT", "street_number": "1046", "street_name": "SOUTHERN BLVD ##", "city": "BRONX", "state": "NY", "zip_code": "10459", "georeference": { "type": "Point", "coordinates": [ -73.89188, 40.82414 ] }, ":@computed_region_yamh_8v7k": "307", "square_footage": "1600", "address_line_2": null, "address_line_3": null, "longitude": -73.89188, "latitude": 40.82414 }, "geometry": { "type": "Point", "coordinates": [ -73.89188, 40.82414 ] } },
{ "type": "Feature", "properties": { "county": "BRONX", "license_number": "748846", "operation_type": "Store", "estab_type": "AC", "entity_name": "SOUTHERN BLVD GORMET DELI & SMOKE SHOP C", "dba_name": "SOUTHERN BLVD GORMET DELI & SMOKE SHOP", "street_number": "1007", "street_name": "SOUTHERN BLVD", "city": "BRONX", "state": "NY", "zip_code": "10459", "georeference": { "type": "Point", "coordinates": [ -73.89179, 40.82304 ] }, ":@computed_region_yamh_8v7k": "307", "square_footage": "600", "address_line_2": null, "address_line_3": null, "longitude": -73.89179, "latitude": 40.82304 }, "geometry": { "type": "Point", "coordinates": [ -73.89179, 40.82304 ] } },
{ "type": "Feature", "properties": { "county": "BRONX", "license_number": "748813", "operation_type": "Store", "estab_type": "AC", "entity_name": "ECUATORIANITAS DELI CORP", "dba_name": "ECUATORIANITAS DELI", "street_number": "978", "street_name": "LONGWOOD AVE", "city": "BRONX", "state": "NY", "zip_code": "10459", "georeference": { "type": "Point", "coordinates": [ -73.89766, 40.81716 ] }, ":@computed_region_yamh_8v7k": "307", "square_footage": null, "address_line_2": null, "address_line_3": null, "longitude": -73.89766, "latitude": 40.81716 }, "geometry": { "type": "Point", "coordinates": [ -73.89766, 40.81716 ] } },
{ "type": "Feature", "properties": { "county": "BRONX", "license_number": "748738", "operation_type": "Store", "estab_type": "AC", "entity_name": "LILIS DELI GROCERY CORP", "dba_name": "LILIS DELI GROCERY", "street_number": "995", "street_name": "KELLY STREET, STORE 16", "city": "BRONX", "state": "NY", "zip_code": "10459", "georeference": { "type": "Point", "coordinates": [ -73.89586, 40.82283 ] }, ":@computed_region_yamh_8v7k": "307", "square_footage": "600", "address_line_2": null, "address_line_3": null, "longitude": -73.89586, "latitude": 40.82283 }, "geometry": { "type": "Point", "coordinates": [ -73.89586, 40.82283 ] } },
{ "type": "Feature", "properties": { "county": "BRONX", "license_number": "748669", "operation_type": "Store", "estab_type": "AC", "entity_name": "BENEFISHAL SEAFOOD LLC", "dba_name": "BENEFISHAL SEAFOOD", "street_number": "800", "street_name": "FOOD CENTER DR UNIT 36 ###", "city": "BRONX", "state": "NY", "zip_code": "10474", "georeference": { "type": "Point", "coordinates": [ -73.87625, 40.80434 ] }, ":@computed_region_yamh_8v7k": "307", "square_footage": "800", "address_line_2": null, "address_line_3": null, "longitude": -73.87625, "latitude": 40.80434 }, "geometry": { "type": "Point", "coordinates": [ -73.87625, 40.80434 ] } },
{ "type": "Feature", "properties": { "county": "BRONX", "license_number": "748248", "operation_type": "Store", "estab_type": "AC", "entity_name": "FRIENDLY DELI INC", "dba_name": "FRIENDLY DELI", "street_number": "671", "street_name": "KELLY STREET", "city": "BRONX", "state": "NY", "zip_code": "10455", "georeference": { "type": "Point", "coordinates": [ -73.90229, 40.81538 ] }, ":@computed_region_yamh_8v7k": "307", "square_footage": "800", "address_line_2": null, "address_line_3": null, "longitude": -73.90229, "latitude": 40.81538 }, "geometry": { "type": "Point", "coordinates": [ -73.90229, 40.81538 ] } },
{ "type": "Feature", "properties": { "county": "BRONX", "license_number": "748165", "operation_type": "Store", "estab_type": "AC", "entity_name": "FASO AFRICAN MARKET CORP", "dba_name": "FASO AFRICAN MARKET", "street_number": "953A", "street_name": "WESTCHESTER AVE", "city": "BRONX", "state": "NY", "zip_code": "10459", "georeference": { "type": "Point", "coordinates": [ -73.89603, 40.82254 ] }, ":@computed_region_yamh_8v7k": "307", "square_footage": "400", "address_line_2": null, "address_line_3": null, "longitude": -73.89603, "latitude": 40.82254 }, "geometry": { "type": "Point", "coordinates": [ -73.89603, 40.82254 ] } },
{ "type": "Feature", "properties": { "county": "BRONX", "license_number": "748164", "operation_type": "Store", "estab_type": "A", "entity_name": "BAJAJ FOOD CORP", "dba_name": "EVERYDAY SAVINGS", "street_number": "1031", "street_name": "WESTCHESTER AVE", "city": "BRONX", "state": "NY", "zip_code": "10459", "georeference": { "type": "Point", "coordinates": [ -73.89271, 40.82428 ] }, ":@computed_region_yamh_8v7k": "307", "square_footage": "2000", "address_line_2": null, "address_line_3": null, "longitude": -73.89271, "latitude": 40.82428 }, "geometry": { "type": "Point", "coordinates": [ -73.89271, 40.82428 ] } },
{ "type": "Feature", "properties": { "county": "BRONX", "license_number": "747730", "operation_type": "Store", "estab_type": "A", "entity_name": "ST JOHN MARKET INC", "dba_name": "ST JOHN MARKET", "street_number": "639", "street_name": "SOUTHERN BLVD", "city": "BRONX", "state": "NY", "zip_code": "10455", "georeference": { "type": "Point", "coordinates": [ -73.90106, 40.81301 ] }, ":@computed_region_yamh_8v7k": "307", "square_footage": null, "address_line_2": null, "address_line_3": null, "longitude": -73.90106, "latitude": 40.81301 }, "geometry": { "type": "Point", "coordinates": [ -73.90106, 40.81301 ] } },
{ "type": "Feature", "properties": { "county": "BRONX", "license_number": "747379", "operation_type": "Store", "estab_type": "A", "entity_name": "BROTHERS & BOBO LLC", "dba_name": "BROTHERS & BOBO", "street_number": "902", "street_name": "HUNTS POINT AVENUE", "city": "BRONX", "state": "NY", "zip_code": "10474", "georeference": { "type": "Point", "coordinates": [ -73.88988, 40.81956 ] }, ":@computed_region_yamh_8v7k": "307", "square_footage": "550", "address_line_2": null, "address_line_3": null, "longitude": -73.88988, "latitude": 40.81956 }, "geometry": { "type": "Point", "coordinates": [ -73.88988, 40.81956 ] } },
{ "type": "Feature", "properties": { "county": "BRONX", "license_number": "745838", "operation_type": "Store", "estab_type": "AC", "entity_name": "BEST DAY & NIGHT DELI GROCERY CORP", "dba_name": "BEST DAY & NIGHT DELI GROCERY", "street_number": "1017", "street_name": "LEGGET AVE", "city": "BRONX", "state": "NY", "zip_code": "10455", "georeference": { "type": "Point", "coordinates": [ -73.89964, 40.81412 ] }, ":@computed_region_yamh_8v7k": "307", "square_footage": null, "address_line_2": null, "address_line_3": null, "longitude": -73.89964, "latitude": 40.81412 }, "geometry": { "type": "Point", "coordinates": [ -73.89964, 40.81412 ] } },
{ "type": "Feature", "properties": { "county": "BRONX", "license_number": "744765", "operation_type": "Store", "estab_type": "A", "entity_name": "PRIME NOW LLC", "dba_name": "PRIME NOW", "street_number": "1080", "street_name": "LEGGETT AVE", "city": "BRONX", "state": "NY", "zip_code": "10474", "georeference": { "type": "Point", "coordinates": [ -73.8963, 40.81228 ] }, ":@computed_region_yamh_8v7k": "307", "square_footage": "180000", "address_line_2": null, "address_line_3": null, "longitude": -73.8963, "latitude": 40.81228 }, "geometry": { "type": "Point", "coordinates": [ -73.8963, 40.81228 ] } },
{ "type": "Feature", "properties": { "county": "BRONX", "license_number": "744542", "operation_type": "Store", "estab_type": "AC", "entity_name": "EDIBLE ARRANGEMENTS LLC", "dba_name": "EDIBLE ARRANGEMENTS", "street_number": "880", "street_name": "EAST 163RD STREET ###", "city": "BRONX", "state": "NY", "zip_code": "10459", "georeference": { "type": "Point", "coordinates": [ -73.89853, 40.82097 ] }, ":@computed_region_yamh_8v7k": "307", "square_footage": null, "address_line_2": null, "address_line_3": null, "longitude": -73.89853, "latitude": 40.82097 }, "geometry": { "type": "Point", "coordinates": [ -73.89853, 40.82097 ] } },
{ "type": "Feature", "properties": { "county": "BRONX", "license_number": "743503", "operation_type": "Store", "estab_type": "A", "entity_name": "MO DISCOUNT CORP", "dba_name": "MO DISCOUNT", "street_number": "548", "street_name": "SOUTHERN BLVD", "city": "BRONX", "state": "NY", "zip_code": "10455", "georeference": { "type": "Point", "coordinates": [ -73.90354, 40.8123 ] }, ":@computed_region_yamh_8v7k": "307", "square_footage": "600", "address_line_2": null, "address_line_3": null, "longitude": -73.90354, "latitude": 40.8123 }, "geometry": { "type": "Point", "coordinates": [ -73.90354, 40.8123 ] } },
{ "type": "Feature", "properties": { "county": "BRONX", "license_number": "743488", "operation_type": "Store", "estab_type": "AC", "entity_name": "CPR DELI & GROCERY CORP", "dba_name": "CANCUN DELI GROCERY 1", "street_number": "908", "street_name": "EAST 163RD STREET", "city": "BRONX", "state": "NY", "zip_code": "10459", "georeference": { "type": "Point", "coordinates": [ -73.89802, 40.82099 ] }, ":@computed_region_yamh_8v7k": "307", "square_footage": "500", "address_line_2": null, "address_line_3": null, "longitude": -73.89802, "latitude": 40.82099 }, "geometry": { "type": "Point", "coordinates": [ -73.89802, 40.82099 ] } },
{ "type": "Feature", "properties": { "county": "BRONX", "license_number": "743035", "operation_type": "Store", "estab_type": "AC", "entity_name": "INTERVALE DELI FOOD CORP", "dba_name": "INTERVALE DELI FOOD", "street_number": "1006", "street_name": "INTERVALE AVE", "city": "BRONX", "state": "NY", "zip_code": "10459", "georeference": { "type": "Point", "coordinates": [ -73.89686, 40.82339 ] }, ":@computed_region_yamh_8v7k": "307", "square_footage": null, "address_line_2": null, "address_line_3": null, "longitude": -73.89686, "latitude": 40.82339 }, "geometry": { "type": "Point", "coordinates": [ -73.89686, 40.82339 ] } },
{ "type": "Feature", "properties": { "county": "BRONX", "license_number": "742852", "operation_type": "Store", "estab_type": "AC", "entity_name": "LOS 2 HERMANITOS DELI GROCERY CORP", "dba_name": "LOS 2 HERMANITOS II DELI GROCERY", "street_number": "865", "street_name": "EAST 165TH STREET", "city": "BRONX", "state": "NY", "zip_code": "10459", "georeference": { "type": "Point", "coordinates": [ -73.89918, 40.82392 ] }, ":@computed_region_yamh_8v7k": "307", "square_footage": null, "address_line_2": null, "address_line_3": null, "longitude": -73.89918, "latitude": 40.82392 }, "geometry": { "type": "Point", "coordinates": [ -73.89918, 40.82392 ] } },
{ "type": "Feature", "properties": { "county": "BRONX", "license_number": "742802", "operation_type": "Store", "estab_type": "A", "entity_name": "FAMILY DOLLAR STORES OF NEW YORK LLC", "dba_name": "FAMILY DOLLAR #33004", "street_number": "867", "street_name": "LONGWOOD AVE", "city": "BRONX", "state": "NY", "zip_code": "10459", "georeference": { "type": "Point", "coordinates": [ -73.90093, 40.81913 ] }, ":@computed_region_yamh_8v7k": "307", "square_footage": null, "address_line_2": null, "address_line_3": null, "longitude": -73.90093, "latitude": 40.81913 }, "geometry": { "type": "Point", "coordinates": [ -73.90093, 40.81913 ] } },
{ "type": "Feature", "properties": { "county": "BRONX", "license_number": "742731", "operation_type": "Store", "estab_type": "AC", "entity_name": "PEACE AND LOVE DELI MARKET CORP", "dba_name": "PEACE AND LOVE DELI MARKET", "street_number": "950", "street_name": "LONGWOOD AVENUE", "city": "BRONX", "state": "NY", "zip_code": "10459", "georeference": { "type": "Point", "coordinates": [ -73.89828, 40.81756 ] }, ":@computed_region_yamh_8v7k": "307", "square_footage": null, "address_line_2": null, "address_line_3": null, "longitude": -73.89828, "latitude": 40.81756 }, "geometry": { "type": "Point", "coordinates": [ -73.89828, 40.81756 ] } },
{ "type": "Feature", "properties": { "county": "BRONX", "license_number": "741851", "operation_type": "Store", "estab_type": "ABK", "entity_name": "MADRID BAKERY LLC", "dba_name": "VALENCIA BAKERY", "street_number": "801", "street_name": "EDGEWATER RD", "city": "BRONX", "state": "NY", "zip_code": "10474", "georeference": { "type": "Point", "coordinates": [ -73.88342, 40.81755 ] }, ":@computed_region_yamh_8v7k": "307", "square_footage": "5000", "address_line_2": null, "address_line_3": null, "longitude": -73.88342, "latitude": 40.81755 }, "geometry": { "type": "Point", "coordinates": [ -73.88342, 40.81755 ] } },
{ "type": "Feature", "properties": { "county": "BRONX", "license_number": "741208", "operation_type": "Store", "estab_type": "AC", "entity_name": "JIMENEZ FRUITS & VEGETABLES INC", "dba_name": "JIMENEZ FRUITS & VEGETABLES", "street_number": "901", "street_name": "SOUTHERN BLVD. STORE B", "city": "BRONX", "state": "NY", "zip_code": "10459", "georeference": { "type": "Point", "coordinates": [ -73.89287, 40.81957 ] }, ":@computed_region_yamh_8v7k": "307", "square_footage": "1200", "address_line_2": null, "address_line_3": null, "longitude": -73.89287, "latitude": 40.81957 }, "geometry": { "type": "Point", "coordinates": [ -73.89287, 40.81957 ] } },
{ "type": "Feature", "properties": { "county": "BRONX", "license_number": "741041", "operation_type": "Store", "estab_type": "AC", "entity_name": "ALKAIFI MUAAMAR A", "dba_name": "EXPRESS CANDY", "street_number": "797", "street_name": "SOUTHERN BLVD", "city": "BRONX", "state": "NY", "zip_code": "10455", "georeference": { "type": "Point", "coordinates": [ -73.89638, 40.81615 ] }, ":@computed_region_yamh_8v7k": "307", "square_footage": "950", "address_line_2": null, "address_line_3": null, "longitude": -73.89638, "latitude": 40.81615 }, "geometry": { "type": "Point", "coordinates": [ -73.89638, 40.81615 ] } },
{ "type": "Feature", "properties": { "county": "BRONX", "license_number": "740372", "operation_type": "Store", "estab_type": "AC", "entity_name": "WILLYS GROCERY STORE INC", "dba_name": "WILLYS GROCERY STORE", "street_number": "699", "street_name": "BECK STREET ####", "city": "BRONX", "state": "NY", "zip_code": "10455", "georeference": { "type": "Point", "coordinates": [ -73.9003, 40.81503 ] }, ":@computed_region_yamh_8v7k": "307", "square_footage": "1100", "address_line_2": null, "address_line_3": null, "longitude": -73.9003, "latitude": 40.81503 }, "geometry": { "type": "Point", "coordinates": [ -73.9003, 40.81503 ] } },
{ "type": "Feature", "properties": { "county": "BRONX", "license_number": "740303", "operation_type": "Store", "estab_type": "AC", "entity_name": "MONTHER FOOD MART AND DELI CORP", "dba_name": "MONTHER FOOD MART AND DELI", "street_number": "1078", "street_name": "E 165TH STREET ####", "city": "BRONX", "state": "NY", "zip_code": "10459", "georeference": { "type": "Point", "coordinates": [ -73.89073, 40.82507 ] }, ":@computed_region_yamh_8v7k": "307", "square_footage": "1200", "address_line_2": null, "address_line_3": null, "longitude": -73.89073, "latitude": 40.82507 }, "geometry": { "type": "Point", "coordinates": [ -73.89073, 40.82507 ] } },
{ "type": "Feature", "properties": { "county": "BRONX", "license_number": "738717", "operation_type": "Store", "estab_type": "AC", "entity_name": "SNACK ATTACK DELI 1 INC", "dba_name": "SNACK ATTACK DELI 1", "street_number": "976", "street_name": "LONGWOOD AVE", "city": "BRONX", "state": "NY", "zip_code": "10459", "georeference": { "type": "Point", "coordinates": [ -73.89788, 40.8173 ] }, ":@computed_region_yamh_8v7k": "307", "square_footage": "1000", "address_line_2": null, "address_line_3": null, "longitude": -73.89788, "latitude": 40.8173 }, "geometry": { "type": "Point", "coordinates": [ -73.89788, 40.8173 ] } },
{ "type": "Feature", "properties": { "county": "BRONX", "license_number": "738608", "operation_type": "Store", "estab_type": "AC", "entity_name": "FRIENDS DELI & GRILL CORP", "dba_name": "FRIENDS DELI & GRILL", "street_number": "585", "street_name": "SOUTHERN BLVD", "city": "BRONX", "state": "NY", "zip_code": "10455", "georeference": { "type": "Point", "coordinates": [ -73.90218, 40.81269 ] }, ":@computed_region_yamh_8v7k": "307", "square_footage": "1200", "address_line_2": null, "address_line_3": null, "longitude": -73.90218, "latitude": 40.81269 }, "geometry": { "type": "Point", "coordinates": [ -73.90218, 40.81269 ] } },
{ "type": "Feature", "properties": { "county": "BRONX", "license_number": "738317", "operation_type": "Store", "estab_type": "AC", "entity_name": "LUCKY 2 GOURMET DELI INC", "dba_name": "LUCKY 2 GOURMET DELI", "street_number": "1007", "street_name": "E 163RD STREET ####", "city": "BRONX", "state": "NY", "zip_code": "10459", "georeference": { "type": "Point", "coordinates": [ -73.89305, 40.82097 ] }, ":@computed_region_yamh_8v7k": "307", "square_footage": null, "address_line_2": null, "address_line_3": null, "longitude": -73.89305, "latitude": 40.82097 }, "geometry": { "type": "Point", "coordinates": [ -73.89305, 40.82097 ] } },
{ "type": "Feature", "properties": { "county": "BRONX", "license_number": "737282", "operation_type": "Store", "estab_type": "AC", "entity_name": "JAIVERY DELI GROCERY CORP", "dba_name": "JAIVERY DELI GROCERY", "street_number": "907", "street_name": "SOUTHERN BLVD", "city": "BRONX", "state": "NY", "zip_code": "10459", "georeference": { "type": "Point", "coordinates": [ -73.89278, 40.81966 ] }, ":@computed_region_yamh_8v7k": "307", "square_footage": "1000", "address_line_2": null, "address_line_3": null, "longitude": -73.89278, "latitude": 40.81966 }, "geometry": { "type": "Point", "coordinates": [ -73.89278, 40.81966 ] } },
{ "type": "Feature", "properties": { "county": "BRONX", "license_number": "737185", "operation_type": "Store", "estab_type": "AC", "entity_name": "ROSELYN DELI GROCERY CORP", "dba_name": "ROSELYN DELI GROCERY", "street_number": "698", "street_name": "BECK STREET", "city": "BRONX", "state": "NY", "zip_code": "10455", "georeference": { "type": "Point", "coordinates": [ -73.90041, 40.815 ] }, ":@computed_region_yamh_8v7k": "307", "square_footage": null, "address_line_2": null, "address_line_3": null, "longitude": -73.90041, "latitude": 40.815 }, "geometry": { "type": "Point", "coordinates": [ -73.90041, 40.815 ] } },
{ "type": "Feature", "properties": { "county": "BRONX", "license_number": "736933", "operation_type": "Store", "estab_type": "AC", "entity_name": "HUNTS POINT MARKET INC", "dba_name": "HUNTS POINT MARKET", "street_number": "1081", "street_name": "LEGGETT AVE", "city": "BRONX", "state": "NY", "zip_code": "10474", "georeference": { "type": "Point", "coordinates": [ -73.89598, 40.81214 ] }, ":@computed_region_yamh_8v7k": "307", "square_footage": "1300", "address_line_2": null, "address_line_3": null, "longitude": -73.89598, "latitude": 40.81214 }, "geometry": { "type": "Point", "coordinates": [ -73.89598, 40.81214 ] } },
{ "type": "Feature", "properties": { "county": "BRONX", "license_number": "736425", "operation_type": "Store", "estab_type": "AC", "entity_name": "EL SITIO 2 DELI GROCERY CORP", "dba_name": "EL SITIO DELI GROCERY", "street_number": "954", "street_name": "PROSPECT AVENUE", "city": "BRONX", "state": "NY", "zip_code": "10459", "georeference": { "type": "Point", "coordinates": [ -73.90042, 40.82255 ] }, ":@computed_region_yamh_8v7k": "307", "square_footage": "1200", "address_line_2": null, "address_line_3": null, "longitude": -73.90042, "latitude": 40.82255 }, "geometry": { "type": "Point", "coordinates": [ -73.90042, 40.82255 ] } },
{ "type": "Feature", "properties": { "county": "BRONX", "license_number": "735130", "operation_type": "Store", "estab_type": "AC", "entity_name": "SALCEDO SUPERMARKET CORP", "dba_name": "SALCEDO SUPERMARKET", "street_number": "1318", "street_name": "LAFAYETTE AVE", "city": "BRONX", "state": "NY", "zip_code": "10474", "georeference": { "type": "Point", "coordinates": [ -73.88643, 40.81689 ] }, ":@computed_region_yamh_8v7k": "307", "square_footage": "2000", "address_line_2": "STORE 1-2-3", "address_line_3": null, "longitude": -73.88643, "latitude": 40.81689 }, "geometry": { "type": "Point", "coordinates": [ -73.88643, 40.81689 ] } },
{ "type": "Feature", "properties": { "county": "BRONX", "license_number": "733306", "operation_type": "Store", "estab_type": "AC", "entity_name": "549 GROCERY INC", "dba_name": "549 GROCERY", "street_number": "549", "street_name": "SOUTHERN BLVD", "city": "BRONX", "state": "NY", "zip_code": "10455", "georeference": { "type": "Point", "coordinates": [ -73.90358, 40.81228 ] }, ":@computed_region_yamh_8v7k": "307", "square_footage": "700", "address_line_2": null, "address_line_3": null, "longitude": -73.90358, "latitude": 40.81228 }, "geometry": { "type": "Point", "coordinates": [ -73.90358, 40.81228 ] } },
{ "type": "Feature", "properties": { "county": "BRONX", "license_number": "732196", "operation_type": "Store", "estab_type": "AC", "entity_name": "901 GOURMET DELI CORP", "dba_name": "901 GOURMET DELI", "street_number": "901", "street_name": "SOUTHERN BLVD", "city": "BRONX", "state": "NY", "zip_code": "10459", "georeference": { "type": "Point", "coordinates": [ -73.89287, 40.81957 ] }, ":@computed_region_yamh_8v7k": "307", "square_footage": "1000", "address_line_2": null, "address_line_3": null, "longitude": -73.89287, "latitude": 40.81957 }, "geometry": { "type": "Point", "coordinates": [ -73.89287, 40.81957 ] } },
{ "type": "Feature", "properties": { "county": "BRONX", "license_number": "731695", "operation_type": "Store", "estab_type": "AC", "entity_name": "947 DELI GROCERY CORP", "dba_name": "947 DELI GROCERY", "street_number": "947", "street_name": "EAST 163RD ST", "city": "BRONX", "state": "NY", "zip_code": "10459", "georeference": { "type": "Point", "coordinates": [ -73.89617, 40.82099 ] }, ":@computed_region_yamh_8v7k": "307", "square_footage": "1000", "address_line_2": null, "address_line_3": null, "longitude": -73.89617, "latitude": 40.82099 }, "geometry": { "type": "Point", "coordinates": [ -73.89617, 40.82099 ] } },
{ "type": "Feature", "properties": { "county": "BRONX", "license_number": "731565", "operation_type": "Store", "estab_type": "AC", "entity_name": "INTERVALE DELI CORP", "dba_name": "INTERVALE DELI", "street_number": "1103", "street_name": "INTERVALE AVE", "city": "BRONX", "state": "NY", "zip_code": "10459", "georeference": { "type": "Point", "coordinates": [ -73.89706, 40.82619 ] }, ":@computed_region_yamh_8v7k": "307", "square_footage": "900", "address_line_2": null, "address_line_3": null, "longitude": -73.89706, "latitude": 40.82619 }, "geometry": { "type": "Point", "coordinates": [ -73.89706, 40.82619 ] } },
{ "type": "Feature", "properties": { "county": "BRONX", "license_number": "731084", "operation_type": "Store", "estab_type": "ACDK", "entity_name": "R & J SEAFOOD CORP", "dba_name": "R & J SEAFOOD", "street_number": "800", "street_name": "FOOD CENTER DRIVE UNIT 117 ###", "city": "BRONX", "state": "NY", "zip_code": "10474", "georeference": { "type": "Point", "coordinates": [ -73.87625, 40.80434 ] }, ":@computed_region_yamh_8v7k": "307", "square_footage": "1500", "address_line_2": null, "address_line_3": null, "longitude": -73.87625, "latitude": 40.80434 }, "geometry": { "type": "Point", "coordinates": [ -73.87625, 40.80434 ] } },
{ "type": "Feature", "properties": { "county": "BRONX", "license_number": "730509", "operation_type": "Store", "estab_type": "A", "entity_name": "DOLGEN NEW YORK LLC", "dba_name": "DOLLAR GENERAL # 19211", "street_number": "900", "street_name": "SOUTHERN BLVD", "city": "BRONX", "state": "NY", "zip_code": "10459", "georeference": { "type": "Point", "coordinates": [ -73.89289, 40.81955 ] }, ":@computed_region_yamh_8v7k": "307", "square_footage": "1500", "address_line_2": null, "address_line_3": null, "longitude": -73.89289, "latitude": 40.81955 }, "geometry": { "type": "Point", "coordinates": [ -73.89289, 40.81955 ] } },
{ "type": "Feature", "properties": { "county": "BRONX", "license_number": "730328", "operation_type": "Store", "estab_type": "AC", "entity_name": "HPA DELI CORP", "dba_name": "HPA DELI", "street_number": "803", "street_name": "HUNTS POINT AVE", "city": "BRONX", "state": "NY", "zip_code": "10474", "georeference": { "type": "Point", "coordinates": [ -73.88812, 40.81693 ] }, ":@computed_region_yamh_8v7k": "307", "square_footage": "1200", "address_line_2": null, "address_line_3": null, "longitude": -73.88812, "latitude": 40.81693 }, "geometry": { "type": "Point", "coordinates": [ -73.88812, 40.81693 ] } },
{ "type": "Feature", "properties": { "county": "BRONX", "license_number": "729127", "operation_type": "Store", "estab_type": "A", "entity_name": "DISCOUNT CORP AND 99 CENT", "dba_name": "DISCOUNT CORP AND 99 CENT", "street_number": "545 A", "street_name": "SOUTHERN BLVD ####", "city": "BRONX", "state": "NY", "zip_code": "10455", "georeference": { "type": "Point", "coordinates": [ -73.90377, 40.81223 ] }, ":@computed_region_yamh_8v7k": "307", "square_footage": null, "address_line_2": null, "address_line_3": null, "longitude": -73.90377, "latitude": 40.81223 }, "geometry": { "type": "Point", "coordinates": [ -73.90377, 40.81223 ] } },
{ "type": "Feature", "properties": { "county": "BRONX", "license_number": "728049", "operation_type": "Store", "estab_type": "AC", "entity_name": "A & G DELI GROCERY III CORP", "dba_name": "A & G DELI GROCERY III", "street_number": "948", "street_name": "E 163RD ST", "city": "BRONX", "state": "NY", "zip_code": "10459", "georeference": { "type": "Point", "coordinates": [ -73.89606, 40.82099 ] }, ":@computed_region_yamh_8v7k": "307", "square_footage": "1200", "address_line_2": null, "address_line_3": null, "longitude": -73.89606, "latitude": 40.82099 }, "geometry": { "type": "Point", "coordinates": [ -73.89606, 40.82099 ] } },
{ "type": "Feature", "properties": { "county": "BRONX", "license_number": "725894", "operation_type": "Store", "estab_type": "AC", "entity_name": "A AND J SUPER FOOD INC", "dba_name": "ANTILLANA FRESH MEAT MARKET", "street_number": "1025", "street_name": "WESTCHESTER AVE", "city": "BRONX", "state": "NY", "zip_code": "10459", "georeference": { "type": "Point", "coordinates": [ -73.89319, 40.82403 ] }, ":@computed_region_yamh_8v7k": "307", "square_footage": "3000", "address_line_2": null, "address_line_3": null, "longitude": -73.89319, "latitude": 40.82403 }, "geometry": { "type": "Point", "coordinates": [ -73.89319, 40.82403 ] } },
{ "type": "Feature", "properties": { "county": "BRONX", "license_number": "725369", "operation_type": "Store", "estab_type": "AC", "entity_name": "ROYAL DELI INC", "dba_name": "ROYAL DELI", "street_number": "980", "street_name": "INTERVALE AVE ###", "city": "BRONX", "state": "NY", "zip_code": "10459", "georeference": { "type": "Point", "coordinates": [ -73.89687, 40.82266 ] }, ":@computed_region_yamh_8v7k": "307", "square_footage": null, "address_line_2": null, "address_line_3": null, "longitude": -73.89687, "latitude": 40.82266 }, "geometry": { "type": "Point", "coordinates": [ -73.89687, 40.82266 ] } },
{ "type": "Feature", "properties": { "county": "BRONX", "license_number": "725218", "operation_type": "Store", "estab_type": "AC", "entity_name": "EXCEL FOOD MART LLC", "dba_name": "EXCEL FOOD MART", "street_number": "1264", "street_name": "RANDALL AVE", "city": "BRONX", "state": "NY", "zip_code": "10474", "georeference": { "type": "Point", "coordinates": [ -73.88705, 40.81204 ] }, ":@computed_region_yamh_8v7k": "307", "square_footage": "1200", "address_line_2": null, "address_line_3": null, "longitude": -73.88705, "latitude": 40.81204 }, "geometry": { "type": "Point", "coordinates": [ -73.88705, 40.81204 ] } },
{ "type": "Feature", "properties": { "county": "BRONX", "license_number": "724739", "operation_type": "Store", "estab_type": "A", "entity_name": "DOLLAR TREE STORES INC", "dba_name": "DOLLAR TREE #05191", "street_number": "925", "street_name": "HUNTS POINT AVE", "city": "BRONX", "state": "NY", "zip_code": "10459", "georeference": { "type": "Point", "coordinates": [ -73.89091, 40.8204 ] }, ":@computed_region_yamh_8v7k": "307", "square_footage": "2500", "address_line_2": null, "address_line_3": null, "longitude": -73.89091, "latitude": 40.8204 }, "geometry": { "type": "Point", "coordinates": [ -73.89091, 40.8204 ] } },
{ "type": "Feature", "properties": { "county": "BRONX", "license_number": "724557", "operation_type": "Store", "estab_type": "AC", "entity_name": "SABOR LATINO DELI SUPERMARKET CORP", "dba_name": "SABOR LATINO DELI SUPERMARKET", "street_number": "1000", "street_name": "LONGWOOD AVENUE", "city": "BRONX", "state": "NY", "zip_code": "10459", "georeference": { "type": "Point", "coordinates": [ -73.89718, 40.81689 ] }, ":@computed_region_yamh_8v7k": "307", "square_footage": "2000", "address_line_2": null, "address_line_3": null, "longitude": -73.89718, "latitude": 40.81689 }, "geometry": { "type": "Point", "coordinates": [ -73.89718, 40.81689 ] } },
{ "type": "Feature", "properties": { "county": "BRONX", "license_number": "724181", "operation_type": "Store", "estab_type": "AC", "entity_name": "NELLYS DELI GROCERY CORP", "dba_name": "NELLYS DELI GROCERY", "street_number": "1240", "street_name": "SPOFFORD AVE", "city": "BRONX", "state": "NY", "zip_code": "10474", "georeference": { "type": "Point", "coordinates": [ -73.8894, 40.81407 ] }, ":@computed_region_yamh_8v7k": "307", "square_footage": "1000", "address_line_2": null, "address_line_3": null, "longitude": -73.8894, "latitude": 40.81407 }, "geometry": { "type": "Point", "coordinates": [ -73.8894, 40.81407 ] } },
{ "type": "Feature", "properties": { "county": "BRONX", "license_number": "723677", "operation_type": "Store", "estab_type": "AC", "entity_name": "SOUTHERN BLVD MEAT MARKET CORP", "dba_name": "SAGAL MEAT MARKET", "street_number": "1091", "street_name": "SOUTHERN BLVD", "city": "BRONX", "state": "NY", "zip_code": "10459", "georeference": { "type": "Point", "coordinates": [ -73.89194, 40.8258 ] }, ":@computed_region_yamh_8v7k": "307", "square_footage": "2500", "address_line_2": null, "address_line_3": null, "longitude": -73.89194, "latitude": 40.8258 }, "geometry": { "type": "Point", "coordinates": [ -73.89194, 40.8258 ] } },
{ "type": "Feature", "properties": { "county": "BRONX", "license_number": "723294", "operation_type": "Store", "estab_type": "ACDK", "entity_name": "GRADYS COLD BREW INC", "dba_name": "GRADYS COLD BREW", "street_number": "819", "street_name": "GARRISON AVE", "city": "BRONX", "state": "NY", "zip_code": "10474", "georeference": { "type": "Point", "coordinates": [ -73.89343, 40.81565 ] }, ":@computed_region_yamh_8v7k": "307", "square_footage": "8000", "address_line_2": null, "address_line_3": null, "longitude": -73.89343, "latitude": 40.81565 }, "geometry": { "type": "Point", "coordinates": [ -73.89343, 40.81565 ] } },
{ "type": "Feature", "properties": { "county": "BRONX", "license_number": "723232", "operation_type": "Store", "estab_type": "AC", "entity_name": "MARIA FOOD MARKET CORP", "dba_name": "MARIA FOOD MARKET", "street_number": "920", "street_name": "PROSPECT AVE", "city": "BRONX", "state": "NY", "zip_code": "10459", "georeference": { "type": "Point", "coordinates": [ -73.90074, 40.82179 ] }, ":@computed_region_yamh_8v7k": "307", "square_footage": "1100", "address_line_2": null, "address_line_3": null, "longitude": -73.90074, "latitude": 40.82179 }, "geometry": { "type": "Point", "coordinates": [ -73.90074, 40.82179 ] } },
{ "type": "Feature", "properties": { "county": "BRONX", "license_number": "722667", "operation_type": "Store", "estab_type": "AC", "entity_name": "LO MAXIMO DELI GROCERY LLC", "dba_name": "LO MAXIMO DELI GROCERY", "street_number": "710", "street_name": "BECK STREET", "city": "BRONX", "state": "NY", "zip_code": "10455", "georeference": { "type": "Point", "coordinates": [ -73.9, 40.81513 ] }, ":@computed_region_yamh_8v7k": "307", "square_footage": "1100", "address_line_2": null, "address_line_3": null, "longitude": -73.9, "latitude": 40.81513 }, "geometry": { "type": "Point", "coordinates": [ -73.9, 40.81513 ] } },
{ "type": "Feature", "properties": { "county": "BRONX", "license_number": "722504", "operation_type": "Store", "estab_type": "AC", "entity_name": "CRYSTAL JAIDA GROCERY CORP", "dba_name": "CRYSTAL JAIDA GROCERY", "street_number": "1090", "street_name": "LONGFELLOW AVE ####", "city": "BRONX", "state": "NY", "zip_code": "10459", "georeference": { "type": "Point", "coordinates": [ -73.88784, 40.82606 ] }, ":@computed_region_yamh_8v7k": "307", "square_footage": "1000", "address_line_2": null, "address_line_3": null, "longitude": -73.88784, "latitude": 40.82606 }, "geometry": { "type": "Point", "coordinates": [ -73.88784, 40.82606 ] } },
{ "type": "Feature", "properties": { "county": "BRONX", "license_number": "721060", "operation_type": "Store", "estab_type": "AC", "entity_name": "VERACRUZ DELI & GROCERY INC", "dba_name": "VERACRUZ DELI & GROCERY", "street_number": "1019", "street_name": "E 167TH ST ###", "city": "BRONX", "state": "NY", "zip_code": "10459", "georeference": { "type": "Point", "coordinates": [ -73.88898, 40.82676 ] }, ":@computed_region_yamh_8v7k": "307", "square_footage": "900", "address_line_2": null, "address_line_3": null, "longitude": -73.88898, "latitude": 40.82676 }, "geometry": { "type": "Point", "coordinates": [ -73.88898, 40.82676 ] } },
{ "type": "Feature", "properties": { "county": "BRONX", "license_number": "718974", "operation_type": "Store", "estab_type": "AC", "entity_name": "A&G DELI GROCERY II CORP", "dba_name": "A & G DELI GROCERY II", "street_number": "976", "street_name": "PROSPECT AVE", "city": "BRONX", "state": "NY", "zip_code": "10459", "georeference": { "type": "Point", "coordinates": [ -73.90008, 40.82338 ] }, ":@computed_region_yamh_8v7k": "307", "square_footage": null, "address_line_2": null, "address_line_3": null, "longitude": -73.90008, "latitude": 40.82338 }, "geometry": { "type": "Point", "coordinates": [ -73.90008, 40.82338 ] } },
{ "type": "Feature", "properties": { "county": "BRONX", "license_number": "718789", "operation_type": "Store", "estab_type": "AC", "entity_name": "CT GROCERY NY CORP", "dba_name": "CT GROCERY NY", "street_number": "869", "street_name": "BRYANT AVE", "city": "BRONX", "state": "NY", "zip_code": "10474", "georeference": { "type": "Point", "coordinates": [ -73.88665, 40.81879 ] }, ":@computed_region_yamh_8v7k": "307", "square_footage": null, "address_line_2": null, "address_line_3": null, "longitude": -73.88665, "latitude": 40.81879 }, "geometry": { "type": "Point", "coordinates": [ -73.88665, 40.81879 ] } },
{ "type": "Feature", "properties": { "county": "BRONX", "license_number": "718452", "operation_type": "Store", "estab_type": "AC", "entity_name": "LA REYNA DE WESTCHESTER DELI GROCERY COR", "dba_name": "LA REYNA DE WESTCHESTER DELI GROCERY", "street_number": "1218", "street_name": "WESTCHESTER AVE", "city": "BRONX", "state": "NY", "zip_code": "10459", "georeference": { "type": "Point", "coordinates": [ -73.88915, 40.8261 ] }, ":@computed_region_yamh_8v7k": "307", "square_footage": null, "address_line_2": null, "address_line_3": null, "longitude": -73.88915, "latitude": 40.8261 }, "geometry": { "type": "Point", "coordinates": [ -73.88915, 40.8261 ] } },
{ "type": "Feature", "properties": { "county": "BRONX", "license_number": "717675", "operation_type": "Store", "estab_type": "AC", "entity_name": "FERNANDEZ ALCIBIADES A", "dba_name": "FERNANDEZ DELI GROCERY", "street_number": "1086", "street_name": "KELLY ST", "city": "BRONX", "state": "NY", "zip_code": "10459", "georeference": { "type": "Point", "coordinates": [ -73.89582, 40.82576 ] }, ":@computed_region_yamh_8v7k": "307", "square_footage": "1000", "address_line_2": null, "address_line_3": null, "longitude": -73.89582, "latitude": 40.82576 }, "geometry": { "type": "Point", "coordinates": [ -73.89582, 40.82576 ] } },
{ "type": "Feature", "properties": { "county": "BRONX", "license_number": "716722", "operation_type": "Store", "estab_type": "ABCK", "entity_name": "ALL NATURAL PRODUCTS INC", "dba_name": "DAVIDOVICH BAKERY", "street_number": "727", "street_name": "DRAKE ST", "city": "BRONX", "state": "NY", "zip_code": "10474", "georeference": { "type": "Point", "coordinates": [ -73.88303, 40.81598 ] }, ":@computed_region_yamh_8v7k": "307", "square_footage": "10000", "address_line_2": null, "address_line_3": null, "longitude": -73.88303, "latitude": 40.81598 }, "geometry": { "type": "Point", "coordinates": [ -73.88303, 40.81598 ] } },
{ "type": "Feature", "properties": { "county": "BRONX", "license_number": "715252", "operation_type": "Store", "estab_type": "AC", "entity_name": "FMM DIGITAL ENTERPRISES CORP", "dba_name": "FULTON FISH MARKET", "street_number": "800", "street_name": "FOOD CENTER DRIVE UNIT 3-4", "city": "BRONX", "state": "NY", "zip_code": "10474", "georeference": { "type": "Point", "coordinates": [ -73.87625, 40.80434 ] }, ":@computed_region_yamh_8v7k": "307", "square_footage": "3000", "address_line_2": null, "address_line_3": null, "longitude": -73.87625, "latitude": 40.80434 }, "geometry": { "type": "Point", "coordinates": [ -73.87625, 40.80434 ] } },
{ "type": "Feature", "properties": { "county": "BRONX", "license_number": "713735", "operation_type": "Store", "estab_type": "AC", "entity_name": "LA MINA MINI MARKET CORP", "dba_name": "LA MINA MINI MARKET", "street_number": "1000", "street_name": "HOE AVE", "city": "BRONX", "state": "NY", "zip_code": "10459", "georeference": { "type": "Point", "coordinates": [ -73.89044, 40.82335 ] }, ":@computed_region_yamh_8v7k": "307", "square_footage": "1500", "address_line_2": null, "address_line_3": null, "longitude": -73.89044, "latitude": 40.82335 }, "geometry": { "type": "Point", "coordinates": [ -73.89044, 40.82335 ] } },
{ "type": "Feature", "properties": { "county": "BRONX", "license_number": "713293", "operation_type": "Store", "estab_type": "AC", "entity_name": "CHANNELS DELI GROCERY INC", "dba_name": "CHANNELS DELI GROCERY", "street_number": "910", "street_name": "PROSPECT AVE", "city": "BRONX", "state": "NY", "zip_code": "10459", "georeference": { "type": "Point", "coordinates": [ -73.90091, 40.82136 ] }, ":@computed_region_yamh_8v7k": "307", "square_footage": "900", "address_line_2": null, "address_line_3": null, "longitude": -73.90091, "latitude": 40.82136 }, "geometry": { "type": "Point", "coordinates": [ -73.90091, 40.82136 ] } },
{ "type": "Feature", "properties": { "county": "BRONX", "license_number": "711580", "operation_type": "Store", "estab_type": "AC", "entity_name": "SOUTHERN SEAFOOD MARKET INC", "dba_name": "SOUTHERN FISH MARKET", "street_number": "1037E", "street_name": "163ST", "city": "BRONX", "state": "NY", "zip_code": "10459", "georeference": { "type": "Point", "coordinates": [ -73.89141, 40.82099 ] }, ":@computed_region_yamh_8v7k": "307", "square_footage": "2000", "address_line_2": null, "address_line_3": null, "longitude": -73.89141, "latitude": 40.82099 }, "geometry": { "type": "Point", "coordinates": [ -73.89141, 40.82099 ] } },
{ "type": "Feature", "properties": { "county": "BRONX", "license_number": "711438", "operation_type": "Store", "estab_type": "AC", "entity_name": "MUKTI 1360 PETROLEUM INC", "dba_name": "BP FOOD SHOP", "street_number": "1360", "street_name": "BRUCKNER BLVD  ###", "city": "BRONX", "state": "NY", "zip_code": "10459", "georeference": { "type": "Point", "coordinates": [ -73.88547, 40.82248 ] }, ":@computed_region_yamh_8v7k": "307", "square_footage": "1500", "address_line_2": null, "address_line_3": null, "longitude": -73.88547, "latitude": 40.82248 }, "geometry": { "type": "Point", "coordinates": [ -73.88547, 40.82248 ] } },
{ "type": "Feature", "properties": { "county": "BRONX", "license_number": "707988", "operation_type": "Store", "estab_type": "AC", "entity_name": "EL VALLE PRODUCE & DELI INC", "dba_name": "EL VALLE PRODUCE & DELI", "street_number": "796", "street_name": "SOUTHERN BLVD", "city": "BRONX", "state": "NY", "zip_code": "10455", "georeference": { "type": "Point", "coordinates": [ -73.89646, 40.81608 ] }, ":@computed_region_yamh_8v7k": "307", "square_footage": "2000", "address_line_2": null, "address_line_3": null, "longitude": -73.89646, "latitude": 40.81608 }, "geometry": { "type": "Point", "coordinates": [ -73.89646, 40.81608 ] } },
{ "type": "Feature", "properties": { "county": "BRONX", "license_number": "707170", "operation_type": "Store", "estab_type": "A", "entity_name": "ALDUS 99 CENT DISCOUNT STORE CORP", "dba_name": "ALDUS 99 CENTS DISCOUNT STORE", "street_number": "951", "street_name": "HOE AVE", "city": "BRONX", "state": "NY", "zip_code": "10459", "georeference": { "type": "Point", "coordinates": [ -73.8904, 40.82295 ] }, ":@computed_region_yamh_8v7k": "307", "square_footage": null, "address_line_2": null, "address_line_3": null, "longitude": -73.8904, "latitude": 40.82295 }, "geometry": { "type": "Point", "coordinates": [ -73.8904, 40.82295 ] } },
{ "type": "Feature", "properties": { "county": "BRONX", "license_number": "705333", "operation_type": "Store", "estab_type": "AC", "entity_name": "GUERRERO UBALDO", "dba_name": "MEXICAN DELI INC", "street_number": "1302-1304", "street_name": "LAFAYETTE AVE", "city": "BRONX", "state": "NY", "zip_code": "10474", "georeference": { "type": "Point", "coordinates": [ -73.88689, 40.81682 ] }, ":@computed_region_yamh_8v7k": "307", "square_footage": "600", "address_line_2": null, "address_line_3": null, "longitude": -73.88689, "latitude": 40.81682 }, "geometry": { "type": "Point", "coordinates": [ -73.88689, 40.81682 ] } },
{ "type": "Feature", "properties": { "county": "BRONX", "license_number": "704892", "operation_type": "Store", "estab_type": "AC", "entity_name": "950 FAIR FOOD CORP", "dba_name": "FINE FARE SUPERMARKET", "street_number": "950", "street_name": "WESTCHESTER AVE", "city": "BRONX", "state": "NY", "zip_code": "10459", "georeference": { "type": "Point", "coordinates": [ -73.89614, 40.82248 ] }, ":@computed_region_yamh_8v7k": "307", "square_footage": "10000", "address_line_2": null, "address_line_3": null, "longitude": -73.89614, "latitude": 40.82248 }, "geometry": { "type": "Point", "coordinates": [ -73.89614, 40.82248 ] } },
{ "type": "Feature", "properties": { "county": "BRONX", "license_number": "704399", "operation_type": "Store", "estab_type": "ABCK", "entity_name": "OVEN ARTISANS LLC", "dba_name": "ORWASHERS", "street_number": "1187", "street_name": "E 156TH ST", "city": "BRONX", "state": "NY", "zip_code": "10474", "georeference": { "type": "Point", "coordinates": [ -73.89263, 40.81244 ] }, ":@computed_region_yamh_8v7k": "307", "square_footage": "8000", "address_line_2": null, "address_line_3": null, "longitude": -73.89263, "latitude": 40.81244 }, "geometry": { "type": "Point", "coordinates": [ -73.89263, 40.81244 ] } },
{ "type": "Feature", "properties": { "county": "BRONX", "license_number": "609927", "operation_type": "Store", "estab_type": "AC", "entity_name": "R&E CORP", "dba_name": "C TOWN SUPERMARKET", "street_number": "809", "street_name": "SOUTHERN BLVD", "city": "BRONX", "state": "NY", "zip_code": "10459", "georeference": { "type": "Point", "coordinates": [ -73.89547, 40.81703 ] }, ":@computed_region_yamh_8v7k": "307", "square_footage": "7500", "address_line_2": null, "address_line_3": null, "longitude": -73.89547, "latitude": 40.81703 }, "geometry": { "type": "Point", "coordinates": [ -73.89547, 40.81703 ] } },
{ "type": "Feature", "properties": { "county": "BRONX", "license_number": "609069", "operation_type": "Store", "estab_type": "AC", "entity_name": "REYES MEXICAN DELI INC", "dba_name": "REYES MEXICAN DELI", "street_number": "998", "street_name": "LONGWOOD AVE #6", "city": "BRONX", "state": "NY", "zip_code": "10459", "georeference": { "type": "Point", "coordinates": [ -73.89735, 40.81699 ] }, ":@computed_region_yamh_8v7k": "307", "square_footage": "400", "address_line_2": null, "address_line_3": null, "longitude": -73.89735, "latitude": 40.81699 }, "geometry": { "type": "Point", "coordinates": [ -73.89735, 40.81699 ] } },
{ "type": "Feature", "properties": { "county": "BRONX", "license_number": "609037", "operation_type": "Store", "estab_type": "AC", "entity_name": "JYJ DELI GROCERY CORP", "dba_name": "JYJ DELI GROCERY", "street_number": "968", "street_name": "E 165TH ST", "city": "BRONX", "state": "NY", "zip_code": "10459", "georeference": { "type": "Point", "coordinates": [ -73.89445, 40.82396 ] }, ":@computed_region_yamh_8v7k": "307", "square_footage": "800", "address_line_2": null, "address_line_3": null, "longitude": -73.89445, "latitude": 40.82396 }, "geometry": { "type": "Point", "coordinates": [ -73.89445, 40.82396 ] } },
{ "type": "Feature", "properties": { "county": "BRONX", "license_number": "608886", "operation_type": "Store", "estab_type": "AC", "entity_name": "J&W FOOD CENTER CORP", "dba_name": "J&W FOOD CENTER", "street_number": "990", "street_name": "LEGGETT AVE", "city": "BRONX", "state": "NY", "zip_code": "10455", "georeference": { "type": "Point", "coordinates": [ -73.8998, 40.81444 ] }, ":@computed_region_yamh_8v7k": "307", "square_footage": "2000", "address_line_2": null, "address_line_3": null, "longitude": -73.8998, "latitude": 40.81444 }, "geometry": { "type": "Point", "coordinates": [ -73.8998, 40.81444 ] } },
{ "type": "Feature", "properties": { "county": "BRONX", "license_number": "608872", "operation_type": "Store", "estab_type": "AC", "entity_name": "PAULINO DELI GROCERY INC", "dba_name": "PAULINO DELI GROCERY", "street_number": "798", "street_name": "HUNTS PT AVE", "city": "BRONX", "state": "NY", "zip_code": "10474", "georeference": { "type": "Point", "coordinates": [ -73.88784, 40.81648 ] }, ":@computed_region_yamh_8v7k": "307", "square_footage": "1100", "address_line_2": null, "address_line_3": null, "longitude": -73.88784, "latitude": 40.81648 }, "geometry": { "type": "Point", "coordinates": [ -73.88784, 40.81648 ] } },
{ "type": "Feature", "properties": { "county": "BRONX", "license_number": "608800", "operation_type": "Store", "estab_type": "AC", "entity_name": "CACAO DELI GROCERY CORP", "dba_name": "CACAO DELI GROCERY", "street_number": "918", "street_name": "FAILE ST #1", "city": "BRONX", "state": "NY", "zip_code": "10474", "georeference": { "type": "Point", "coordinates": [ -73.88806, 40.82041 ] }, ":@computed_region_yamh_8v7k": "307", "square_footage": "1200", "address_line_2": null, "address_line_3": null, "longitude": -73.88806, "latitude": 40.82041 }, "geometry": { "type": "Point", "coordinates": [ -73.88806, 40.82041 ] } },
{ "type": "Feature", "properties": { "county": "BRONX", "license_number": "608767", "operation_type": "Store", "estab_type": "AC", "entity_name": "BROTHERHOOD GOURMET DELI CORP", "dba_name": "BROTHERHOOD GOURMET DEL", "street_number": "703", "street_name": "SOUTHERN BLVD", "city": "BRONX", "state": "NY", "zip_code": "10455", "georeference": { "type": "Point", "coordinates": [ -73.89897, 40.81366 ] }, ":@computed_region_yamh_8v7k": "307", "square_footage": "1800", "address_line_2": null, "address_line_3": null, "longitude": -73.89897, "latitude": 40.81366 }, "geometry": { "type": "Point", "coordinates": [ -73.89897, 40.81366 ] } },
{ "type": "Feature", "properties": { "county": "BRONX", "license_number": "608748", "operation_type": "Store", "estab_type": "AC", "entity_name": "543 NORTH DELI GROCERY INC", "dba_name": "543 NORTH DELI GROCERY", "street_number": "543", "street_name": "SOUTHERN BLVD", "city": "BRONX", "state": "NY", "zip_code": "10455", "georeference": { "type": "Point", "coordinates": [ -73.90385, 40.81221 ] }, ":@computed_region_yamh_8v7k": "307", "square_footage": "2000", "address_line_2": null, "address_line_3": null, "longitude": -73.90385, "latitude": 40.81221 }, "geometry": { "type": "Point", "coordinates": [ -73.90385, 40.81221 ] } },
{ "type": "Feature", "properties": { "county": "BRONX", "license_number": "608378", "operation_type": "Store", "estab_type": "AC", "entity_name": "TRONCOSO DELI GROCERY CORP", "dba_name": "TRONCOSO DELI GROCERY", "street_number": "590", "street_name": "SOUTHERN BLVD", "city": "BRONX", "state": "NY", "zip_code": "10455", "georeference": { "type": "Point", "coordinates": [ -73.90182, 40.81279 ] }, ":@computed_region_yamh_8v7k": "307", "square_footage": "1800", "address_line_2": null, "address_line_3": null, "longitude": -73.90182, "latitude": 40.81279 }, "geometry": { "type": "Point", "coordinates": [ -73.90182, 40.81279 ] } },
{ "type": "Feature", "properties": { "county": "BRONX", "license_number": "608221", "operation_type": "Store", "estab_type": "AC", "entity_name": "SWEET GROCERY & CANDY CORP", "dba_name": "SWEET DELI&GROCERY", "street_number": "956", "street_name": "INTERVALE AVE", "city": "BRONX", "state": "NY", "zip_code": "10459", "georeference": { "type": "Point", "coordinates": [ -73.89688, 40.82166 ] }, ":@computed_region_yamh_8v7k": "307", "square_footage": "1000", "address_line_2": null, "address_line_3": null, "longitude": -73.89688, "latitude": 40.82166 }, "geometry": { "type": "Point", "coordinates": [ -73.89688, 40.82166 ] } },
{ "type": "Feature", "properties": { "county": "BRONX", "license_number": "607755", "operation_type": "Store", "estab_type": "ACHDK", "entity_name": "WORLD WIDE DIRECT SEAFOOD LLC", "dba_name": "WORLD WIDE DIRECT SEAFD", "street_number": "800", "street_name": "FOOD CENTER DR  UNIT 13", "city": "BRONX", "state": "NY", "zip_code": "10474", "georeference": { "type": "Point", "coordinates": [ -73.87625, 40.80434 ] }, ":@computed_region_yamh_8v7k": "307", "square_footage": "5500", "address_line_2": null, "address_line_3": null, "longitude": -73.87625, "latitude": 40.80434 }, "geometry": { "type": "Point", "coordinates": [ -73.87625, 40.80434 ] } },
{ "type": "Feature", "properties": { "county": "BRONX", "license_number": "607615", "operation_type": "Store", "estab_type": "AC", "entity_name": "LOS HIJOS DEL CHORRO DELI GR CORP", "dba_name": "LOS HIJOS DE CHORRO DEL", "street_number": "701-703", "street_name": "FAILE ST", "city": "BRONX", "state": "NY", "zip_code": "10474", "georeference": { "type": "Point", "coordinates": [ -73.88655, 40.81477 ] }, ":@computed_region_yamh_8v7k": "307", "square_footage": "1400", "address_line_2": null, "address_line_3": null, "longitude": -73.88655, "latitude": 40.81477 }, "geometry": { "type": "Point", "coordinates": [ -73.88655, 40.81477 ] } },
{ "type": "Feature", "properties": { "county": "BRONX", "license_number": "607147", "operation_type": "Store", "estab_type": "AC", "entity_name": "EVOLUTION GOURMET DELI CORP", "dba_name": "EVOLUTION GOURMET", "street_number": "923", "street_name": "PROSPECT AVE", "city": "BRONX", "state": "NY", "zip_code": "10459", "georeference": { "type": "Point", "coordinates": [ -73.90071, 40.82185 ] }, ":@computed_region_yamh_8v7k": "307", "square_footage": "0", "address_line_2": null, "address_line_3": null, "longitude": -73.90071, "latitude": 40.82185 }, "geometry": { "type": "Point", "coordinates": [ -73.90071, 40.82185 ] } },
{ "type": "Feature", "properties": { "county": "BRONX", "license_number": "606738", "operation_type": "Store", "estab_type": "AC", "entity_name": "MEJIA MINI MARKET CORP", "dba_name": "CASTILLO FAMILY GROCERY", "street_number": "1010", "street_name": "LONGWOOD AVE", "city": "BRONX", "state": "NY", "zip_code": "10459", "georeference": { "type": "Point", "coordinates": [ -73.89683, 40.81668 ] }, ":@computed_region_yamh_8v7k": "307", "square_footage": "1500", "address_line_2": null, "address_line_3": null, "longitude": -73.89683, "latitude": 40.81668 }, "geometry": { "type": "Point", "coordinates": [ -73.89683, 40.81668 ] } },
{ "type": "Feature", "properties": { "county": "BRONX", "license_number": "606630", "operation_type": "Store", "estab_type": "AC", "entity_name": "DELI FARMS CORP", "dba_name": "DELI FARMS", "street_number": "850", "street_name": "LONGWOOD AVE", "city": "BRONX", "state": "NY", "zip_code": "10459", "georeference": { "type": "Point", "coordinates": [ -73.90144, 40.81944 ] }, ":@computed_region_yamh_8v7k": "307", "square_footage": "2000", "address_line_2": null, "address_line_3": null, "longitude": -73.90144, "latitude": 40.81944 }, "geometry": { "type": "Point", "coordinates": [ -73.90144, 40.81944 ] } },
{ "type": "Feature", "properties": { "county": "BRONX", "license_number": "606156", "operation_type": "Store", "estab_type": "AC", "entity_name": "D&A 724 FOOD CORP", "dba_name": "FOOD UNIVERSE", "street_number": "724", "street_name": "HUNTS PT AVE", "city": "BRONX", "state": "NY", "zip_code": "10474", "georeference": { "type": "Point", "coordinates": [ -73.88669, 40.81536 ] }, ":@computed_region_yamh_8v7k": "307", "square_footage": "8000", "address_line_2": null, "address_line_3": null, "longitude": -73.88669, "latitude": 40.81536 }, "geometry": { "type": "Point", "coordinates": [ -73.88669, 40.81536 ] } },
{ "type": "Feature", "properties": { "county": "BRONX", "license_number": "604974", "operation_type": "Store", "estab_type": "A", "entity_name": "RITE AID OF NEW YORK INC", "dba_name": "RITE AID PHARMACY 03844", "street_number": "950-960", "street_name": "SOUTHERN BLVD", "city": "BRONX", "state": "NY", "zip_code": "10459", "georeference": { "type": "Point", "coordinates": [ -73.891636, 40.821302 ] }, ":@computed_region_yamh_8v7k": "307", "square_footage": "5000", "address_line_2": null, "address_line_3": null, "longitude": -73.891636, "latitude": 40.821302 }, "geometry": { "type": "Point", "coordinates": [ -73.891636, 40.821302 ] } },
{ "type": "Feature", "properties": { "county": "BRONX", "license_number": "604501", "operation_type": "Store", "estab_type": "AC", "entity_name": "A&G DELI GROCERY CORP", "dba_name": "A&G DELI GROCERY", "street_number": "931", "street_name": "FOX ST", "city": "BRONX", "state": "NY", "zip_code": "10459", "georeference": { "type": "Point", "coordinates": [ -73.89387, 40.82072 ] }, ":@computed_region_yamh_8v7k": "307", "square_footage": "1600", "address_line_2": null, "address_line_3": null, "longitude": -73.89387, "latitude": 40.82072 }, "geometry": { "type": "Point", "coordinates": [ -73.89387, 40.82072 ] } },
{ "type": "Feature", "properties": { "county": "BRONX", "license_number": "603764", "operation_type": "Store", "estab_type": "AC", "entity_name": "1029 SIMPSON DELI & GROCERY CORP", "dba_name": "1029 SIMPSON DELI&GROCERY", "street_number": "1029", "street_name": "WESTCHESTER AVE", "city": "BRONX", "state": "NY", "zip_code": "10459", "georeference": { "type": "Point", "coordinates": [ -73.89298, 40.82414 ] }, ":@computed_region_yamh_8v7k": "307", "square_footage": "1800", "address_line_2": null, "address_line_3": null, "longitude": -73.89298, "latitude": 40.82414 }, "geometry": { "type": "Point", "coordinates": [ -73.89298, 40.82414 ] } },
{ "type": "Feature", "properties": { "county": "BRONX", "license_number": "603652", "operation_type": "Store", "estab_type": "AC", "entity_name": "FT MEAT CORP", "dba_name": "FOOD FAIR FRESH MARKET", "street_number": "1065", "street_name": "E 163RD ST", "city": "BRONX", "state": "NY", "zip_code": "10459", "georeference": { "type": "Point", "coordinates": [ -73.89071, 40.821 ] }, ":@computed_region_yamh_8v7k": "307", "square_footage": "13000", "address_line_2": null, "address_line_3": null, "longitude": -73.89071, "latitude": 40.821 }, "geometry": { "type": "Point", "coordinates": [ -73.89071, 40.821 ] } },
{ "type": "Feature", "properties": { "county": "BRONX", "license_number": "601435", "operation_type": "Store", "estab_type": "AC", "entity_name": "B&ME FOOD CORP", "dba_name": "KEY FOOD", "street_number": "1050", "street_name": "WESTCHESTER AVE", "city": "BRONX", "state": "NY", "zip_code": "10459", "georeference": { "type": "Point", "coordinates": [ -73.8914, 40.82494 ] }, ":@computed_region_yamh_8v7k": "307", "square_footage": "15000", "address_line_2": null, "address_line_3": null, "longitude": -73.8914, "latitude": 40.82494 }, "geometry": { "type": "Point", "coordinates": [ -73.8914, 40.82494 ] } },
{ "type": "Feature", "properties": { "county": "BRONX", "license_number": "600580", "operation_type": "Store", "estab_type": "AC", "entity_name": "GOMEZ EDWARD", "dba_name": "MATA E CANA DELI & GRCY", "street_number": "911", "street_name": "E 156TH ST", "city": "BRONX", "state": "NY", "zip_code": "10455", "georeference": { "type": "Point", "coordinates": [ -73.90103, 40.81692 ] }, ":@computed_region_yamh_8v7k": "307", "square_footage": "1500", "address_line_2": null, "address_line_3": null, "longitude": -73.90103, "latitude": 40.81692 }, "geometry": { "type": "Point", "coordinates": [ -73.90103, 40.81692 ] } },
{ "type": "Feature", "properties": { "county": "BRONX", "license_number": "600350", "operation_type": "Store", "estab_type": "AC", "entity_name": "RODRIGUEZ RAMON A", "dba_name": "RODRIGUEZ GROCERY", "street_number": "753", "street_name": "FOX ST", "city": "BRONX", "state": "NY", "zip_code": "10455", "georeference": { "type": "Point", "coordinates": [ -73.89822, 40.81566 ] }, ":@computed_region_yamh_8v7k": "307", "square_footage": "1500", "address_line_2": null, "address_line_3": null, "longitude": -73.89822, "latitude": 40.81566 }, "geometry": { "type": "Point", "coordinates": [ -73.89822, 40.81566 ] } },
{ "type": "Feature", "properties": { "county": "BRONX", "license_number": "600246", "operation_type": "Store", "estab_type": "ABC", "entity_name": "564 GROCERY INC", "dba_name": "C-TOWN SUPERMARKET", "street_number": "564", "street_name": "SOUTHERN BLVD", "city": "BRONX", "state": "NY", "zip_code": "10455", "georeference": { "type": "Point", "coordinates": [ -73.90281, 40.81251 ] }, ":@computed_region_yamh_8v7k": "307", "square_footage": "8000", "address_line_2": null, "address_line_3": null, "longitude": -73.90281, "latitude": 40.81251 }, "geometry": { "type": "Point", "coordinates": [ -73.90281, 40.81251 ] } },
{ "type": "Feature", "properties": { "county": "BRONX", "license_number": "600187", "operation_type": "Store", "estab_type": "AC", "entity_name": "ALMANZAR GROCERY&FOOD CORP", "dba_name": "ALMANZAR GROCERY&FOOD", "street_number": "854", "street_name": "INTERVALE AVE", "city": "BRONX", "state": "NY", "zip_code": "10459", "georeference": { "type": "Point", "coordinates": [ -73.89562, 40.81801 ] }, ":@computed_region_yamh_8v7k": "307", "square_footage": "1000", "address_line_2": null, "address_line_3": null, "longitude": -73.89562, "latitude": 40.81801 }, "geometry": { "type": "Point", "coordinates": [ -73.89562, 40.81801 ] } }
]
}
