{
"type": "FeatureCollection",
"name": "nyc_dohmh_bronx_cd2_grocery",
"crs": { "type": "name", "properties": { "name": "urn:ogc:def:crs:OGC:1.3:CRS84" } },
"features": [
{ "type": "Feature", "properties": { "camis": "50039510", "dba": "KETSIE GROCERY", "boro": "Bronx", "building": "865", "street": "EAST  149 STREET", "zipcode": "10455", "cuisine_description": "Latin American", "latitude": 40.811696432022998, "longitude": -73.903642838064002, "inspection_date": "2026-07-20T00:00:00", "grade": null, "score": "18" }, "geometry": { "type": "Point", "coordinates": [ -73.903642838064002, 40.811696432022998 ] } },
{ "type": "Feature", "properties": { "camis": "41453811", "dba": "THE POINT CAFE & GRILL", "boro": "Bronx", "building": "402", "street": "HUNTS POINT AVENUE", "zipcode": "10474", "cuisine_description": "Sandwiches", "latitude": 40.809594391487998, "longitude": -73.880717843612004, "inspection_date": "2026-07-08T00:00:00", "grade": "A", "score": "4" }, "geometry": { "type": "Point", "coordinates": [ -73.880717843612004, 40.809594391487998 ] } },
{ "type": "Feature", "properties": { "camis": "40674404", "dba": "MARKET RESTAURANT (C-D BLOCK)", "boro": "Bronx", "building": "355", "street": "FOOD CENTER DRIVE", "zipcode": "10474", "cuisine_description": "American", "latitude": 40.807608187248, "longitude": -73.871463051581003, "inspection_date": "2026-06-30T00:00:00", "grade": "A", "score": "11" }, "geometry": { "type": "Point", "coordinates": [ -73.871463051581003, 40.807608187248 ] } },
{ "type": "Feature", "properties": { "camis": "40693095", "dba": "SNACK BAR (LOCATED BETWEEN A-B BETWEEN FANCY FOOD AND MASTERS)", "boro": "Bronx", "building": "355", "street": "FOOD CENTER DRIVE", "zipcode": "10474", "cuisine_description": "American", "latitude": 40.807608187248, "longitude": -73.871463051581003, "inspection_date": "2026-04-03T00:00:00", "grade": null, "score": null }, "geometry": { "type": "Point", "coordinates": [ -73.871463051581003, 40.807608187248 ] } },
{ "type": "Feature", "properties": { "camis": "50016091", "dba": "SUBWAY", "boro": "Bronx", "building": "1047", "street": "EAST  163 STREET", "zipcode": "10459", "cuisine_description": "Sandwiches", "latitude": 40.820995359134002, "longitude": -73.891055927872998, "inspection_date": "2026-01-07T00:00:00", "grade": "A", "score": "12" }, "geometry": { "type": "Point", "coordinates": [ -73.891055927872998, 40.820995359134002 ] } },
{ "type": "Feature", "properties": { "camis": "50011380", "dba": "SOUTHSIDE CAFE (Produce Market)", "boro": "Bronx", "building": "300C", "street": "HUNTS POINT TERMINAL MARKET", "zipcode": "10474", "cuisine_description": "Latin American", "latitude": 40.810354737405, "longitude": -73.878151625369995, "inspection_date": "2025-08-01T00:00:00", "grade": "A", "score": "13" }, "geometry": { "type": "Point", "coordinates": [ -73.878151625369995, 40.810354737405 ] } },
{ "type": "Feature", "properties": { "camis": "50133152", "dba": "FOOD BO GARDEN", "boro": "Bronx", "building": "934C", "street": "EAST  163 STREET", "zipcode": "10459", "cuisine_description": "Chinese", "latitude": 40.820981252654001, "longitude": -73.896580294600994, "inspection_date": "2025-04-30T00:00:00", "grade": "A", "score": "12" }, "geometry": { "type": "Point", "coordinates": [ -73.896580294600994, 40.820981252654001 ] } },
{ "type": "Feature", "properties": { "camis": "41238905", "dba": "LA SALLE GROCERY", "boro": "Bronx", "building": "1232", "street": "RANDALL AVENUE", "zipcode": "10474", "cuisine_description": null, "latitude": 40.811738053597999, "longitude": -73.888943353596005, "inspection_date": "2008-07-08T13:12:00", "grade": "N", "score": "27" }, "geometry": { "type": "Point", "coordinates": [ -73.888943353596005, 40.811738053597999 ] } },
{ "type": "Feature", "properties": { "camis": "50167466", "dba": "JMC FRESH FOODS CORP", "boro": "Bronx", "building": "1000", "street": "WESTCHESTER AVENUE", "zipcode": "10459", "cuisine_description": null, "latitude": 40.823685024131002, "longitude": -73.893790306114994, "inspection_date": "1900-01-01T00:00:00", "grade": null, "score": null }, "geometry": { "type": "Point", "coordinates": [ -73.893790306114994, 40.823685024131002 ] } }
]
}
