{
"type": "FeatureCollection",
"name": "bronx_cd2_boundary",
"crs": { "type": "name", "properties": { "name": "urn:ogc:def:crs:OGC:1.3:CRS84" } },
"features": [
{ "type": "Feature", "properties": { "boro_cd": "202", "shape_leng": "48501.3435975", "shape_area": "61808668.4673" }, "geometry": { "type": "MultiPolygon", "coordinates": [ [ [ [ -73.896808832237738, 40.795808445159985 ], [ -73.896938729987923, 40.795635872853751 ], [ -73.897236038439388, 40.795720037537272 ], [ -73.897968397837417, 40.795644839162179 ], [ -73.89857332665558, 40.796069140259782 ], [ -73.898952618325268, 40.796227852579825 ], [ -73.899194342499811, 40.796502456018395 ], [ -73.898520520714712, 40.796936194189975 ], [ -73.89788253240107, 40.797116532649795 ], [ -73.897131497956423, 40.796798077728489 ], [ -73.89678526341234, 40.79632916648729 ], [ -73.896808832237738, 40.795808445159985 ] ] ], [ [ [ -73.898330362704797, 40.802412821442779 ], [ -73.896466688345711, 40.800790470891506 ], [ -73.897984866869166, 40.799604280819942 ], [ -73.898640387149186, 40.7991011651241 ], [ -73.899024555672284, 40.799172199840143 ], [ -73.900210049930706, 40.799264156398728 ], [ -73.899787388009216, 40.799509553872134 ], [ -73.899715638174442, 40.800798808502961 ], [ -73.900037358157419, 40.800908742050368 ], [ -73.899489194236708, 40.80090111592974 ], [ -73.899387485710506, 40.801935665070467 ], [ -73.898330362704797, 40.802412821442779 ] ] ], [ [ [ -73.893854541866489, 40.827340036745781 ], [ -73.892932261011438, 40.826787036029977 ], [ -73.891912719246534, 40.826794450251448 ], [ -73.89090560062786, 40.82678778412005 ], [ -73.889979424879201, 40.826809992238388 ], [ -73.889835991700224, 40.826804734257394 ], [ -73.889805641724053, 40.826803621043176 ], [ -73.889690050275362, 40.826799383570638 ], [ -73.889638953162361, 40.826797510007545 ], [ -73.888850462036771, 40.826768595244204 ], [ -73.887895109675839, 40.82674318529736 ], [ -73.886399572280666, 40.827503379739518 ], [ -73.886096242333238, 40.827655777358778 ], [ -73.885949996377718, 40.827733634943094 ], [ -73.88587215795792, 40.82777731476024 ], [ -73.885794262957702, 40.827823575514259 ], [ -73.885692005247492, 40.827877303584792 ], [ -73.885566158874994, 40.827939890628592 ], [ -73.885415010100786, 40.828014151450169 ], [ -73.885339770682307, 40.828047646843999 ], [ -73.885026388461014, 40.828187157744424 ], [ -73.884717339103034, 40.828240984996711 ], [ -73.88407572105892, 40.82826344071708 ], [ -73.883900699050542, 40.828270154415435 ], [ -73.883784141345714, 40.828274292462552 ], [ -73.884387052875681, 40.826817283532357 ], [ -73.884609388584991, 40.825303536426695 ], [ -73.884613359441559, 40.825276503821655 ], [ -73.884621658682732, 40.824956206335173 ], [ -73.884644507004893, 40.823814273701757 ], [ -73.884398918270691, 40.822997524310743 ], [ -73.884385041060995, 40.822951369498597 ], [ -73.884361285919297, 40.822873801332094 ], [ -73.884332123817174, 40.822810142979925 ], [ -73.884294882112087, 40.822718205268167 ], [ -73.88424971750176, 40.822642209082751 ], [ -73.883787861264821, 40.821933413771454 ], [ -73.882659229240275, 40.81968883261969 ], [ -73.882447796191343, 40.819268322009798 ], [ -73.880980295932673, 40.818235623127428 ], [ -73.878062832621268, 40.81618263244426 ], [ -73.876634599637086, 40.815711508099341 ], [ -73.876731855068172, 40.815386496486752 ], [ -73.875205390924805, 40.814878744500426 ], [ -73.874463819277381, 40.814645231861803 ], [ -73.872501108859709, 40.813888128234254 ], [ -73.872394379000909, 40.813974335606027 ], [ -73.872329770979974, 40.813921823341474 ], [ -73.872436672350773, 40.813850934001785 ], [ -73.872189610120458, 40.813673670767336 ], [ -73.872097169610029, 40.813738021521189 ], [ -73.872036875399345, 40.813685513372846 ], [ -73.872129311473614, 40.813621168692784 ], [ -73.872080387850289, 40.81358405461966 ], [ -73.871804636402018, 40.813314890539395 ], [ -73.871657776833985, 40.813254261976169 ], [ -73.87095753684099, 40.812146180609645 ], [ -73.870568069279329, 40.812087317622591 ], [ -73.870470931653173, 40.811458294991809 ], [ -73.870553421916341, 40.811243380723106 ], [ -73.868112191400797, 40.806751832832013 ], [ -73.868463469591447, 40.805936548939229 ], [ -73.8697896801756, 40.804125105863982 ], [ -73.871518550302966, 40.801874148888331 ], [ -73.871611425925707, 40.801914396207167 ], [ -73.871698819308065, 40.801805271920621 ], [ -73.87160336192531, 40.801751811446643 ], [ -73.871745093739193, 40.801547366116331 ], [ -73.872380604536986, 40.801290114632899 ], [ -73.872438646848479, 40.801270612796472 ], [ -73.872647653318765, 40.801190115948437 ], [ -73.872705037586002, 40.801167176810758 ], [ -73.873172233271987, 40.800997839706149 ], [ -73.873550965725059, 40.800853302772026 ], [ -73.874677163140589, 40.800979422864366 ], [ -73.874730604526988, 40.801256637628775 ], [ -73.875265170373225, 40.801398152548636 ], [ -73.875857885813303, 40.801455987586579 ], [ -73.875929980716066, 40.801084223091316 ], [ -73.878142188199234, 40.801319290306644 ], [ -73.878076854865441, 40.801666644035215 ], [ -73.877986295094004, 40.801656715507093 ], [ -73.877968803753745, 40.801711115128342 ], [ -73.878033002364702, 40.802059906860983 ], [ -73.878062948534193, 40.802194319345183 ], [ -73.878114388942947, 40.802368084879419 ], [ -73.878165811400621, 40.802551684247689 ], [ -73.878234649218001, 40.802646805768369 ], [ -73.878432955135395, 40.802702734192493 ], [ -73.878743441665549, 40.802739114243103 ], [ -73.878924538354795, 40.802772080508362 ], [ -73.879213484076857, 40.802795326835266 ], [ -73.879342921845364, 40.802772519178795 ], [ -73.879509959610445, 40.802769490815344 ], [ -73.879627648365314, 40.802743318719628 ], [ -73.879743008203803, 40.802743439121173 ], [ -73.879757045768372, 40.802743453764371 ], [ -73.879916606034527, 40.802760007711321 ], [ -73.880054629848786, 40.802760151407789 ], [ -73.880171151187938, 40.802724219551038 ], [ -73.880278987965255, 40.802721053803239 ], [ -73.880418365100653, 40.802667940286696 ], [ -73.88056943638324, 40.80263284747938 ], [ -73.880771498084954, 40.802587426709486 ], [ -73.880920305452619, 40.802558543427494 ], [ -73.881069103116801, 40.802535882321664 ], [ -73.881179656672302, 40.802529773446309 ], [ -73.88132025761243, 40.802511251987042 ], [ -73.88143082957599, 40.802494772761904 ], [ -73.88153320765754, 40.802481396450752 ], [ -73.881709319577581, 40.802447354975918 ], [ -73.881821254798609, 40.802431914257106 ], [ -73.881938639332404, 40.802421663907147 ], [ -73.88203490143367, 40.802407793389058 ], [ -73.882060131274017, 40.802404158282478 ], [ -73.882065392581808, 40.80240288628768 ], [ -73.882192567065829, 40.802372145334317 ], [ -73.882320887986651, 40.80235153497312 ], [ -73.88237010115644, 40.802353847458363 ], [ -73.88239465208332, 40.802354999950758 ], [ -73.88244775081948, 40.802351212093612 ], [ -73.882430217740406, 40.802265572390169 ], [ -73.882518949120509, 40.802252181284565 ], [ -73.882541134021992, 40.802335681563051 ], [ -73.882595269442973, 40.802325706323508 ], [ -73.882760284008043, 40.802306208851334 ], [ -73.88288323972418, 40.802289127183478 ], [ -73.882970590687023, 40.802284299542329 ], [ -73.883070916428053, 40.802259819580506 ], [ -73.883203603313916, 40.80222799770911 ], [ -73.883540118493229, 40.802179174631959 ], [ -73.883695424224769, 40.802162123603068 ], [ -73.883809410281998, 40.802122195736771 ], [ -73.883838499931102, 40.802107184498041 ], [ -73.883851826901065, 40.802095531658111 ], [ -73.883877450714294, 40.802075334868725 ], [ -73.88389999312497, 40.802061357348677 ], [ -73.883915367721229, 40.802048927572692 ], [ -73.883937916674967, 40.802031061295544 ], [ -73.883964625196128, 40.801965148862408 ], [ -73.883783539701312, 40.801929015924912 ], [ -73.883777379631667, 40.801939899170108 ], [ -73.883738457370853, 40.801956193769954 ], [ -73.883690369965407, 40.801945255805308 ], [ -73.883668930889598, 40.801913345465572 ], [ -73.883680247162445, 40.801880690192711 ], [ -73.883723266659231, 40.801862843941215 ], [ -73.883774424095378, 40.801873784987706 ], [ -73.883792790406631, 40.801907248014501 ], [ -73.883784579578943, 40.801919683824138 ], [ -73.883967747078572, 40.80195744535537 ], [ -73.88398945322632, 40.801903879661367 ], [ -73.885051723367084, 40.80213090679819 ], [ -73.88514576973337, 40.80225958948747 ], [ -73.885267145052609, 40.802284394817129 ], [ -73.885272622139752, 40.802274028967979 ], [ -73.885310870586764, 40.802253326772764 ], [ -73.885365445988697, 40.802260639744844 ], [ -73.88539676408837, 40.802302153070251 ], [ -73.885380331973181, 40.80233428526747 ], [ -73.885331168859551, 40.802352902670314 ], [ -73.885283421059412, 40.802342485539107 ], [ -73.885257551695048, 40.802308236964173 ], [ -73.885261665051402, 40.802296833951537 ], [ -73.885155171266732, 40.802272453544049 ], [ -73.885255536702516, 40.802409781025609 ], [ -73.885599781122707, 40.802565497333561 ], [ -73.885780738809885, 40.802680392136793 ], [ -73.885914246725292, 40.802798517495745 ], [ -73.88600887424704, 40.802952656788655 ], [ -73.886077712466204, 40.803054329695179 ], [ -73.886099726644787, 40.803085372871465 ], [ -73.886163770565631, 40.803175684976999 ], [ -73.886275764543782, 40.803264289368656 ], [ -73.886424355529456, 40.80334516275601 ], [ -73.886486918235562, 40.803379212832624 ], [ -73.886723892487211, 40.803530214982544 ], [ -73.886848798252558, 40.803635219116885 ], [ -73.887085735316845, 40.803809163680405 ], [ -73.887270973471189, 40.803947002336848 ], [ -73.887380956242168, 40.804110681284065 ], [ -73.887247384583347, 40.804186140616977 ], [ -73.887335526332251, 40.804293189910766 ], [ -73.887402346831792, 40.804374342589547 ], [ -73.88752886022138, 40.804401726740551 ], [ -73.887711246004486, 40.804614781220295 ], [ -73.887631295376465, 40.804671325376084 ], [ -73.887958972239545, 40.804997925920837 ], [ -73.888592177064027, 40.804789275097988 ], [ -73.888760537140016, 40.804863178598112 ], [ -73.888893642190183, 40.804956227461929 ], [ -73.889064420260723, 40.805021912402168 ], [ -73.88915674193909, 40.805128026168475 ], [ -73.889274187757096, 40.805210337606091 ], [ -73.889366403769358, 40.80538078029835 ], [ -73.889337838054246, 40.805588036875051 ], [ -73.889223230048302, 40.805684420931989 ], [ -73.88919794140908, 40.805807099679448 ], [ -73.889224160911539, 40.805845351192175 ], [ -73.889556343016437, 40.805431606518916 ], [ -73.889556645019454, 40.805431231887674 ], [ -73.889974340349752, 40.804913130383248 ], [ -73.889995981708523, 40.804886286250351 ], [ -73.890147562438628, 40.804960609786804 ], [ -73.889374392536951, 40.805925273115449 ], [ -73.88954478026055, 40.805807076192963 ], [ -73.889658749635288, 40.80584774526973 ], [ -73.889753329872605, 40.805875490586395 ], [ -73.88981346825868, 40.805877391357818 ], [ -73.889813983497845, 40.805877391850274 ], [ -73.889850412741566, 40.805857146444545 ], [ -73.889872292585082, 40.805831356465049 ], [ -73.889899057622671, 40.80578529092795 ], [ -73.889928233648632, 40.805748446744573 ], [ -73.889960890700081, 40.80571476991765 ], [ -73.8899913911536, 40.805704259873202 ], [ -73.890059326924288, 40.805704324681471 ], [ -73.890135940812044, 40.805714690947639 ], [ -73.890232956891921, 40.805736907528434 ], [ -73.89033596715241, 40.805766636014063 ], [ -73.890352597698723, 40.805771435839119 ], [ -73.890436673225381, 40.805793638766659 ], [ -73.890514225884075, 40.805847792973907 ], [ -73.890582130797128, 40.805867522847251 ], [ -73.890721226188717, 40.805875028722802 ], [ -73.890863541771836, 40.805892371352954 ], [ -73.891012343236213, 40.805899886065376 ], [ -73.891271129840462, 40.805912421894398 ], [ -73.891497171867343, 40.805927198969549 ], [ -73.891499037300775, 40.805931238240682 ], [ -73.891441042772101, 40.805661899067516 ], [ -73.891786181356039, 40.805622892086355 ], [ -73.891979295342736, 40.806384708976395 ], [ -73.892454946360559, 40.806370106605463 ], [ -73.89270641330674, 40.806343989939521 ], [ -73.892706810664308, 40.806343948595647 ], [ -73.892531771394246, 40.805656551568511 ], [ -73.89227315843533, 40.805702433124985 ], [ -73.89216364547643, 40.80530259256561 ], [ -73.891813120095136, 40.805186955466247 ], [ -73.89180973582809, 40.805193784957794 ], [ -73.891676041840185, 40.805150953142721 ], [ -73.891686993125219, 40.805130110109467 ], [ -73.891564176085765, 40.805093939956414 ], [ -73.891560049664747, 40.805099980538337 ], [ -73.891499979381393, 40.805081588089259 ], [ -73.891507513958729, 40.805070311042854 ], [ -73.891303729990256, 40.805006788325841 ], [ -73.891298569737728, 40.805016498225264 ], [ -73.891267106228895, 40.805010489424305 ], [ -73.891284024139225, 40.804976281899343 ], [ -73.891313769173792, 40.804984938313304 ], [ -73.891311187900996, 40.804989821406387 ], [ -73.891464888608766, 40.80504398694363 ], [ -73.891506456657609, 40.805057693082674 ], [ -73.89169561834656, 40.805115843422335 ], [ -73.891732409956148, 40.805049363420487 ], [ -73.891866108093907, 40.80509048742681 ], [ -73.891828889975528, 40.805166472094264 ], [ -73.892197396715616, 40.805284687919553 ], [ -73.892300203275781, 40.805660605670347 ], [ -73.892337305077845, 40.805656370118548 ], [ -73.89233507004721, 40.805648679479908 ], [ -73.892398035090054, 40.805638488931976 ], [ -73.8924002723912, 40.805645324859952 ], [ -73.892566677384124, 40.805620710004824 ], [ -73.892748140374039, 40.806340261302182 ], [ -73.892897709018655, 40.806326918796501 ], [ -73.893046543945147, 40.806314765512248 ], [ -73.893156541705352, 40.806312409921262 ], [ -73.893305164891515, 40.806343998338114 ], [ -73.893376551191551, 40.806297864564463 ], [ -73.893454201268185, 40.80629302000564 ], [ -73.893548046559246, 40.806275898888686 ], [ -73.893622454421418, 40.806275967572766 ], [ -73.893719543134708, 40.806253934131597 ], [ -73.893836022272353, 40.806244208755928 ], [ -73.893952480912574, 40.806246773532692 ], [ -73.894036586074108, 40.806251767219671 ], [ -73.894104495030433, 40.806269037430631 ], [ -73.894220963742313, 40.806266685595268 ], [ -73.894525101421749, 40.806242382508749 ], [ -73.894628639183438, 40.80623264499382 ], [ -73.89463252351014, 40.806232332424841 ], [ -73.894573939134162, 40.806045773007376 ], [ -73.894726019096197, 40.806026246583677 ], [ -73.89477679721044, 40.806213633742814 ], [ -73.894803373713444, 40.806208222822832 ], [ -73.894853605358762, 40.806214908158886 ], [ -73.894729705266798, 40.805741101461834 ], [ -73.894842959836325, 40.805723997012322 ], [ -73.894969095287195, 40.806231130494105 ], [ -73.895098364873178, 40.806863639676301 ], [ -73.895285505642278, 40.80684271107156 ], [ -73.895372690578213, 40.806703517335016 ], [ -73.89545911867944, 40.806603083889648 ], [ -73.895506339685667, 40.806595305303816 ], [ -73.895417948779581, 40.806267777688475 ], [ -73.895392210997812, 40.80617680177734 ], [ -73.895302061429149, 40.805901404161901 ], [ -73.895311816358642, 40.805869456157446 ], [ -73.895279628740099, 40.805766184068077 ], [ -73.895311974875284, 40.80576867103516 ], [ -73.89534416707076, 40.805869485530728 ], [ -73.895405490610315, 40.80596049374936 ], [ -73.895466556982043, 40.806216200015577 ], [ -73.895511639171858, 40.806348983005059 ], [ -73.895591090918231, 40.806581343347652 ], [ -73.895722737787651, 40.806559657308412 ], [ -73.89569912530925, 40.806445021689861 ], [ -73.895670251387585, 40.806290130457107 ], [ -73.895747908988582, 40.806280368010349 ], [ -73.895831748878251, 40.806454974302675 ], [ -73.895838380731007, 40.806540607572096 ], [ -73.895977946877494, 40.80651761583978 ], [ -73.89594184174581, 40.806391161180557 ], [ -73.895935533631913, 40.806287911468239 ], [ -73.89587766345042, 40.806056790595228 ], [ -73.895790669580833, 40.805830559209262 ], [ -73.895874815993196, 40.805808511582576 ], [ -73.895948888355051, 40.806022440452068 ], [ -73.896013205891535, 40.8062683161561 ], [ -73.896108245178823, 40.806496150951403 ], [ -73.896224241190652, 40.806477041842427 ], [ -73.896207082430493, 40.806415845339238 ], [ -73.896195723521956, 40.806324063526858 ], [ -73.896195853014774, 40.806241031322735 ], [ -73.896230407370183, 40.806210471902332 ], [ -73.896276425029669, 40.806206142593346 ], [ -73.896351184937984, 40.806210580554783 ], [ -73.896786823237505, 40.806159258515095 ], [ -73.897087483076803, 40.806123837656905 ], [ -73.897114380143321, 40.806110865929163 ], [ -73.89715079498724, 40.806093303628714 ], [ -73.897173874081801, 40.806045253647717 ], [ -73.897260149991467, 40.806040959847429 ], [ -73.897312961469098, 40.806081527294857 ], [ -73.897386394392029, 40.806224617136884 ], [ -73.897496819538205, 40.806214400705251 ], [ -73.897475887353679, 40.80599922682164 ], [ -73.897414726985716, 40.805800059478251 ], [ -73.897485917409213, 40.805787832516813 ], [ -73.897547065967274, 40.805994373750934 ], [ -73.897638187411516, 40.806201320838994 ], [ -73.897761266487493, 40.806189933501692 ], [ -73.897750656932473, 40.806137129325499 ], [ -73.897728272510705, 40.805967494137455 ], [ -73.897799451953858, 40.805962640911659 ], [ -73.897867158350763, 40.806112649674617 ], [ -73.897873608350565, 40.806179539492568 ], [ -73.89801340896237, 40.806166603859403 ], [ -73.89800306596382, 40.806090647513919 ], [ -73.897990370515373, 40.805930853648263 ], [ -73.897871279906568, 40.805534981759784 ], [ -73.897936002962552, 40.805520290028987 ], [ -73.898068037987983, 40.805913715708634 ], [ -73.898161107527002, 40.806138070100076 ], [ -73.89822085495237, 40.806119991154311 ], [ -73.89829494887951, 40.806097570698512 ], [ -73.898281719951001, 40.806050961839432 ], [ -73.89827305836836, 40.805917334915719 ], [ -73.898262754887227, 40.805890938490577 ], [ -73.898257612246198, 40.80587128446642 ], [ -73.898272392285136, 40.805869613382868 ], [ -73.898274624117761, 40.805859509754093 ], [ -73.898244380814958, 40.805826359223282 ], [ -73.898193423797977, 40.805811155585303 ], [ -73.898116666876021, 40.805755506565504 ], [ -73.898133007606233, 40.805699378755364 ], [ -73.898127580273936, 40.805693282830511 ], [ -73.898123488269391, 40.805686612029994 ], [ -73.898120834331564, 40.805679533839893 ], [ -73.898119685093363, 40.805672225974853 ], [ -73.898120069408577, 40.805664871915845 ], [ -73.898121977627568, 40.805657656303687 ], [ -73.898125361839618, 40.80565076030306 ], [ -73.898130137075782, 40.805644357054042 ], [ -73.898175223132469, 40.805634290784887 ], [ -73.898189275443954, 40.805624198267573 ], [ -73.898190774742048, 40.805610725739434 ], [ -73.898228278323955, 40.805571275436172 ], [ -73.898208596197307, 40.805552914428098 ], [ -73.898245558407837, 40.805539472704162 ], [ -73.898277344047017, 40.805542721420068 ], [ -73.898289883717766, 40.805544003829901 ], [ -73.898526565166037, 40.805434309098096 ], [ -73.899589506589777, 40.80522840281072 ], [ -73.899704898421248, 40.805215418567371 ], [ -73.89973764677022, 40.805194511981227 ], [ -73.899736748553053, 40.805182675907311 ], [ -73.899735957979289, 40.805172267238362 ], [ -73.900071930602337, 40.805101135089082 ], [ -73.900265550190383, 40.805060888907647 ], [ -73.900525594861975, 40.805006834881581 ], [ -73.900785784310671, 40.804917489448677 ], [ -73.900840881107726, 40.804913645922348 ], [ -73.900911315971783, 40.804899332354175 ], [ -73.900972988815354, 40.804876097891331 ], [ -73.901257341196441, 40.804881881847891 ], [ -73.901306521533755, 40.804874430242513 ], [ -73.901523314197888, 40.804841582928219 ], [ -73.901530960321764, 40.804840173707362 ], [ -73.901802709336707, 40.804790086916178 ], [ -73.902049522779649, 40.804784140521711 ], [ -73.902072454478201, 40.804790643565561 ], [ -73.902093942296574, 40.804799549829625 ], [ -73.902126828309974, 40.804825309566041 ], [ -73.902141844685232, 40.804848909975227 ], [ -73.902152155864613, 40.804872505718663 ], [ -73.902167780454221, 40.80491865682032 ], [ -73.902169118889049, 40.804926369878672 ], [ -73.902169136793091, 40.80493414968744 ], [ -73.902167833866685, 40.804941866255504 ], [ -73.902180219570482, 40.804953828320905 ], [ -73.90220621473199, 40.804950343243945 ], [ -73.902222847656091, 40.804948113190278 ], [ -73.902246204663484, 40.805071502455604 ], [ -73.902855852502483, 40.808602932267313 ], [ -73.902939292374384, 40.809062701055232 ], [ -73.90297929643036, 40.80931063994813 ], [ -73.902987954374893, 40.809364300533971 ], [ -73.90299767005645, 40.809455582860181 ], [ -73.903008779171714, 40.809550072778933 ], [ -73.903016847280895, 40.809601985079233 ], [ -73.903023695904821, 40.809667217580341 ], [ -73.903089465965436, 40.80985639920042 ], [ -73.903242735022303, 40.810712884532585 ], [ -73.903417203736481, 40.811506882855817 ], [ -73.904180364357501, 40.81212482006493 ], [ -73.904465514767367, 40.812281959913847 ], [ -73.904183377617386, 40.813086455480914 ], [ -73.903804122916057, 40.814131842797636 ], [ -73.903469971837922, 40.815075788484052 ], [ -73.903064437835425, 40.816106761023086 ], [ -73.903009832142914, 40.816317792457461 ], [ -73.902578590742195, 40.817369794431038 ], [ -73.902107433069617, 40.818505192100737 ], [ -73.901831952560883, 40.819153364560819 ], [ -73.901663194094482, 40.819550426855081 ], [ -73.901601212473878, 40.81969485875819 ], [ -73.901292776271063, 40.820475442111785 ], [ -73.900845612322172, 40.821541417614668 ], [ -73.900611410808281, 40.822108807929723 ], [ -73.900209740753098, 40.823071014629122 ], [ -73.900166693869451, 40.823174132142952 ], [ -73.900038299610358, 40.823481696233095 ], [ -73.899799199741025, 40.824057941511697 ], [ -73.89912145036169, 40.825696919189767 ], [ -73.898995558536157, 40.825988650968924 ], [ -73.898862306789354, 40.826297436140543 ], [ -73.898836173778619, 40.826357993498377 ], [ -73.898677100426241, 40.826743696307872 ], [ -73.898654173790376, 40.826799286328885 ], [ -73.898474324338224, 40.827235359173116 ], [ -73.898452299630165, 40.827288761240027 ], [ -73.898204693279766, 40.827889109985016 ], [ -73.897944977693356, 40.828521748264883 ], [ -73.897569587585906, 40.829423000831078 ], [ -73.896395729739979, 40.828762879520824 ], [ -73.895485227645921, 40.828248541385108 ], [ -73.895291565001557, 40.828142349868067 ], [ -73.895110208607406, 40.828036899455086 ], [ -73.893854541866489, 40.827340036745781 ] ] ] ] } }
]
}
