{
"type": "FeatureCollection",
"name": "bronx_cd2_tracts",
"crs": { "type": "name", "properties": { "name": "urn:ogc:def:crs:OGC:1.3:CRS84" } },
"features": [
{ "type": "Feature", "properties": { "shape_area": "2302753.24876", "ntaname": "Longwood", "cdtaname": "BX02 Longwood-Hunts Point (CD 2 Approximation)", "shape_leng": "6953.98443485", "boroname": "Bronx", "ct2020": "008700", "nta2020": "BX0202", "borocode": "2", "cdeligibil": "E", "geoid": "36005008700", "boroct2020": "2008700", "cdta2020": "BX02", "ctlabel": "87" }, "geometry": { "type": "MultiPolygon", "coordinates": [ [ [ [ -73.892836530795947, 40.820974054113485 ], [ -73.892901561985198, 40.820811223693397 ], [ -73.89389462388759, 40.819860289856784 ], [ -73.894930761556964, 40.818846720902123 ], [ -73.89567610770024, 40.818129368254183 ], [ -73.897044666559438, 40.816801859686272 ], [ -73.897785734263621, 40.817246209314874 ], [ -73.898520492328657, 40.817685746329801 ], [ -73.899285298720159, 40.818146750013589 ], [ -73.89981831998557, 40.818470004999583 ], [ -73.90002347464123, 40.81859470549324 ], [ -73.901663194094482, 40.819550426855081 ], [ -73.901601212473125, 40.819694859260757 ], [ -73.900851768598287, 40.820058566775614 ], [ -73.900645728405038, 40.820163279970387 ], [ -73.899859948968995, 40.820562618496417 ], [ -73.899607332654838, 40.820700452666138 ], [ -73.899487927990691, 40.820765602743798 ], [ -73.898933390424531, 40.821068167962082 ], [ -73.897863219548313, 40.821597752916226 ], [ -73.896878370546887, 40.822117858703855 ], [ -73.895860195678239, 40.822631045899499 ], [ -73.895881358728744, 40.820992574705294 ], [ -73.89490478842346, 40.820987520092302 ], [ -73.893873803365807, 40.820979335244921 ], [ -73.892836530795947, 40.820974054113485 ] ] ] ] } },
{ "type": "Feature", "properties": { "shape_area": "12494793.0631", "ntaname": "Hunts Point", "cdtaname": "BX02 Longwood-Hunts Point (CD 2 Approximation)", "shape_leng": "16178.3825833", "boroname": "Bronx", "ct2020": "011702", "nta2020": "BX0201", "borocode": "2", "cdeligibil": "I", "geoid": "36005011702", "boroct2020": "2011702", "cdta2020": "BX02", "ctlabel": "117.02" }, "geometry": { "type": "MultiPolygon", "coordinates": [ [ [ [ -73.876634599637086, 40.815711508099341 ], [ -73.876731855068172, 40.815386496486752 ], [ -73.875205390924805, 40.814878744500426 ], [ -73.874463819277381, 40.814645231861803 ], [ -73.872501108859709, 40.813888128234254 ], [ -73.872394379000909, 40.813974335606027 ], [ -73.872329770979974, 40.813921823341474 ], [ -73.872436672350773, 40.813850934001785 ], [ -73.872189610120458, 40.813673670767336 ], [ -73.872097169610029, 40.813738021521189 ], [ -73.872036875399345, 40.813685513372846 ], [ -73.872129311473614, 40.813621168692784 ], [ -73.872080387850289, 40.81358405461966 ], [ -73.871804636402018, 40.813314890539395 ], [ -73.871657776833985, 40.813254261976169 ], [ -73.87095753684099, 40.812146180609645 ], [ -73.870568069279329, 40.812087317622591 ], [ -73.870470931653173, 40.811458294991809 ], [ -73.870553421916341, 40.811243380723106 ], [ -73.868112191400797, 40.806751832832013 ], [ -73.868463469591447, 40.805936548939229 ], [ -73.8697896801756, 40.804125105863982 ], [ -73.871518550301985, 40.801874149390905 ], [ -73.871611425925707, 40.801914396207167 ], [ -73.871756459429591, 40.80197724230726 ], [ -73.871916731119114, 40.802046695253217 ], [ -73.87331074655917, 40.802615482244761 ], [ -73.873522989294074, 40.802728023020642 ], [ -73.873568040740551, 40.802773496233456 ], [ -73.873607522842661, 40.802821866321018 ], [ -73.87364111504975, 40.802872740587354 ], [ -73.87366854462671, 40.802925706005112 ], [ -73.873689588868629, 40.802980332568843 ], [ -73.873704076909277, 40.803036176785767 ], [ -73.87373413836707, 40.803418652034956 ], [ -73.87373590658143, 40.803480427278203 ], [ -73.873804193102615, 40.80347906602875 ], [ -73.8739458727635, 40.803482837567721 ], [ -73.87394607139818, 40.803482838790082 ], [ -73.873946256328637, 40.803482858760248 ], [ -73.874139022796825, 40.803505727129924 ], [ -73.874139162091708, 40.803505747049961 ], [ -73.874139289247523, 40.8035057741603 ], [ -73.874330579671707, 40.803547186108659 ], [ -73.874330753531595, 40.803547231362373 ], [ -73.874330926949597, 40.803547277118199 ], [ -73.874516036599758, 40.803607106242715 ], [ -73.874516245257965, 40.803607170129318 ], [ -73.874516429192141, 40.803607251076542 ], [ -73.874690910650855, 40.803684520592427 ], [ -73.874691084003544, 40.803684601360345 ], [ -73.874691255778629, 40.803684700386739 ], [ -73.874850944297833, 40.803777569914871 ], [ -73.874851149958587, 40.803777704158058 ], [ -73.874851357603845, 40.803777838235895 ], [ -73.874992932678438, 40.803883802754449 ], [ -73.874993092941921, 40.803883927566773 ], [ -73.874993230700483, 40.803884061736071 ], [ -73.875114427816854, 40.804000247313859 ], [ -73.875114484818354, 40.804000299978433 ], [ -73.875114530116392, 40.804000362681812 ], [ -73.875214040575557, 40.804123576951966 ], [ -73.876615646369331, 40.805459041318052 ], [ -73.876739141693434, 40.80555054651014 ], [ -73.876741272823622, 40.805551817957081 ], [ -73.876760722405308, 40.80556338422884 ], [ -73.876877455903525, 40.805632819856605 ], [ -73.876882700513278, 40.805635284220067 ], [ -73.876886324749194, 40.805636990310603 ], [ -73.877028697245592, 40.805703896230305 ], [ -73.87719037874092, 40.805762123481799 ], [ -73.877359599801764, 40.805806311400858 ], [ -73.877533163272005, 40.805835751948777 ], [ -73.877707761332204, 40.805850319136674 ], [ -73.877880251190959, 40.805850420736924 ], [ -73.879216313296823, 40.805658832814672 ], [ -73.879295214453109, 40.805647516058841 ], [ -73.87930615861687, 40.805729202412664 ], [ -73.879794361521107, 40.807538769455668 ], [ -73.880257670047499, 40.809261834932656 ], [ -73.880296873879786, 40.809407629375322 ], [ -73.880719174028712, 40.811045813182041 ], [ -73.881208019861759, 40.812917417864746 ], [ -73.881803159209511, 40.815212192130815 ], [ -73.882082693403035, 40.816255146220733 ], [ -73.882112649083169, 40.816366893110974 ], [ -73.883380733555867, 40.817351435910254 ], [ -73.883033903840399, 40.817405352656827 ], [ -73.883032864518754, 40.817405514101289 ], [ -73.882623324859566, 40.81746950456423 ], [ -73.881754514571398, 40.817617314794362 ], [ -73.881272918185402, 40.818002395653515 ], [ -73.880980295932673, 40.818235623127428 ], [ -73.878062832621268, 40.81618263244426 ], [ -73.876634599637086, 40.815711508099341 ] ] ] ] } },
{ "type": "Feature", "properties": { "shape_area": "555873.816231", "ntaname": "Longwood", "cdtaname": "BX02 Longwood-Hunts Point (CD 2 Approximation)", "shape_leng": "3867.35701222", "boroname": "Bronx", "ct2020": "012102", "nta2020": "BX0202", "borocode": "2", "cdeligibil": "E", "geoid": "36005012102", "boroct2020": "2012102", "cdta2020": "BX02", "ctlabel": "121.02" }, "geometry": { "type": "MultiPolygon", "coordinates": [ [ [ [ -73.886454261412908, 40.825286311678475 ], [ -73.887773975672005, 40.825226551196884 ], [ -73.888116649450993, 40.825210034921547 ], [ -73.888216638073231, 40.825205215052627 ], [ -73.888306180651483, 40.825200898106452 ], [ -73.888398217225443, 40.825196461211704 ], [ -73.888560756253653, 40.825188626319893 ], [ -73.888711049513418, 40.825181380458645 ], [ -73.88878446772118, 40.825177805291041 ], [ -73.8888561393684, 40.825174313328183 ], [ -73.889313173744497, 40.825152049695411 ], [ -73.889385439944533, 40.825148528992578 ], [ -73.889540503914873, 40.825140975366409 ], [ -73.889649499330872, 40.825135663827524 ], [ -73.889889046070465, 40.825126615148463 ], [ -73.889952101030786, 40.825124233171117 ], [ -73.89001884311169, 40.82512171177769 ], [ -73.890084788788073, 40.825119220410997 ], [ -73.890323712140273, 40.825110194358402 ], [ -73.89039598135102, 40.825107462902224 ], [ -73.890470780682222, 40.825104636639871 ], [ -73.890585255504064, 40.825077644072238 ], [ -73.891161408029717, 40.825055617750351 ], [ -73.890679200421687, 40.825298352432725 ], [ -73.889710811843173, 40.825799640626819 ], [ -73.888805806255107, 40.826257583463402 ], [ -73.887895109675839, 40.82674318529736 ], [ -73.886399572280666, 40.827503379739518 ], [ -73.886096242333238, 40.827655777358778 ], [ -73.886150379462649, 40.827305677871891 ], [ -73.886350325252991, 40.82601262304955 ], [ -73.886454261412908, 40.825286311678475 ] ] ] ] } },
{ "type": "Feature", "properties": { "shape_area": "1682640.19716", "ntaname": "Longwood", "cdtaname": "BX02 Longwood-Hunts Point (CD 2 Approximation)", "shape_leng": "7111.85718774", "boroname": "Bronx", "ct2020": "012901", "nta2020": "BX0202", "borocode": "2", "cdeligibil": "E", "geoid": "36005012901", "boroct2020": "2012901", "cdta2020": "BX02", "ctlabel": "129.01" }, "geometry": { "type": "MultiPolygon", "coordinates": [ [ [ [ -73.894870885348396, 40.823937272658547 ], [ -73.893897022921422, 40.823983998810974 ], [ -73.893200049675727, 40.824008182505708 ], [ -73.893901644265455, 40.82364312056982 ], [ -73.89413309159869, 40.823523047142899 ], [ -73.894882287980295, 40.823134355746213 ], [ -73.895860195678239, 40.822631045899499 ], [ -73.896878370546887, 40.822117858703855 ], [ -73.897863219548313, 40.821597752916226 ], [ -73.898933390424531, 40.821068167962082 ], [ -73.899487927990691, 40.820765602743798 ], [ -73.899607332654838, 40.820700452666138 ], [ -73.899859948968995, 40.820562618496417 ], [ -73.900645728405038, 40.820163279970387 ], [ -73.900851768598287, 40.820058566775614 ], [ -73.901601212473125, 40.819694859260757 ], [ -73.901292776270324, 40.820475442614352 ], [ -73.900845612321433, 40.821541418117249 ], [ -73.900611410808281, 40.822108807929723 ], [ -73.901987585974297, 40.822440423105796 ], [ -73.901846837734226, 40.822778633343404 ], [ -73.901816873514235, 40.822850635251896 ], [ -73.901176690569713, 40.824388909167247 ], [ -73.899799199078686, 40.824057942013695 ], [ -73.898874540174788, 40.823850452066281 ], [ -73.898121447650695, 40.823855768284545 ], [ -73.89752503408225, 40.823853163687268 ], [ -73.897442338111304, 40.823855029597595 ], [ -73.897001651939163, 40.823830509129706 ], [ -73.896860326958034, 40.823847587222417 ], [ -73.895847719049982, 40.823892297123429 ], [ -73.894870885348396, 40.823937272658547 ] ] ] ] } },
{ "type": "Feature", "properties": { "shape_area": "1172792.89169", "ntaname": "Longwood", "cdtaname": "BX02 Longwood-Hunts Point (CD 2 Approximation)", "shape_leng": "5036.14137518", "boroname": "Bronx", "ct2020": "012701", "nta2020": "BX0202", "borocode": "2", "cdeligibil": "E", "geoid": "36005012701", "boroct2020": "2012701", "cdta2020": "BX02", "ctlabel": "127.01" }, "geometry": { "type": "MultiPolygon", "coordinates": [ [ [ [ -73.887895109675839, 40.82674318529736 ], [ -73.888805806255107, 40.826257583463402 ], [ -73.889710811843173, 40.825799640626819 ], [ -73.890679200421687, 40.825298352432725 ], [ -73.891161408029717, 40.825055617750351 ], [ -73.891309703593379, 40.824980969084017 ], [ -73.891930014295284, 40.824656410056505 ], [ -73.892313842816762, 40.824461224385992 ], [ -73.892946869450725, 40.824139311591701 ], [ -73.893200049675727, 40.824008182505708 ], [ -73.893897022921422, 40.823983998810974 ], [ -73.894870885348396, 40.823937272658547 ], [ -73.894835229239746, 40.826246841714983 ], [ -73.893867190204872, 40.826514968955607 ], [ -73.892932261010628, 40.826787036532536 ], [ -73.891912719246534, 40.826794450251448 ], [ -73.890905599965407, 40.826787784622006 ], [ -73.889979425539991, 40.826809992741595 ], [ -73.889835992361839, 40.826804734258005 ], [ -73.889805641723228, 40.826803621545743 ], [ -73.889690050274538, 40.826799384073219 ], [ -73.889638953161523, 40.826797510510133 ], [ -73.888850461375142, 40.826768595243557 ], [ -73.887895109675839, 40.82674318529736 ] ] ] ] } },
{ "type": "Feature", "properties": { "shape_area": "2404622.80327", "ntaname": "Hunts Point", "cdtaname": "BX02 Longwood-Hunts Point (CD 2 Approximation)", "shape_leng": "7838.28962372", "boroname": "Bronx", "ct2020": "011701", "nta2020": "BX0201", "borocode": "2", "cdeligibil": "I", "geoid": "36005011701", "boroct2020": "2011701", "cdta2020": "BX02", "ctlabel": "117.01" }, "geometry": { "type": "MultiPolygon", "coordinates": [ [ [ [ -73.880296873879786, 40.809407629375322 ], [ -73.880363626162918, 40.8093984781027 ], [ -73.880617928039129, 40.809490214076376 ], [ -73.881212126342305, 40.810059267561606 ], [ -73.881564060087882, 40.810459824237505 ], [ -73.881621989000706, 40.810536684932785 ], [ -73.881781645211404, 40.81077266339679 ], [ -73.881824185380822, 40.810862271242215 ], [ -73.882010963857965, 40.81083179463436 ], [ -73.882092461561101, 40.810922065266588 ], [ -73.882840160564058, 40.811636913708291 ], [ -73.883765111597327, 40.812535592641858 ], [ -73.884173717511601, 40.812949511800227 ], [ -73.885400295013469, 40.81410644611946 ], [ -73.885874400753337, 40.814595912966979 ], [ -73.886036184413584, 40.814752084114943 ], [ -73.886153094890773, 40.814859709853238 ], [ -73.88645182082908, 40.815134542030044 ], [ -73.887007877000258, 40.815665436222616 ], [ -73.887759396368537, 40.816382688137338 ], [ -73.887911804893406, 40.816525531785452 ], [ -73.887966557180164, 40.816602422301621 ], [ -73.887996436146693, 40.816663385863336 ], [ -73.887944898833496, 40.816670524768305 ], [ -73.88707381379875, 40.816791202398903 ], [ -73.886161940967369, 40.81692995498404 ], [ -73.885329997794372, 40.817056381890431 ], [ -73.885239704003652, 40.817070102944953 ], [ -73.884319301193401, 40.817209931429261 ], [ -73.883380733555867, 40.817351435910254 ], [ -73.882112649083169, 40.816366893110974 ], [ -73.882082693403035, 40.816255146220733 ], [ -73.881803159209511, 40.815212192130815 ], [ -73.881208019861759, 40.812917417864746 ], [ -73.880719174028712, 40.811045813182041 ], [ -73.880296873879786, 40.809407629375322 ] ] ] ] } },
{ "type": "Feature", "properties": { "shape_area": "1966131.62433", "ntaname": "Longwood", "cdtaname": "BX02 Longwood-Hunts Point (CD 2 Approximation)", "shape_leng": "6463.49930631", "boroname": "Bronx", "ct2020": "008500", "nta2020": "BX0202", "borocode": "2", "cdeligibil": "E", "geoid": "36005008500", "boroct2020": "2008500", "cdta2020": "BX02", "ctlabel": "85" }, "geometry": { "type": "MultiPolygon", "coordinates": [ [ [ [ -73.897044666559438, 40.816801859686272 ], [ -73.896213521176847, 40.816318971299289 ], [ -73.895800715229967, 40.816065648679746 ], [ -73.895428588386636, 40.815844672428881 ], [ -73.895872312382977, 40.815412700727308 ], [ -73.896850731648584, 40.814460168492097 ], [ -73.897083417029236, 40.814224346708542 ], [ -73.897330490726063, 40.81399633620039 ], [ -73.897591237796732, 40.813776873349163 ], [ -73.897757795473836, 40.813648916796474 ], [ -73.897864865753263, 40.813566670010623 ], [ -73.898150517221467, 40.813366354726519 ], [ -73.898447234835714, 40.813176502682261 ], [ -73.899340660912486, 40.813489507766768 ], [ -73.899521113849758, 40.813862363972191 ], [ -73.899566263833464, 40.813955653519329 ], [ -73.899727928027602, 40.814289684262313 ], [ -73.90012021642103, 40.815083264902896 ], [ -73.90050630021949, 40.815878864785461 ], [ -73.900922816401106, 40.816724456613841 ], [ -73.90072129284394, 40.816764184421693 ], [ -73.901535032335048, 40.817156256432121 ], [ -73.902578590742195, 40.817369794431038 ], [ -73.902107433069617, 40.818505192100737 ], [ -73.901831951899339, 40.819153364560258 ], [ -73.901663194094482, 40.819550426855081 ], [ -73.90002347464123, 40.81859470549324 ], [ -73.89981831998557, 40.818470004999583 ], [ -73.899285298720159, 40.818146750013589 ], [ -73.898520492328657, 40.817685746329801 ], [ -73.897785734263621, 40.817246209314874 ], [ -73.897044666559438, 40.816801859686272 ] ] ] ] } },
{ "type": "Feature", "properties": { "shape_area": "1176469.8107", "ntaname": "Hunts Point", "cdtaname": "BX02 Longwood-Hunts Point (CD 2 Approximation)", "shape_leng": "5228.09559029", "boroname": "Bronx", "ct2020": "008900", "nta2020": "BX0201", "borocode": "2", "cdeligibil": "E", "geoid": "36005008900", "boroct2020": "2008900", "cdta2020": "BX02", "ctlabel": "89" }, "geometry": { "type": "MultiPolygon", "coordinates": [ [ [ [ -73.890823779300632, 40.820306482436848 ], [ -73.890885445668843, 40.820246549475947 ], [ -73.891113266211946, 40.820025108415521 ], [ -73.891336335271561, 40.819808280064052 ], [ -73.892277192193873, 40.818893753550469 ], [ -73.892390166458554, 40.818783990137412 ], [ -73.893053380237362, 40.818139614212129 ], [ -73.893322766024639, 40.817877875750135 ], [ -73.894031872273658, 40.81719413782222 ], [ -73.894543738488693, 40.816700572670797 ], [ -73.894902373096045, 40.816354748414902 ], [ -73.89513979098011, 40.816125815495411 ], [ -73.895218062636431, 40.816049617931135 ], [ -73.895362151914682, 40.815909347485942 ], [ -73.895428588386636, 40.815844672428881 ], [ -73.895800715229967, 40.816065648679746 ], [ -73.896213521176847, 40.816318971299289 ], [ -73.897044666559438, 40.816801859686272 ], [ -73.89567610770024, 40.818129368254183 ], [ -73.894930761556964, 40.818846720902123 ], [ -73.89389462388759, 40.819860289856784 ], [ -73.892901561985198, 40.820811223693397 ], [ -73.892836530795947, 40.820974054113485 ], [ -73.8916185874387, 40.821012849230392 ], [ -73.89132700775555, 40.820738190100755 ], [ -73.890823779300632, 40.820306482436848 ] ] ] ] } },
{ "type": "Feature", "properties": { "shape_area": "1111236.25475", "ntaname": "Longwood", "cdtaname": "BX02 Longwood-Hunts Point (CD 2 Approximation)", "shape_leng": "4422.10210888", "boroname": "Bronx", "ct2020": "015900", "nta2020": "BX0202", "borocode": "2", "cdeligibil": "E", "geoid": "36005015900", "boroct2020": "2015900", "cdta2020": "BX02", "ctlabel": "159" }, "geometry": { "type": "MultiPolygon", "coordinates": [ [ [ [ -73.8916185874387, 40.821012849230392 ], [ -73.892836530795947, 40.820974054113485 ], [ -73.893873803365807, 40.820979335244921 ], [ -73.89490478842346, 40.820987520092302 ], [ -73.895881358728744, 40.820992574705294 ], [ -73.895860195678239, 40.822631045899499 ], [ -73.894882287980295, 40.823134355746213 ], [ -73.89413309159869, 40.823523047142899 ], [ -73.893901644265455, 40.82364312056982 ], [ -73.893200049675727, 40.824008182505708 ], [ -73.892946869450725, 40.824139311591701 ], [ -73.892313842816762, 40.824461224385992 ], [ -73.891930014295284, 40.824656410056505 ], [ -73.89179119353274, 40.823078636541197 ], [ -73.891710675391622, 40.821719685117408 ], [ -73.8916185874387, 40.821012849230392 ] ] ] ] } },
{ "type": "Feature", "properties": { "shape_area": "2477129.60195", "ntaname": "Longwood", "cdtaname": "BX02 Longwood-Hunts Point (CD 2 Approximation)", "shape_leng": "6532.97190994", "boroname": "Bronx", "ct2020": "013100", "nta2020": "BX0202", "borocode": "2", "cdeligibil": "E", "geoid": "36005013100", "boroct2020": "2013100", "cdta2020": "BX02", "ctlabel": "131" }, "geometry": { "type": "MultiPolygon", "coordinates": [ [ [ [ -73.894835229239746, 40.826246841714983 ], [ -73.894870885348396, 40.823937272658547 ], [ -73.895847719049982, 40.823892297123429 ], [ -73.896860326958034, 40.823847587222417 ], [ -73.897001651939163, 40.823830509129706 ], [ -73.897442338111304, 40.823855029597595 ], [ -73.89752503408225, 40.823853163687268 ], [ -73.898121447650695, 40.823855768284545 ], [ -73.898874540174788, 40.823850452066281 ], [ -73.899799199078686, 40.824057942013695 ], [ -73.901176690569713, 40.824388909167247 ], [ -73.900505404041525, 40.826007622429636 ], [ -73.90164895560514, 40.826256978347246 ], [ -73.900935107008564, 40.827928101757365 ], [ -73.899797567567646, 40.827684354294689 ], [ -73.899409947634325, 40.827734183632757 ], [ -73.899325669455095, 40.827745017589081 ], [ -73.898204693279766, 40.827889109985016 ], [ -73.897012194182409, 40.828048319564637 ], [ -73.895766686225045, 40.828211803937229 ], [ -73.895485227645921, 40.828248541385108 ], [ -73.895291565001557, 40.828142349868067 ], [ -73.895110208607406, 40.828036899455086 ], [ -73.895152778599851, 40.827834290178345 ], [ -73.894835229239746, 40.826246841714983 ] ] ] ] } },
{ "type": "Feature", "properties": { "shape_area": "1804865.4744", "ntaname": "Longwood", "cdtaname": "BX02 Longwood-Hunts Point (CD 2 Approximation)", "shape_leng": "5517.23332434", "boroname": "Bronx", "ct2020": "011900", "nta2020": "BX0202", "borocode": "2", "cdeligibil": "E", "geoid": "36005011900", "boroct2020": "2011900", "cdta2020": "BX02", "ctlabel": "119" }, "geometry": { "type": "MultiPolygon", "coordinates": [ [ [ [ -73.88788746200774, 40.822363013788483 ], [ -73.888338362730792, 40.821999684356747 ], [ -73.888420262568175, 40.821920609707711 ], [ -73.888640053437712, 40.821766791886986 ], [ -73.889223810958626, 40.821465895546467 ], [ -73.89011271890439, 40.820900946342149 ], [ -73.890741212859979, 40.820417772955345 ], [ -73.890823779300632, 40.820306482436848 ], [ -73.89132700775555, 40.820738190100755 ], [ -73.8916185874387, 40.821012849230392 ], [ -73.891710675391622, 40.821719685117408 ], [ -73.89179119353274, 40.823078636541197 ], [ -73.891930014295284, 40.824656410056505 ], [ -73.891309703593379, 40.824980969084017 ], [ -73.891161408029717, 40.825055617750351 ], [ -73.890585255504064, 40.825077644072238 ], [ -73.890470780682222, 40.825104636639871 ], [ -73.89039598135102, 40.825107462902224 ], [ -73.890323712140273, 40.825110194358402 ], [ -73.890084788788073, 40.825119220410997 ], [ -73.89001884311169, 40.82512171177769 ], [ -73.889952101030786, 40.825124233171117 ], [ -73.889889046070465, 40.825126615148463 ], [ -73.889649499330872, 40.825135663827524 ], [ -73.889540503914873, 40.825140975366409 ], [ -73.889385439944533, 40.825148528992578 ], [ -73.889313173744497, 40.825152049695411 ], [ -73.8888561393684, 40.825174313328183 ], [ -73.88878446772118, 40.825177805291041 ], [ -73.888711049513418, 40.825181380458645 ], [ -73.888560756253653, 40.825188626319893 ], [ -73.888398217225443, 40.825196461211704 ], [ -73.888306180651483, 40.825200898106452 ], [ -73.888216638073231, 40.825205215052627 ], [ -73.888116649450993, 40.825210034921547 ], [ -73.887773975672005, 40.825226551196884 ], [ -73.886454261412908, 40.825286311678475 ], [ -73.886794130778782, 40.824121851175754 ], [ -73.886828453033303, 40.823982296129834 ], [ -73.8868699999271, 40.823843878976689 ], [ -73.886918706659344, 40.823706815456831 ], [ -73.886974497585413, 40.823571319522671 ], [ -73.887037285379463, 40.823437602046688 ], [ -73.887106972138724, 40.823305871440773 ], [ -73.887066603659335, 40.823190276466768 ], [ -73.887331609173913, 40.822796121224862 ], [ -73.887478506513304, 40.822641928489887 ], [ -73.88757287240621, 40.822607034243802 ], [ -73.88788746200774, 40.822363013788483 ] ] ] ] } },
{ "type": "Feature", "properties": { "shape_area": "19083192.5642", "ntaname": "Hunts Point", "cdtaname": "BX02 Longwood-Hunts Point (CD 2 Approximation)", "shape_leng": "32162.9617591", "boroname": "Bronx", "ct2020": "009302", "nta2020": "BX0201", "borocode": "2", "cdeligibil": "I", "geoid": "36005009302", "boroct2020": "2009302", "cdta2020": "BX02", "ctlabel": "93.02" }, "geometry": { "type": "MultiPolygon", "coordinates": [ [ [ [ -73.882010963857965, 40.81083179463436 ], [ -73.881824185380822, 40.810862271242215 ], [ -73.881781645211404, 40.81077266339679 ], [ -73.881621989000706, 40.810536684932785 ], [ -73.881564060087882, 40.810459824237505 ], [ -73.881212126342305, 40.810059267561606 ], [ -73.880617928039129, 40.809490214076376 ], [ -73.880363626162918, 40.8093984781027 ], [ -73.880296873879786, 40.809407629375322 ], [ -73.880257670047499, 40.809261834932656 ], [ -73.879794361521107, 40.807538769455668 ], [ -73.87930615861687, 40.805729202412664 ], [ -73.879295214453109, 40.805647516058841 ], [ -73.879216313296823, 40.805658832814672 ], [ -73.877880251190959, 40.805850420736924 ], [ -73.877707761332204, 40.805850319136674 ], [ -73.877533163272005, 40.805835751948777 ], [ -73.877359599801764, 40.805806311400858 ], [ -73.87719037874092, 40.805762123481799 ], [ -73.877028697245592, 40.805703896230305 ], [ -73.876886324749194, 40.805636990310603 ], [ -73.876882700513278, 40.805635284220067 ], [ -73.876877455903525, 40.805632819856605 ], [ -73.876760722405308, 40.80556338422884 ], [ -73.876741272823622, 40.805551817957081 ], [ -73.876739141693434, 40.80555054651014 ], [ -73.876615646369331, 40.805459041318052 ], [ -73.875214040575557, 40.804123576951966 ], [ -73.875114530116392, 40.804000362681812 ], [ -73.875114484818354, 40.804000299978433 ], [ -73.875114427816854, 40.804000247313859 ], [ -73.874993230700483, 40.803884061736071 ], [ -73.874993092941921, 40.803883927566773 ], [ -73.874992932678438, 40.803883802754449 ], [ -73.874851357603845, 40.803777838235895 ], [ -73.874851149958587, 40.803777704158058 ], [ -73.874850944297833, 40.803777569914871 ], [ -73.874691255778629, 40.803684700386739 ], [ -73.874691084003544, 40.803684601360345 ], [ -73.874690910650855, 40.803684520592427 ], [ -73.874516429192141, 40.803607251076542 ], [ -73.874516245257965, 40.803607170129318 ], [ -73.874516036599758, 40.803607106242715 ], [ -73.874330926949597, 40.803547277118199 ], [ -73.874330753531595, 40.803547231362373 ], [ -73.874330579671707, 40.803547186108659 ], [ -73.874139289247523, 40.8035057741603 ], [ -73.874139162091708, 40.803505747049961 ], [ -73.874139022796825, 40.803505727129924 ], [ -73.873946256328637, 40.803482858760248 ], [ -73.87394607139818, 40.803482838790082 ], [ -73.8739458727635, 40.803482837567721 ], [ -73.873804193102615, 40.80347906602875 ], [ -73.87373590658143, 40.803480427278203 ], [ -73.87373413836707, 40.803418652034956 ], [ -73.873704076909277, 40.803036176785767 ], [ -73.873689588868629, 40.802980332568843 ], [ -73.87366854462671, 40.802925706005112 ], [ -73.87364111504975, 40.802872740587354 ], [ -73.873607522842661, 40.802821866321018 ], [ -73.873568040740551, 40.802773496233456 ], [ -73.873522989294074, 40.802728023020642 ], [ -73.87331074655917, 40.802615482244761 ], [ -73.871916731119114, 40.802046695253217 ], [ -73.871756459429591, 40.80197724230726 ], [ -73.871611425925707, 40.801914396207167 ], [ -73.871698819308065, 40.801805271920621 ], [ -73.87160336192531, 40.801751811446643 ], [ -73.871745093739193, 40.801547366116331 ], [ -73.872380604536986, 40.801290114632899 ], [ -73.872438646848479, 40.801270612796472 ], [ -73.872647653318765, 40.801190115948437 ], [ -73.872705037586002, 40.801167176810758 ], [ -73.873172233271987, 40.800997839706149 ], [ -73.873550965725059, 40.800853302772026 ], [ -73.874677163140589, 40.800979422864366 ], [ -73.874730604526988, 40.801256637628775 ], [ -73.875265170373225, 40.801398152548636 ], [ -73.875857885813303, 40.801455987586579 ], [ -73.875929980716066, 40.801084223091316 ], [ -73.878142188199234, 40.801319290306644 ], [ -73.878076854865441, 40.801666644035215 ], [ -73.877986295094004, 40.801656715507093 ], [ -73.877968803753745, 40.801711115128342 ], [ -73.878033002364702, 40.802059906860983 ], [ -73.878062948534193, 40.802194319345183 ], [ -73.878114388942947, 40.802368084879419 ], [ -73.878165811400621, 40.802551684247689 ], [ -73.878234649218001, 40.802646805768369 ], [ -73.878432955135395, 40.802702734192493 ], [ -73.878743441665549, 40.802739114243103 ], [ -73.878924538354795, 40.802772080508362 ], [ -73.879213484076857, 40.802795326835266 ], [ -73.879342921845364, 40.802772519178795 ], [ -73.879509959610445, 40.802769490815344 ], [ -73.879627648365314, 40.802743318719628 ], [ -73.879743008203803, 40.802743439121173 ], [ -73.879757045768372, 40.802743453764371 ], [ -73.879916606034527, 40.802760007711321 ], [ -73.880054629848786, 40.802760151407789 ], [ -73.880171151187938, 40.802724219551038 ], [ -73.880278987965255, 40.802721053803239 ], [ -73.880418365100653, 40.802667940286696 ], [ -73.88056943638324, 40.80263284747938 ], [ -73.880771498084954, 40.802587426709486 ], [ -73.880920305452619, 40.802558543427494 ], [ -73.881069103116801, 40.802535882321664 ], [ -73.881179656672302, 40.802529773446309 ], [ -73.88132025761243, 40.802511251987042 ], [ -73.88143082957599, 40.802494772761904 ], [ -73.88153320765754, 40.802481396450752 ], [ -73.881709319577581, 40.802447354975918 ], [ -73.881821254798609, 40.802431914257106 ], [ -73.881938639332404, 40.802421663907147 ], [ -73.88203490143367, 40.802407793389058 ], [ -73.882060131274017, 40.802404158282478 ], [ -73.882065392581808, 40.80240288628768 ], [ -73.882192567065829, 40.802372145334317 ], [ -73.882320887986651, 40.80235153497312 ], [ -73.88237010115644, 40.802353847458363 ], [ -73.88239465208332, 40.802354999950758 ], [ -73.88244775081948, 40.802351212093612 ], [ -73.882430217740406, 40.802265572390169 ], [ -73.882518949120509, 40.802252181284565 ], [ -73.882541134021992, 40.802335681563051 ], [ -73.882595269442973, 40.802325706323508 ], [ -73.882760284008043, 40.802306208851334 ], [ -73.88288323972418, 40.802289127183478 ], [ -73.882970590687023, 40.802284299542329 ], [ -73.883070916428053, 40.802259819580506 ], [ -73.883203603313916, 40.80222799770911 ], [ -73.883540118493229, 40.802179174631959 ], [ -73.883695424224769, 40.802162123603068 ], [ -73.883809410281998, 40.802122195736771 ], [ -73.883838499931102, 40.802107184498041 ], [ -73.883851826901065, 40.802095531658111 ], [ -73.883877450714294, 40.802075334868725 ], [ -73.88389999312497, 40.802061357348677 ], [ -73.883915367721229, 40.802048927572692 ], [ -73.883937916674967, 40.802031061295544 ], [ -73.883964625196128, 40.801965148862408 ], [ -73.883783539701312, 40.801929015924912 ], [ -73.883777379631667, 40.801939899170108 ], [ -73.883738457370853, 40.801956193769954 ], [ -73.883690369965407, 40.801945255805308 ], [ -73.883668930889598, 40.801913345465572 ], [ -73.883680247162445, 40.801880690192711 ], [ -73.883723266659231, 40.801862843941215 ], [ -73.883774424095378, 40.801873784987706 ], [ -73.883792790406631, 40.801907248014501 ], [ -73.883784579578943, 40.801919683824138 ], [ -73.883967747078572, 40.80195744535537 ], [ -73.88398945322632, 40.801903879661367 ], [ -73.885051723367084, 40.80213090679819 ], [ -73.88514576973337, 40.80225958948747 ], [ -73.885267145052609, 40.802284394817129 ], [ -73.885272622139752, 40.802274028967979 ], [ -73.885310870586764, 40.802253326772764 ], [ -73.885365445988697, 40.802260639744844 ], [ -73.88539676408837, 40.802302153070251 ], [ -73.885380331973181, 40.80233428526747 ], [ -73.885331168859551, 40.802352902670314 ], [ -73.885283421059412, 40.802342485539107 ], [ -73.885257551695048, 40.802308236964173 ], [ -73.885261665051402, 40.802296833951537 ], [ -73.885155171266732, 40.802272453544049 ], [ -73.885255536702516, 40.802409781025609 ], [ -73.885599781122707, 40.802565497333561 ], [ -73.885780738809885, 40.802680392136793 ], [ -73.885914246725292, 40.802798517495745 ], [ -73.88600887424704, 40.802952656788655 ], [ -73.886077712466204, 40.803054329695179 ], [ -73.886099726644787, 40.803085372871465 ], [ -73.886163770565631, 40.803175684976999 ], [ -73.886275764543782, 40.803264289368656 ], [ -73.886424355529456, 40.80334516275601 ], [ -73.886486918235562, 40.803379212832624 ], [ -73.886723892487211, 40.803530214982544 ], [ -73.886848798252558, 40.803635219116885 ], [ -73.887085735316845, 40.803809163680405 ], [ -73.887270973471189, 40.803947002336848 ], [ -73.887380956242168, 40.804110681284065 ], [ -73.887247384583347, 40.804186140616977 ], [ -73.887335526332251, 40.804293189910766 ], [ -73.887402346831792, 40.804374342589547 ], [ -73.88752886022138, 40.804401726740551 ], [ -73.887711246004486, 40.804614781220295 ], [ -73.887631295376465, 40.804671325376084 ], [ -73.887958972239545, 40.804997925920837 ], [ -73.888592177064027, 40.804789275097988 ], [ -73.888760537140016, 40.804863178598112 ], [ -73.888893642190183, 40.804956227461929 ], [ -73.889064420260723, 40.805021912402168 ], [ -73.88915674193909, 40.805128026168475 ], [ -73.889274187757096, 40.805210337606091 ], [ -73.889366403769358, 40.80538078029835 ], [ -73.889337838054246, 40.805588036875051 ], [ -73.889223230048302, 40.805684420931989 ], [ -73.88919794140908, 40.805807099679448 ], [ -73.889224160911539, 40.805845351192175 ], [ -73.889556343016437, 40.805431606518916 ], [ -73.889556645019454, 40.805431231887674 ], [ -73.889974340349752, 40.804913130383248 ], [ -73.889995981708523, 40.804886286250351 ], [ -73.890147562438628, 40.804960609786804 ], [ -73.889374392536951, 40.805925273115449 ], [ -73.88954478026055, 40.805807076192963 ], [ -73.889658749635288, 40.80584774526973 ], [ -73.889753329872605, 40.805875490586395 ], [ -73.88981346825868, 40.805877391357818 ], [ -73.889813983497845, 40.805877391850274 ], [ -73.889850412741566, 40.805857146444545 ], [ -73.889872292585082, 40.805831356465049 ], [ -73.889899057622671, 40.80578529092795 ], [ -73.889928233648632, 40.805748446744573 ], [ -73.889960890700081, 40.80571476991765 ], [ -73.8899913911536, 40.805704259873202 ], [ -73.890059326924288, 40.805704324681471 ], [ -73.890135940812044, 40.805714690947639 ], [ -73.890232956891921, 40.805736907528434 ], [ -73.89033596715241, 40.805766636014063 ], [ -73.890352597698723, 40.805771435839119 ], [ -73.890436673225381, 40.805793638766659 ], [ -73.890514225884075, 40.805847792973907 ], [ -73.890582130797128, 40.805867522847251 ], [ -73.890721226188717, 40.805875028722802 ], [ -73.890863541771836, 40.805892371352954 ], [ -73.891012343236213, 40.805899886065376 ], [ -73.891271129840462, 40.805912421894398 ], [ -73.891497171867343, 40.805927198969549 ], [ -73.891499037300775, 40.805931238240682 ], [ -73.891441042772101, 40.805661899067516 ], [ -73.891786181356039, 40.805622892086355 ], [ -73.891979295342736, 40.806384708976395 ], [ -73.892454946360559, 40.806370106605463 ], [ -73.89270641330674, 40.806343989939521 ], [ -73.892706810664308, 40.806343948595647 ], [ -73.892531771394246, 40.805656551568511 ], [ -73.89227315843533, 40.805702433124985 ], [ -73.89216364547643, 40.80530259256561 ], [ -73.891813120095136, 40.805186955466247 ], [ -73.89180973582809, 40.805193784957794 ], [ -73.891676041840185, 40.805150953142721 ], [ -73.891686993125219, 40.805130110109467 ], [ -73.891564176085765, 40.805093939956414 ], [ -73.891560049664747, 40.805099980538337 ], [ -73.891499979381393, 40.805081588089259 ], [ -73.891507513958729, 40.805070311042854 ], [ -73.891303729990256, 40.805006788325841 ], [ -73.891298569737728, 40.805016498225264 ], [ -73.891267106228895, 40.805010489424305 ], [ -73.891284024139225, 40.804976281899343 ], [ -73.891313769173792, 40.804984938313304 ], [ -73.891311187900996, 40.804989821406387 ], [ -73.891464888608766, 40.80504398694363 ], [ -73.891506456657609, 40.805057693082674 ], [ -73.89169561834656, 40.805115843422335 ], [ -73.891732409956148, 40.805049363420487 ], [ -73.891866108093907, 40.80509048742681 ], [ -73.891828889975528, 40.805166472094264 ], [ -73.892197396715616, 40.805284687919553 ], [ -73.892300203275781, 40.805660605670347 ], [ -73.892337305077845, 40.805656370118548 ], [ -73.89233507004721, 40.805648679479908 ], [ -73.892398035090054, 40.805638488931976 ], [ -73.8924002723912, 40.805645324859952 ], [ -73.892566677384124, 40.805620710004824 ], [ -73.892748140374039, 40.806340261302182 ], [ -73.892897709018655, 40.806326918796501 ], [ -73.893046543945147, 40.806314765512248 ], [ -73.893156541705352, 40.806312409921262 ], [ -73.893305164891515, 40.806343998338114 ], [ -73.893376551191551, 40.806297864564463 ], [ -73.893454201268185, 40.80629302000564 ], [ -73.893548046559246, 40.806275898888686 ], [ -73.893622454421418, 40.806275967572766 ], [ -73.893719543134708, 40.806253934131597 ], [ -73.893836022272353, 40.806244208755928 ], [ -73.893952480912574, 40.806246773532692 ], [ -73.894036586074108, 40.806251767219671 ], [ -73.894104495030433, 40.806269037430631 ], [ -73.894220963742313, 40.806266685595268 ], [ -73.894525101421749, 40.806242382508749 ], [ -73.894628639183438, 40.80623264499382 ], [ -73.89463252351014, 40.806232332424841 ], [ -73.894573939134162, 40.806045773007376 ], [ -73.894726019096197, 40.806026246583677 ], [ -73.89477679721044, 40.806213633742814 ], [ -73.894803373713444, 40.806208222822832 ], [ -73.894853605358762, 40.806214908158886 ], [ -73.894729705266798, 40.805741101461834 ], [ -73.894842959836325, 40.805723997012322 ], [ -73.894969095287195, 40.806231130494105 ], [ -73.895098364873178, 40.806863639676301 ], [ -73.895285505642278, 40.80684271107156 ], [ -73.895372690578213, 40.806703517335016 ], [ -73.89545911867944, 40.806603083889648 ], [ -73.895506339685667, 40.806595305303816 ], [ -73.895417948779581, 40.806267777688475 ], [ -73.895392210997812, 40.80617680177734 ], [ -73.895302061429149, 40.805901404161901 ], [ -73.895311816358642, 40.805869456157446 ], [ -73.895279628740099, 40.805766184068077 ], [ -73.895311974875284, 40.80576867103516 ], [ -73.89534416707076, 40.805869485530728 ], [ -73.895405490610315, 40.80596049374936 ], [ -73.895466556982043, 40.806216200015577 ], [ -73.895511639171858, 40.806348983005059 ], [ -73.895591090918231, 40.806581343347652 ], [ -73.895722737787651, 40.806559657308412 ], [ -73.89569912530925, 40.806445021689861 ], [ -73.895670251387585, 40.806290130457107 ], [ -73.895747908988582, 40.806280368010349 ], [ -73.895831748878251, 40.806454974302675 ], [ -73.895838380731007, 40.806540607572096 ], [ -73.895977946877494, 40.80651761583978 ], [ -73.89594184174581, 40.806391161180557 ], [ -73.895935533631913, 40.806287911468239 ], [ -73.89587766345042, 40.806056790595228 ], [ -73.895790669580833, 40.805830559209262 ], [ -73.895874815993196, 40.805808511582576 ], [ -73.895948888355051, 40.806022440452068 ], [ -73.896013205891535, 40.8062683161561 ], [ -73.896108245178823, 40.806496150951403 ], [ -73.896224241190652, 40.806477041842427 ], [ -73.896207082430493, 40.806415845339238 ], [ -73.896195723521956, 40.806324063526858 ], [ -73.896195853014774, 40.806241031322735 ], [ -73.896230407370183, 40.806210471902332 ], [ -73.896276425029669, 40.806206142593346 ], [ -73.896351184937984, 40.806210580554783 ], [ -73.896786823237505, 40.806159258515095 ], [ -73.897087483076803, 40.806123837656905 ], [ -73.897114380143321, 40.806110865929163 ], [ -73.89715079498724, 40.806093303628714 ], [ -73.897173874081801, 40.806045253647717 ], [ -73.897260149991467, 40.806040959847429 ], [ -73.897312961469098, 40.806081527294857 ], [ -73.897386394392029, 40.806224617136884 ], [ -73.897496819538205, 40.806214400705251 ], [ -73.897475887353679, 40.80599922682164 ], [ -73.897414726985716, 40.805800059478251 ], [ -73.897485917409213, 40.805787832516813 ], [ -73.897547065967274, 40.805994373750934 ], [ -73.897638187411516, 40.806201320838994 ], [ -73.897761266487493, 40.806189933501692 ], [ -73.897750656932473, 40.806137129325499 ], [ -73.897728272510705, 40.805967494137455 ], [ -73.897799451953858, 40.805962640911659 ], [ -73.897867158350763, 40.806112649674617 ], [ -73.897873608350565, 40.806179539492568 ], [ -73.89801340896237, 40.806166603859403 ], [ -73.89800306596382, 40.806090647513919 ], [ -73.897990370515373, 40.805930853648263 ], [ -73.897871279906568, 40.805534981759784 ], [ -73.897936002962552, 40.805520290028987 ], [ -73.898068037987983, 40.805913715708634 ], [ -73.898161107527002, 40.806138070100076 ], [ -73.89822085495237, 40.806119991154311 ], [ -73.89829494887951, 40.806097570698512 ], [ -73.898281719951001, 40.806050961839432 ], [ -73.89827305836836, 40.805917334915719 ], [ -73.898262754887227, 40.805890938490577 ], [ -73.898257612246198, 40.80587128446642 ], [ -73.898272392285136, 40.805869613382868 ], [ -73.898274624117761, 40.805859509754093 ], [ -73.898244380814958, 40.805826359223282 ], [ -73.898193423797977, 40.805811155585303 ], [ -73.898116666876021, 40.805755506565504 ], [ -73.898133007606233, 40.805699378755364 ], [ -73.898127580273936, 40.805693282830511 ], [ -73.898123488269391, 40.805686612029994 ], [ -73.898120834331564, 40.805679533839893 ], [ -73.898119685093363, 40.805672225974853 ], [ -73.898120069408577, 40.805664871915845 ], [ -73.898121977627568, 40.805657656303687 ], [ -73.898125361839618, 40.80565076030306 ], [ -73.898130137075782, 40.805644357054042 ], [ -73.898175223132469, 40.805634290784887 ], [ -73.898189275443954, 40.805624198267573 ], [ -73.898190774742048, 40.805610725739434 ], [ -73.898228278323955, 40.805571275436172 ], [ -73.898208596197307, 40.805552914428098 ], [ -73.898245558407837, 40.805539472704162 ], [ -73.898277344047017, 40.805542721420068 ], [ -73.898289883717766, 40.805544003829901 ], [ -73.898526565166037, 40.805434309098096 ], [ -73.899589506589777, 40.80522840281072 ], [ -73.899704898421248, 40.805215418567371 ], [ -73.89973764677022, 40.805194511981227 ], [ -73.899736748553053, 40.805182675907311 ], [ -73.899735957979289, 40.805172267238362 ], [ -73.900071930602337, 40.805101135089082 ], [ -73.900265550190383, 40.805060888907647 ], [ -73.900525594861975, 40.805006834881581 ], [ -73.900785784310671, 40.804917489448677 ], [ -73.900840881107726, 40.804913645922348 ], [ -73.900911315971783, 40.804899332354175 ], [ -73.900972988815354, 40.804876097891331 ], [ -73.901257341196441, 40.804881881847891 ], [ -73.901306521533755, 40.804874430242513 ], [ -73.901523314197888, 40.804841582928219 ], [ -73.901530960321764, 40.804840173707362 ], [ -73.901802709336707, 40.804790086916178 ], [ -73.902049522778896, 40.804784141024278 ], [ -73.902072454808177, 40.804790644050527 ], [ -73.902093942957222, 40.80479955033276 ], [ -73.902126827647834, 40.804825310068054 ], [ -73.902141844685232, 40.804848909975227 ], [ -73.902152155864613, 40.804872505718663 ], [ -73.902167780454221, 40.80491865682032 ], [ -73.902169119108933, 40.804926369857121 ], [ -73.902169137234679, 40.804934149666082 ], [ -73.902167834528086, 40.804941866256058 ], [ -73.902180219570482, 40.804953828320905 ], [ -73.902206214731237, 40.804950343746512 ], [ -73.902222847656091, 40.804948113190278 ], [ -73.902246204662745, 40.805071502958178 ], [ -73.902855852502483, 40.808602932267313 ], [ -73.902939292374384, 40.809062701055232 ], [ -73.90297929643036, 40.80931063994813 ], [ -73.902987954374169, 40.809364301036517 ], [ -73.902997669394992, 40.80945558285962 ], [ -73.903008778509545, 40.80955007328096 ], [ -73.903016846618726, 40.809601985581246 ], [ -73.903023695904082, 40.809667218082922 ], [ -73.903089465303268, 40.80985639970244 ], [ -73.902790878096809, 40.810083047597992 ], [ -73.902594242385945, 40.810223359275739 ], [ -73.901558193874862, 40.810892175029736 ], [ -73.900862483549972, 40.811396974114075 ], [ -73.899124492253193, 40.812695241359954 ], [ -73.898447234835714, 40.813176502682261 ], [ -73.898150517221467, 40.813366354726519 ], [ -73.897864865753263, 40.813566670010623 ], [ -73.897757795473836, 40.813648916796474 ], [ -73.897591237796732, 40.813776873349163 ], [ -73.897330490726063, 40.81399633620039 ], [ -73.897083417029236, 40.814224346708542 ], [ -73.896850731648584, 40.814460168492097 ], [ -73.895872312382977, 40.815412700727308 ], [ -73.895428588386636, 40.815844672428881 ], [ -73.895293989747969, 40.8157647134448 ], [ -73.895276908101479, 40.815754566047573 ], [ -73.895245819929471, 40.815735693642317 ], [ -73.895175308430026, 40.815692888186234 ], [ -73.895121287641416, 40.815660106106463 ], [ -73.895067219811907, 40.815627404537665 ], [ -73.895041321968463, 40.81561173986946 ], [ -73.894994595196451, 40.815584069512191 ], [ -73.89485702388896, 40.81550258735615 ], [ -73.894654989540825, 40.815382922426778 ], [ -73.894429314377504, 40.815247274930329 ], [ -73.894014384041952, 40.814997867841114 ], [ -73.893071115622249, 40.814438111495051 ], [ -73.891830406094527, 40.813700968896228 ], [ -73.891433853820587, 40.813465619801079 ], [ -73.890974620834882, 40.813213632007134 ], [ -73.890526284799279, 40.811511942398582 ], [ -73.890036364671388, 40.809629145838137 ], [ -73.889075825895105, 40.809776619221203 ], [ -73.888148779870136, 40.80991466033111 ], [ -73.887232964850341, 40.810052527229367 ], [ -73.886312627699567, 40.81019280329371 ], [ -73.88539147430815, 40.810329540784778 ], [ -73.884454875024005, 40.81047283899094 ], [ -73.883549302676727, 40.8106073454476 ], [ -73.882620196845096, 40.81075067149942 ], [ -73.882010963857965, 40.81083179463436 ] ] ] ] } },
{ "type": "Feature", "properties": { "shape_area": "6151426.1315", "ntaname": "Hunts Point", "cdtaname": "BX02 Longwood-Hunts Point (CD 2 Approximation)", "shape_leng": "11477.8088047", "boroname": "Bronx", "ct2020": "009301", "nta2020": "BX0201", "borocode": "2", "cdeligibil": "E", "geoid": "36005009301", "boroct2020": "2009301", "cdta2020": "BX02", "ctlabel": "93.01" }, "geometry": { "type": "MultiPolygon", "coordinates": [ [ [ [ -73.887996436146693, 40.816663385863336 ], [ -73.887966557180164, 40.816602422301621 ], [ -73.887911804893406, 40.816525531785452 ], [ -73.887759396368537, 40.816382688137338 ], [ -73.887007877000258, 40.815665436222616 ], [ -73.88645182082908, 40.815134542030044 ], [ -73.886153094890773, 40.814859709853238 ], [ -73.886036184413584, 40.814752084114943 ], [ -73.885874400753337, 40.814595912966979 ], [ -73.885400295013469, 40.81410644611946 ], [ -73.884173717511601, 40.812949511800227 ], [ -73.883765111597327, 40.812535592641858 ], [ -73.882840160564058, 40.811636913708291 ], [ -73.882092461561101, 40.810922065266588 ], [ -73.882010963857965, 40.81083179463436 ], [ -73.882620196845096, 40.81075067149942 ], [ -73.883549302676727, 40.8106073454476 ], [ -73.884454875024005, 40.81047283899094 ], [ -73.88539147430815, 40.810329540784778 ], [ -73.886312627699567, 40.81019280329371 ], [ -73.887232964850341, 40.810052527229367 ], [ -73.888148779870136, 40.80991466033111 ], [ -73.889075825895105, 40.809776619221203 ], [ -73.890036364671388, 40.809629145838137 ], [ -73.890526284799279, 40.811511942398582 ], [ -73.890974620834882, 40.813213632007134 ], [ -73.891433853820587, 40.813465619801079 ], [ -73.891830406094527, 40.813700968896228 ], [ -73.893071115622249, 40.814438111495051 ], [ -73.894014384041952, 40.814997867841114 ], [ -73.894429314377504, 40.815247274930329 ], [ -73.894654989540825, 40.815382922426778 ], [ -73.89485702388896, 40.81550258735615 ], [ -73.894994595196451, 40.815584069512191 ], [ -73.895041321968463, 40.81561173986946 ], [ -73.895067219811907, 40.815627404537665 ], [ -73.895121287641416, 40.815660106106463 ], [ -73.895175308430026, 40.815692888186234 ], [ -73.895245819929471, 40.815735693642317 ], [ -73.895276908101479, 40.815754566047573 ], [ -73.895293989747969, 40.8157647134448 ], [ -73.895428588386636, 40.815844672428881 ], [ -73.895362151914682, 40.815909347485942 ], [ -73.895218062636431, 40.816049617931135 ], [ -73.89513979098011, 40.816125815495411 ], [ -73.894902373096045, 40.816354748414902 ], [ -73.894543738488693, 40.816700572670797 ], [ -73.894031872273658, 40.81719413782222 ], [ -73.893322766024639, 40.817877875750135 ], [ -73.893053380237362, 40.818139614212129 ], [ -73.892390166458554, 40.818783990137412 ], [ -73.892277192193873, 40.818893753550469 ], [ -73.891336335271561, 40.819808280064052 ], [ -73.891113266211946, 40.820025108415521 ], [ -73.890885445668843, 40.820246549475947 ], [ -73.890823779300632, 40.820306482436848 ], [ -73.890734560203811, 40.820235416155676 ], [ -73.890667984149417, 40.820182028685487 ], [ -73.890606550741026, 40.82013276196286 ], [ -73.890560175908533, 40.820095569248593 ], [ -73.890502508990835, 40.82004931763106 ], [ -73.890455926491427, 40.820011488921836 ], [ -73.890421274640559, 40.819983336351392 ], [ -73.890388751370381, 40.819958057330076 ], [ -73.890341796372411, 40.819918728038687 ], [ -73.890087032018087, 40.819711625800451 ], [ -73.889960813677362, 40.819617464736169 ], [ -73.889713209326146, 40.819432745067353 ], [ -73.889159725683101, 40.818604414857802 ], [ -73.889094622931509, 40.818494774166091 ], [ -73.889033439578512, 40.818391732311014 ], [ -73.88900309216551, 40.818340622710785 ], [ -73.888971958677899, 40.81828818940437 ], [ -73.888945260054683, 40.818243224413742 ], [ -73.888919527898295, 40.818199887345394 ], [ -73.888891847522984, 40.818153269101913 ], [ -73.888866921562894, 40.818111289746284 ], [ -73.888844959345676, 40.81807430161868 ], [ -73.888818484526141, 40.818029712235081 ], [ -73.888796677387049, 40.817992984915321 ], [ -73.888774397505045, 40.817955461226369 ], [ -73.888750236256854, 40.817914768834711 ], [ -73.888726075038221, 40.817874076437704 ], [ -73.888702272931013, 40.817833988810342 ], [ -73.888679647267878, 40.817795882285566 ], [ -73.888655502625028, 40.817755219038162 ], [ -73.888564321797602, 40.817604263416627 ], [ -73.888529094739894, 40.817545943572007 ], [ -73.888510060246446, 40.817514430059951 ], [ -73.888488522660765, 40.817478771745478 ], [ -73.88846247189322, 40.817435642326402 ], [ -73.888439105460648, 40.81739695707553 ], [ -73.888413823081592, 40.81735509973177 ], [ -73.888383572580508, 40.81730501664282 ], [ -73.888359490691116, 40.817265147624262 ], [ -73.888017537768846, 40.816699005991062 ], [ -73.887996436146693, 40.816663385863336 ] ] ] ] } },
{ "type": "Feature", "properties": { "shape_area": "3727023.63722", "ntaname": "Hunts Point", "cdtaname": "BX02 Longwood-Hunts Point (CD 2 Approximation)", "shape_leng": "7746.64552414", "boroname": "Bronx", "ct2020": "011502", "nta2020": "BX0201", "borocode": "2", "cdeligibil": "E", "geoid": "36005011502", "boroct2020": "2011502", "cdta2020": "BX02", "ctlabel": "115.02" }, "geometry": { "type": "MultiPolygon", "coordinates": [ [ [ [ -73.880980295932673, 40.818235623127428 ], [ -73.881272918185402, 40.818002395653515 ], [ -73.881754514571398, 40.817617314794362 ], [ -73.882623324859566, 40.81746950456423 ], [ -73.883032864518754, 40.817405514101289 ], [ -73.883033903840399, 40.817405352656827 ], [ -73.883380733555867, 40.817351435910254 ], [ -73.884319301193401, 40.817209931429261 ], [ -73.885239704003652, 40.817070102944953 ], [ -73.885329997794372, 40.817056381890431 ], [ -73.886161940967369, 40.81692995498404 ], [ -73.88707381379875, 40.816791202398903 ], [ -73.887944898833496, 40.816670524768305 ], [ -73.887996436146693, 40.816663385863336 ], [ -73.888017537768846, 40.816699005991062 ], [ -73.888359490691116, 40.817265147624262 ], [ -73.888383572580508, 40.81730501664282 ], [ -73.888413823081592, 40.81735509973177 ], [ -73.888439105460648, 40.81739695707553 ], [ -73.88846247189322, 40.817435642326402 ], [ -73.888488522660765, 40.817478771745478 ], [ -73.888510060246446, 40.817514430059951 ], [ -73.888529094739894, 40.817545943572007 ], [ -73.888564321797602, 40.817604263416627 ], [ -73.888655502625028, 40.817755219038162 ], [ -73.888679647267878, 40.817795882285566 ], [ -73.888702272931013, 40.817833988810342 ], [ -73.888726075038221, 40.817874076437704 ], [ -73.888750236256854, 40.817914768834711 ], [ -73.888774397505045, 40.817955461226369 ], [ -73.888796677387049, 40.817992984915321 ], [ -73.888818484526141, 40.818029712235081 ], [ -73.888844959345676, 40.81807430161868 ], [ -73.888866921562894, 40.818111289746284 ], [ -73.888891847522984, 40.818153269101913 ], [ -73.888919527898295, 40.818199887345394 ], [ -73.888945260054683, 40.818243224413742 ], [ -73.888971958677899, 40.81828818940437 ], [ -73.88900309216551, 40.818340622710785 ], [ -73.889033439578512, 40.818391732311014 ], [ -73.889094622931509, 40.818494774166091 ], [ -73.889159725683101, 40.818604414857802 ], [ -73.889713209326146, 40.819432745067353 ], [ -73.889960813677362, 40.819617464736169 ], [ -73.890087032018087, 40.819711625800451 ], [ -73.890341796372411, 40.819918728038687 ], [ -73.890388751370381, 40.819958057330076 ], [ -73.890421274640559, 40.819983336351392 ], [ -73.890455926491427, 40.820011488921836 ], [ -73.890502508990835, 40.82004931763106 ], [ -73.890560175908533, 40.820095569248593 ], [ -73.890606550741026, 40.82013276196286 ], [ -73.890667984149417, 40.820182028685487 ], [ -73.890734560203811, 40.820235416155676 ], [ -73.890823779300632, 40.820306482436848 ], [ -73.890741212859979, 40.820417772955345 ], [ -73.89011271890439, 40.820900946342149 ], [ -73.889223810958626, 40.821465895546467 ], [ -73.888640053437712, 40.821766791886986 ], [ -73.888420262568175, 40.821920609707711 ], [ -73.888338362730792, 40.821999684356747 ], [ -73.88788746200774, 40.822363013788483 ], [ -73.88756450009268, 40.822513869132685 ], [ -73.887184712105267, 40.822644982367891 ], [ -73.887053966158291, 40.822660260420996 ], [ -73.886936773868044, 40.822672584089524 ], [ -73.886806973471195, 40.822684205900401 ], [ -73.886554398812379, 40.822706239267177 ], [ -73.886299419402889, 40.822736122916709 ], [ -73.885612806877603, 40.822794518973737 ], [ -73.885249767800261, 40.822845044301303 ], [ -73.885150933229554, 40.822858799667792 ], [ -73.88511709273655, 40.822863508740312 ], [ -73.885081624357795, 40.822868444683827 ], [ -73.885048555385865, 40.822872824649664 ], [ -73.884780006409414, 40.822902381826928 ], [ -73.884557767167621, 40.822924101388871 ], [ -73.884385041060995, 40.822951369498597 ], [ -73.884361285919297, 40.822873801332094 ], [ -73.884332123817174, 40.822810142979925 ], [ -73.884294882112087, 40.822718205268167 ], [ -73.884249718163332, 40.822642209083405 ], [ -73.883787861264821, 40.821933413771454 ], [ -73.882659229901833, 40.819688832620365 ], [ -73.882447796190462, 40.819268322512364 ], [ -73.880980295932673, 40.818235623127428 ] ] ] ] } },
{ "type": "Feature", "properties": { "shape_area": "2317448.70822", "ntaname": "Longwood", "cdtaname": "BX02 Longwood-Hunts Point (CD 2 Approximation)", "shape_leng": "6859.5099599", "boroname": "Bronx", "ct2020": "008300", "nta2020": "BX0202", "borocode": "2", "cdeligibil": "E", "geoid": "36005008300", "boroct2020": "2008300", "cdta2020": "BX02", "ctlabel": "83" }, "geometry": { "type": "MultiPolygon", "coordinates": [ [ [ [ -73.898447234835714, 40.813176502682261 ], [ -73.899124492253193, 40.812695241359954 ], [ -73.900862483549972, 40.811396974114075 ], [ -73.901558193874862, 40.810892175029736 ], [ -73.902594242385945, 40.810223359275739 ], [ -73.902790878096809, 40.810083047597992 ], [ -73.903089465303268, 40.80985639970244 ], [ -73.903242735022303, 40.810712884532585 ], [ -73.903417203736481, 40.811506882855817 ], [ -73.904180364356776, 40.812124820567519 ], [ -73.90446551410588, 40.812281959913292 ], [ -73.904183377617386, 40.813086455480914 ], [ -73.903804122916057, 40.814131842797636 ], [ -73.903469971837922, 40.815075788484052 ], [ -73.903064437834686, 40.816106761525667 ], [ -73.903009832142914, 40.816317792457461 ], [ -73.902578590742195, 40.817369794431038 ], [ -73.901535032335048, 40.817156256432121 ], [ -73.90072129284394, 40.816764184421693 ], [ -73.900922816401106, 40.816724456613841 ], [ -73.90050630021949, 40.815878864785461 ], [ -73.90012021642103, 40.815083264902896 ], [ -73.899727928027602, 40.814289684262313 ], [ -73.899566263833464, 40.813955653519329 ], [ -73.899521113849758, 40.813862363972191 ], [ -73.899340660912486, 40.813489507766768 ], [ -73.898447234835714, 40.813176502682261 ] ] ] ] } },
{ "type": "Feature", "properties": { "shape_area": "930649.181317", "ntaname": "North & South Brother Islands", "cdtaname": "BX02 Longwood-Hunts Point (CD 2 Approximation)", "shape_leng": "6884.55184873", "boroname": "Bronx", "ct2020": "001904", "nta2020": "BX0291", "borocode": "2", "cdeligibil": "I", "geoid": "36005001904", "boroct2020": "2001904", "cdta2020": "BX02", "ctlabel": "19.04" }, "geometry": { "type": "MultiPolygon", "coordinates": [ [ [ [ -73.896808832237738, 40.795808445159985 ], [ -73.896938729987923, 40.795635872853751 ], [ -73.897236038439388, 40.795720037537272 ], [ -73.897968397837417, 40.795644839162179 ], [ -73.89857332665558, 40.796069140259782 ], [ -73.898952618325268, 40.796227852579825 ], [ -73.899194342499811, 40.796502456018395 ], [ -73.898520520714712, 40.796936194189975 ], [ -73.89788253240107, 40.797116532649795 ], [ -73.897131497956423, 40.796798077728489 ], [ -73.89678526341234, 40.79632916648729 ], [ -73.896808832237738, 40.795808445159985 ] ] ], [ [ [ -73.908380802337689, 40.799487044751814 ], [ -73.908244442186302, 40.799409504250249 ], [ -73.908220774228042, 40.799419163826812 ], [ -73.908177144880412, 40.799390091479218 ], [ -73.908131524698717, 40.799431300776639 ], [ -73.907960765422786, 40.7992834492686 ], [ -73.908026332767122, 40.799237872162315 ], [ -73.908168140202321, 40.799322330683815 ], [ -73.908251771324018, 40.79937217631219 ], [ -73.908320868515517, 40.79940541664007 ], [ -73.908421907679369, 40.799442092947686 ], [ -73.908380802337689, 40.799487044751814 ] ] ], [ [ [ -73.907658529285328, 40.799420098214199 ], [ -73.907682228008937, 40.799388313925455 ], [ -73.907789506406417, 40.799442326072615 ], [ -73.907849514261514, 40.799470028240364 ], [ -73.907933177179714, 40.799496367694218 ], [ -73.907995017448371, 40.799514392328312 ], [ -73.908051407063681, 40.799526881913003 ], [ -73.908102100342376, 40.799539646863053 ], [ -73.908073973217967, 40.799572819167935 ], [ -73.908027704647679, 40.799561430602949 ], [ -73.907951306580387, 40.799544777783446 ], [ -73.907871276368795, 40.799522589666651 ], [ -73.907793075595421, 40.799493489538143 ], [ -73.907734887990557, 40.799465789300676 ], [ -73.907658529285328, 40.799420098214199 ] ] ], [ [ [ -73.90638976821414, 40.801090791686001 ], [ -73.906451711255201, 40.801036915201848 ], [ -73.90658587833812, 40.801107478948708 ], [ -73.906520422131734, 40.801175510519933 ], [ -73.90638976821414, 40.801090791686001 ] ] ], [ [ [ -73.898330362704797, 40.802412821442779 ], [ -73.896466688345711, 40.800790470891506 ], [ -73.897984866869166, 40.799604280819942 ], [ -73.898640387149186, 40.7991011651241 ], [ -73.899024555672284, 40.799172199840143 ], [ -73.900210049930706, 40.799264156398728 ], [ -73.899787388009216, 40.799509553872134 ], [ -73.899715638174442, 40.800798808502961 ], [ -73.900037358157419, 40.800908742050368 ], [ -73.899489194236708, 40.80090111592974 ], [ -73.899387485710506, 40.801935665070467 ], [ -73.898330362704797, 40.802412821442779 ] ] ], [ [ [ -73.904016809717973, 40.803470976169031 ], [ -73.904097749800115, 40.803416598628317 ], [ -73.904148989009386, 40.803455652587495 ], [ -73.90407055303406, 40.80352097765094 ], [ -73.904016809717973, 40.803470976169031 ] ] ], [ [ [ -73.903850843028536, 40.803574282778087 ], [ -73.903872360170155, 40.803558744700801 ], [ -73.903948425066687, 40.803621310450623 ], [ -73.903936743360504, 40.803629576611357 ], [ -73.903927327704494, 40.8036343907998 ], [ -73.903850843028536, 40.803574282778087 ] ] ], [ [ [ -73.903665392533725, 40.80370246203212 ], [ -73.903689979464374, 40.80368770504235 ], [ -73.903765994538844, 40.80375345467921 ], [ -73.903742013356108, 40.803767808791044 ], [ -73.903665392533725, 40.80370246203212 ] ] ], [ [ [ -73.903317274211787, 40.803775282455319 ], [ -73.903338771212873, 40.803773744176858 ], [ -73.903356337877582, 40.803861123610808 ], [ -73.903338652615858, 40.803855412435993 ], [ -73.903317274211787, 40.803775282455319 ] ] ], [ [ [ -73.902973119450195, 40.803936771871172 ], [ -73.903002831710793, 40.803917352770213 ], [ -73.903086098464783, 40.803997087897002 ], [ -73.903059667337885, 40.804017434347983 ], [ -73.902973119450195, 40.803936771871172 ] ] ], [ [ [ -73.902709731025453, 40.804163663467385 ], [ -73.902904693884409, 40.804139054437897 ], [ -73.902877605668252, 40.80415758214631 ], [ -73.902712782112189, 40.804176887939526 ], [ -73.902709731025453, 40.804163663467385 ] ] ] ] } }
]
}
